,SEARCHVAL,BLK_NO,ROAD_NAME,BUILDING,ADDRESS,POSTAL,X,Y,LATITUDE,LONGITUDE,LONGTITUDE,address
0,TELOK AYER CONSERVATION AREA,100,AMOY STREET,TELOK AYER CONSERVATION AREA,100 AMOY STREET TELOK AYER CONSERVATION AREA SINGAPORE 069920,069920,29545.8192581516,29333.8618907183,1.28155949555229,103.847208361003,103.847208361003,100 AM[1]
1,AMARA SINGAPORE,100,TRAS STREET,AMARA SINGAPORE,100 TRAS STREET AMARA SINGAPORE SINGAPORE 079027,079027,29138.9450046336,28601.3295877781,1.2749347475094,103.843552412915,103.843552412915,100 AM[1]
2,100 AM,100,TRAS STREET,100 AM,100 TRAS STREET 100 AM SINGAPORE 079027,079027,29131.8164707171,28573.4721462838,1.27468281482263,103.843488359469,103.843488359469,100 AM[1]
3,AMAR KIDZ @ PASIR PANJANG LLP,100,PASIR PANJANG ROAD,AMAR KIDZ @ PASIR PANJANG LLP,100 PASIR PANJANG ROAD AMAR KIDZ @ PASIR PANJANG LLP SINGAPORE 118518,118518,23820.115794179,28656.0198087133,1.27542909113256,103.795760800599,103.795760800599,100 AM[1]
4,313 @ SOMERSET,313,ORCHARD ROAD,313 @ SOMERSET,313 ORCHARD ROAD 313 @ SOMERSET SINGAPORE 238895,238895,28561.1386390822,31485.0772309396,1.30101436404056,103.838360664485,103.838360664485,313@Somerset[2]
5,DBS 313 @ SOMERSET,313,ORCHARD ROAD,DBS 313 @ SOMERSET,313 ORCHARD ROAD DBS 313 @ SOMERSET SINGAPORE 238895,238895,28576.7001964785,31483.9930923004,1.30100455918816,103.838500492119,103.838500492119,313@Somerset[2]
6,APERIA,10,KALLANG AVENUE,APERIA,10 KALLANG AVENUE APERIA SINGAPORE 339510,339510,31449.4111944707,32531.0590828769,1.3104736675734,103.86431321816,103.86431321816,Aperia
7,APERIA,8,KALLANG AVENUE,APERIA,8 KALLANG AVENUE APERIA SINGAPORE 339509,339509,31406.7146015475,32574.5211833753,1.31086672816827,103.863929573292,103.863929573292,Aperia
8,APERIA,12,KALLANG AVENUE,APERIA,12 KALLANG AVENUE APERIA SINGAPORE 339511,339511,31450.8833081266,32446.7500659395,1.3097112065077,103.864326436447,103.864326436447,Aperia
9,BALESTIER HILL SHOPPING CENTRE,1,THOMSON ROAD,BALESTIER HILL SHOPPING CENTRE,1 THOMSON ROAD BALESTIER HILL SHOPPING CENTRE SINGAPORE 300001,300001,29029.7692046016,34203.1838174984,1.32559594839311,103.842571612968,103.842571612968,Balestier Hill Shopping Centre
10,BALESTIER HILL SHOPPING CENTRE,2,BALESTIER ROAD,BALESTIER HILL SHOPPING CENTRE,2 BALESTIER ROAD BALESTIER HILL SHOPPING CENTRE SINGAPORE 320002,320002,29070.2638017088,34236.3844964262,1.32589620218837,103.842935480003,103.842935480003,Balestier Hill Shopping Centre
11,BALESTIER HILL SHOPPING CENTRE,1A,THOMSON ROAD,BALESTIER HILL SHOPPING CENTRE,1A THOMSON ROAD BALESTIER HILL SHOPPING CENTRE SINGAPORE 301001,301001,29081.2672731699,34219.3042732142,1.32574173430776,103.843034351562,103.843034351562,Balestier Hill Shopping Centre
12,BALESTIER HILL SHOPPING CENTRE,2A,BALESTIER ROAD,BALESTIER HILL SHOPPING CENTRE,2A BALESTIER ROAD BALESTIER HILL SHOPPING CENTRE SINGAPORE 321002,321002,29159.9587036697,34265.8946909029,1.32616307866261,103.843741438467,103.843741438467,Balestier Hill Shopping Centre
13,BUGIS JUNCTION,200,VICTORIA STREET,BUGIS JUNCTION,200 VICTORIA STREET BUGIS JUNCTION SINGAPORE 188021,188021,30458.7085178969,31274.8305191435,1.29911287475873,103.855411173758,103.855411173758,Bugis Junction
14,STANDARD CHARTERED BANK BUGIS JUNCTION,200,VICTORIA STREET,STANDARD CHARTERED BANK BUGIS JUNCTION,200 VICTORIA STREET STANDARD CHARTERED BANK BUGIS JUNCTION SINGAPORE 188021,188021,30463.0657454925,31277.5172567181,1.2991371723215,103.855450325604,103.855450325604,Bugis Junction
15,BUGIS JUNCTION TOWERS,230,VICTORIA STREET,BUGIS JUNCTION TOWERS,230 VICTORIA STREET BUGIS JUNCTION TOWERS SINGAPORE 188024,188024,30519.2752678711,31352.2039302923,1.29981260775979,103.855955399263,103.855955399263,Bugis Junction
16,OCBC PARCO BUGIS JUNCTION,230,VICTORIA STREET,OCBC PARCO BUGIS JUNCTION,230 VICTORIA STREET OCBC PARCO BUGIS JUNCTION SINGAPORE 188024,188024,30515.7317042127,31352.6231115982,1.29981639897451,103.855923558787,103.855923558787,Bugis Junction
17,DBS BUGIS JUNCTION,230,VICTORIA STREET,DBS BUGIS JUNCTION,230 VICTORIA STREET DBS BUGIS JUNCTION SINGAPORE 188024,188024,30526.844231219,31360.5606179163,1.29988818208147,103.85602341047,103.85602341047,Bugis Junction
18,UOB BUGIS JUNCTION,230,VICTORIA STREET,UOB BUGIS JUNCTION,230 VICTORIA STREET UOB BUGIS JUNCTION SINGAPORE 188024,188024,30534.7817375371,31352.6231115982,1.29981639742783,103.856094731885,103.856094731885,Bugis Junction
19,BUGIS BACKPACKERS HOSTEL,162B,ROCHOR ROAD,BUGIS BACKPACKERS HOSTEL,162B ROCHOR ROAD BUGIS BACKPACKERS HOSTEL SINGAPORE 188437,188437,30432.1584716914,31478.1598162092,1.30095171530648,103.855172625542,103.855172625542,Bugis+
20,BUGIS CUBE,470,NORTH BRIDGE ROAD,BUGIS CUBE,470 NORTH BRIDGE ROAD BUGIS CUBE SINGAPORE 188735,188735,30483.6570850834,31167.3475166354,1.2981408343975,103.855635339249,103.855635339249,Bugis+
21,BUGIS JUNCTION,200,VICTORIA STREET,BUGIS JUNCTION,200 VICTORIA STREET BUGIS JUNCTION SINGAPORE 188021,188021,30458.7085178969,31274.8305191435,1.29911287475873,103.855411173758,103.855411173758,Bugis+
22,BUGIS JUNCTION TOWERS,230,VICTORIA STREET,BUGIS JUNCTION TOWERS,230 VICTORIA STREET BUGIS JUNCTION TOWERS SINGAPORE 188024,188024,30519.2752678711,31352.2039302923,1.29981260775979,103.855955399263,103.855955399263,Bugis+
23,BUGIS MRT STATION,320,VICTORIA STREET,BUGIS MRT STATION,320 VICTORIA STREET BUGIS MRT STATION SINGAPORE 188045,188045,30491.6001001745,31424.3513016403,1.3004650853709,103.855706731205,103.855706731205,Bugis+
24,BUGIS MRT STATION,220,VICTORIA STREET,BUGIS MRT STATION,220 VICTORIA STREET BUGIS MRT STATION SINGAPORE 188022,188022,30481.364799873,31402.1925042439,1.30026468984101,103.855614760658,103.855614760658,Bugis+
25,BUGIS MRT STATION (DT14),191,ROCHOR ROAD,BUGIS MRT STATION (DT14),191 ROCHOR ROAD BUGIS MRT STATION (DT14) SINGAPORE 188476,188476,30649.548609254,31297.0167393312,1.29931350344582,103.857125959023,103.857125959023,Bugis+
26,BUGIS MRT STATION (EW12),220,VICTORIA STREET,BUGIS MRT STATION (EW12),220 VICTORIA STREET BUGIS MRT STATION (EW12) SINGAPORE 188022,188022,30491.6000699066,31424.3512713723,1.30046508509717,103.855706730933,103.855706730933,Bugis+
27,BUGIS MRT STATION EXIT A,,NIL,BUGIS MRT STATION EXIT A,BUGIS MRT STATION EXIT A,NIL,30515.788456683,31506.0667761248,1.30120408934977,103.855924081071,103.855924081071,Bugis+
28,BUGIS MRT STATION EXIT B,,NIL,BUGIS MRT STATION EXIT B,BUGIS MRT STATION EXIT B,NIL,30560.7240631655,31459.1235548183,1.30077954774568,103.856327844038,103.856327844038,Bugis+
29,CAPITOL PIAZZA,13,STAMFORD ROAD,CAPITOL PIAZZA,13 STAMFORD ROAD CAPITOL PIAZZA SINGAPORE 178905,178905,29996.9452433269,30607.61522354,1.29307884763132,103.851261982149,103.851261982149,Capitol Piazza
30,CATHAY CINELEISURE ORCHARD,8,GRANGE ROAD,CATHAY CINELEISURE ORCHARD,8 GRANGE ROAD CATHAY CINELEISURE ORCHARD SINGAPORE 239695,239695,28346.2346228976,31541.100151198,1.30152101873533,103.836429655016,103.836429655016,Cathay Cineleisure Orchard
31,DBS CATHAY CINELEISURE ORCHARD,8,GRANGE ROAD,DBS CATHAY CINELEISURE ORCHARD,8 GRANGE ROAD DBS CATHAY CINELEISURE ORCHARD SINGAPORE 239695,239695,28343.6858467925,31537.9631168302,1.30149264852924,103.836406753067,103.836406753067,Cathay Cineleisure Orchard
32,UOB CATHAY CINELEISURE ORCHARD,8,GRANGE ROAD,UOB CATHAY CINELEISURE ORCHARD,8 GRANGE ROAD UOB CATHAY CINELEISURE ORCHARD SINGAPORE 239695,239695,28350.035857901,31534.7881264109,1.30146393496315,103.836463810773,103.836463810773,Cathay Cineleisure Orchard
33,THE CENTREPOINT,176,ORCHARD ROAD,THE CENTREPOINT,176 ORCHARD ROAD THE CENTREPOINT SINGAPORE 238843,238843,28716.7630815674,31591.6722616088,1.30197836876806,103.839759023144,103.839759023144,The Centrepoint
34,OCBC THE CENTREPOINT,176,ORCHARD ROAD,OCBC THE CENTREPOINT,176 ORCHARD ROAD OCBC THE CENTREPOINT SINGAPORE 238843,238843,28747.3740015402,31533.2983967867,1.30145045537088,103.840034074858,103.840034074858,The Centrepoint
35,THE CENTREPOINT,176A,ORCHARD ROAD,THE CENTREPOINT,176A ORCHARD ROAD THE CENTREPOINT SINGAPORE 238844,238844,28716.7631118353,31591.6722918767,1.3019783690418,103.839759023416,103.839759023416,The Centrepoint
36,LEAP SCHOOLHOUSE @ CITY SQUARE MALL PTE LTD,180,KITCHENER ROAD,LEAP SCHOOLHOUSE @ CITY SQUARE MALL PTE LTD,180 KITCHENER ROAD LEAP SCHOOLHOUSE @ CITY SQUARE MALL PTE LTD SINGAPORE 208539,208539,30578.4383098325,32632.7593870945,1.31139349427341,103.856487111691,103.856487111691,City Square Mall
37,CITIBANK CITY SQUARE MALL,180,KITCHENER ROAD,CITIBANK CITY SQUARE MALL,180 KITCHENER ROAD CITIBANK CITY SQUARE MALL SINGAPORE 208539,208539,30604.8082009982,32628.1381621454,1.31135169933195,103.856724057693,103.856724057693,City Square Mall
38,CITY SQUARE MALL,180,KITCHENER ROAD,CITY SQUARE MALL,180 KITCHENER ROAD CITY SQUARE MALL SINGAPORE 208539,208539,30593.6748798871,32635.8044067919,1.31142103107683,103.856624019991,103.856624019991,City Square Mall
39,DBS CITY SQUARE MALL,180,KITCHENER ROAD,DBS CITY SQUARE MALL,180 KITCHENER ROAD DBS CITY SQUARE MALL SINGAPORE 208539,208539,30596.3571983362,32610.9253046289,1.3111960330469,103.856648119855,103.856648119855,City Square Mall
40,OCBC CITY SQUARE MALL - FAIRPRICE,180,KITCHENER ROAD,OCBC CITY SQUARE MALL - FAIRPRICE,180 KITCHENER ROAD OCBC CITY SQUARE MALL - FAIRPRICE SINGAPORE 208539,208539,30593.9905144218,32631.5680089872,1.3113827185663,103.856626855768,103.856626855768,City Square Mall
41,UOB CITY SQUARE MALL AUTOLOBBY,180,KITCHENER ROAD,UOB CITY SQUARE MALL AUTOLOBBY,180 KITCHENER ROAD UOB CITY SQUARE MALL AUTOLOBBY SINGAPORE 208539,208539,30593.9185976926,32632.2238859273,1.31138865009152,103.856626209616,103.856626209616,City Square Mall
42,OCBC CITY SQUARE MALL - BRANCH,180,KITCHENER ROAD,OCBC CITY SQUARE MALL - BRANCH,180 KITCHENER ROAD OCBC CITY SQUARE MALL - BRANCH SINGAPORE 208539,208539,30593.9905144218,32631.5680089872,1.3113827185663,103.856626855768,103.856626855768,City Square Mall
43,UOB CITYLINK MALL,1,RAFFLES LINK,UOB CITYLINK MALL,1 RAFFLES LINK UOB CITYLINK MALL SINGAPORE 039393,039393,30336.8385979049,30555.0556870513,1.29260349413333,103.854316064564,103.854316064564,CityLink Mall
44,CITYLINK MALL,1,RAFFLES LINK,CITYLINK MALL,1 RAFFLES LINK CITYLINK MALL SINGAPORE 039393,039393,30320.972393252,30574.3218035102,1.2927777312893,103.854173501417,103.854173501417,CityLink Mall
45,DUO GALLERIA,7,FRASER STREET,DUO GALLERIA,7 FRASER STREET DUO GALLERIA SINGAPORE 189356,189356,30791.5255810972,31321.438068511,1.29953434891664,103.85840168774,103.85840168774,Duo
46,DUO RESIDENCES,3,FRASER STREET,DUO RESIDENCES,3 FRASER STREET DUO RESIDENCES SINGAPORE 189352,189352,30731.1894126236,31280.3711946346,1.2991629599519,103.857859536675,103.857859536675,Duo
47,DUO RESIDENCES,1,FRASER STREET,DUO RESIDENCES,1 FRASER STREET DUO RESIDENCES SINGAPORE 189350,189350,30731.1894428916,31280.3711643666,1.29916295967817,103.857859536947,103.857859536947,Duo
48,DUO RESIDENCES,5,FRASER STREET,DUO RESIDENCES,5 FRASER STREET DUO RESIDENCES SINGAPORE 189354,189354,30731.1894126236,31280.3711946346,1.2991629599519,103.857859536675,103.857859536675,Duo
49,DUO RESIDENCES,7,FRASER STREET,DUO RESIDENCES,7 FRASER STREET DUO RESIDENCES SINGAPORE 189356,189356,30731.1894126236,31280.3711946346,1.2991629599519,103.857859536675,103.857859536675,Duo
50,DUO RESIDENCES,,NIL,DUO RESIDENCES,DUO RESIDENCES,NIL,30746.4649981102,31286.3049301617,1.29921662121831,103.857996795149,103.857996795149,Duo
51,DUO TIAN GONG TEMPLE,2,JURONG WEST STREET 76,DUO TIAN GONG TEMPLE,2 JURONG WEST STREET 76 DUO TIAN GONG TEMPLE SINGAPORE 648370,648370,13572.7062102985,36571.2722273171,1.3470086468546,103.703680520388,103.703680520388,Duo
52,DUO TOWER,3,FRASER STREET,DUO TOWER,3 FRASER STREET DUO TOWER SINGAPORE 189352,189352,30766.6930613602,31307.1249443702,1.29940490828991,103.858178555169,103.858178555169,Duo
53,DBS FAR EAST PLAZA,14,SCOTTS ROAD,DBS FAR EAST PLAZA,14 SCOTTS ROAD DBS FAR EAST PLAZA SINGAPORE 228213,228213,28055.6297135409,32180.6284140553,1.30730468891062,103.833818438639,103.833818438639,Far East Plaza
54,FAR EAST PLAZA,14,SCOTTS ROAD,FAR EAST PLAZA,14 SCOTTS ROAD FAR EAST PLAZA SINGAPORE 228213,228213,28052.7910912242,32166.5070981272,1.30717698071189,103.833792932243,103.833792932243,Far East Plaza
55,OCBC FAR EAST PLAZA,14,SCOTTS ROAD,OCBC FAR EAST PLAZA,14 SCOTTS ROAD OCBC FAR EAST PLAZA SINGAPORE 228213,228213,28054.2060891949,32171.3747044653,1.30722100162543,103.833805646681,103.833805646681,Far East Plaza
56,FAR EAST PLAZA RESIDENCES,14,SCOTTS ROAD,FAR EAST PLAZA RESIDENCES,14 SCOTTS ROAD FAR EAST PLAZA RESIDENCES SINGAPORE 228213,228213,28053.940729782,32189.8622073121,1.30738819608479,103.833803262332,103.833803262332,Far East Plaza
57,UOB FAR EAST PLAZA,14,SCOTTS ROAD,UOB FAR EAST PLAZA,14 SCOTTS ROAD UOB FAR EAST PLAZA SINGAPORE 228213,228213,28046.3760039508,32176.3575107493,1.30726606438138,103.833735289647,103.833735289647,Far East Plaza
58,FAR EAST PLAZA,14A,SCOTTS ROAD,FAR EAST PLAZA,14A SCOTTS ROAD FAR EAST PLAZA SINGAPORE 228214,228214,28069.15429617,32181.3401959613,1.30731112598868,103.833939963454,103.833939963454,Far East Plaza
59,FAR EAST PLAZA,14B,SCOTTS ROAD,FAR EAST PLAZA,14B SCOTTS ROAD FAR EAST PLAZA SINGAPORE 228215,228215,28069.15429617,32181.3401959613,1.30731112598868,103.833939963454,103.833939963454,Far East Plaza
60,FAR EAST PLAZA,14C,SCOTTS ROAD,FAR EAST PLAZA,14C SCOTTS ROAD FAR EAST PLAZA SINGAPORE 228216,228216,28069.15429617,32181.3401959613,1.30731112598868,103.833939963454,103.833939963454,Far East Plaza
61,FAR EAST PLAZA,14D,SCOTTS ROAD,FAR EAST PLAZA,14D SCOTTS ROAD FAR EAST PLAZA SINGAPORE 228217,228217,28069.15429617,32181.3401959613,1.30731112598868,103.833939963454,103.833939963454,Far East Plaza
62,FUNAN,107,NORTH BRIDGE ROAD,FUNAN,107 NORTH BRIDGE ROAD FUNAN SINGAPORE 179105,179105,29855.3625422399,30416.1814862192,1.29134759697794,103.849989790085,103.849989790085,Funan
63,FUNAN O1,109,NORTH BRIDGE ROAD,FUNAN O1,109 NORTH BRIDGE ROAD FUNAN O1 SINGAPORE 179097,179097,29887.9367647087,30418.9446201846,1.29137258384263,103.850282483296,103.850282483296,Funan
64,FUNAN O2,109,NORTH BRIDGE ROAD,FUNAN O2,109 NORTH BRIDGE ROAD FUNAN O2 SINGAPORE 179097,179097,29842.5918745501,30390.9751266148,1.29111964028141,103.849875038808,103.849875038808,Funan
65,GREAT WORLD CITY,1,KIM SENG PROMENADE,GREAT WORLD CITY,1 KIM SENG PROMENADE GREAT WORLD CITY SINGAPORE 237994,237994,27855.7183074635,30645.6325677894,1.29342272650003,103.832022146655,103.832022146655,Great World City
66,UOB GREAT WORLD CITY,1,KIM SENG PROMENADE,UOB GREAT WORLD CITY,1 KIM SENG PROMENADE UOB GREAT WORLD CITY SINGAPORE 237994,237994,27850.567604675,30651.519085262,1.2934759620704,103.831975865363,103.831975865363,Great World City
67,DBS GREAT WORLD CITY,1,KIM SENG PROMENADE,DBS GREAT WORLD CITY,1 KIM SENG PROMENADE DBS GREAT WORLD CITY SINGAPORE 237994,237994,27850.567604675,30651.519085262,1.2934759620704,103.831975865363,103.831975865363,Great World City
68,DBS GREAT WORLD CITY BRANCH,1,KIM SENG PROMENADE,DBS GREAT WORLD CITY BRANCH,1 KIM SENG PROMENADE DBS GREAT WORLD CITY BRANCH SINGAPORE 237994,237994,27850.567604675,30651.519085262,1.2934759620704,103.831975865363,103.831975865363,Great World City
69,HDB HUB,460,LORONG 6 TOA PAYOH,HDB HUB,460 LORONG 6 TOA PAYOH HDB HUB SINGAPORE 310460,310460,29839.7194126267,34912.8489311524,1.33201387005935,103.84984949662,103.84984949662,HDB Hub
70,HDB HUB,470,LORONG 6 TOA PAYOH,HDB HUB,470 LORONG 6 TOA PAYOH HDB HUB SINGAPORE 310470,310470,29782.8690867657,34915.1561687477,1.33203473928975,103.849338664495,103.849338664495,HDB Hub
71,HDB HUB,480,LORONG 6 TOA PAYOH,HDB HUB,480 LORONG 6 TOA PAYOH HDB HUB SINGAPORE 310480,310480,29690.3850203734,34917.3795337603,1.33205485190481,103.848507643079,103.848507643079,HDB Hub
72,HDB HUB,490,LORONG 6 TOA PAYOH,HDB HUB,490 LORONG 6 TOA PAYOH HDB HUB SINGAPORE 310490,310490,29680.4882372022,34974.0978306755,1.33256779261697,103.848418718015,103.848418718015,HDB Hub
73,HDB HUB,500,LORONG 6 TOA PAYOH,HDB HUB,500 LORONG 6 TOA PAYOH HDB HUB SINGAPORE 310500,310500,29532.8697974812,35005.9023080505,1.33285542884681,103.847092284316,103.847092284316,HDB Hub
74,HDB HUB,520,LORONG 6 TOA PAYOH,HDB HUB,520 LORONG 6 TOA PAYOH HDB HUB SINGAPORE 310520,310520,29576.0112086935,35036.6021250915,1.33313306489434,103.847479935962,103.847479935962,HDB Hub
75,HDB HUB,530,LORONG 6 TOA PAYOH,HDB HUB,530 LORONG 6 TOA PAYOH HDB HUB SINGAPORE 310530,310530,29532.2190358313,34929.9016104992,1.33216810552095,103.847086433041,103.847086433041,HDB Hub
76,DBS HDB HUB EBC,510,LORONG 6 TOA PAYOH,DBS HDB HUB EBC,510 LORONG 6 TOA PAYOH DBS HDB HUB EBC SINGAPORE 319398,319398,29536.8790946044,35009.8509481344,1.33289113874462,103.847128310325,103.847128310325,HDB Hub
77,DBS ION ORCHARD,2,ORCHARD TURN,DBS ION ORCHARD,2 ORCHARD TURN DBS ION ORCHARD SINGAPORE 238801,238801,27807.8588137543,31826.0562072899,1.30409806225897,103.831592101365,103.831592101365,ION Orchard
78,UOB ION ORCHARD,2,ORCHARD TURN,UOB ION ORCHARD,2 ORCHARD TURN UOB ION ORCHARD SINGAPORE 238801,238801,27793.7733956557,31896.0375109203,1.30473094842364,103.831465536872,103.831465536872,ION Orchard
79,OCBC ION ORCHARD BRANCH,2,ORCHARD TURN,OCBC ION ORCHARD BRANCH,2 ORCHARD TURN OCBC ION ORCHARD BRANCH SINGAPORE 238801,238801,27852.0192874419,31814.4244027548,1.30399286856099,103.831988903795,103.831988903795,ION Orchard
80,CITIBANK ION ORCHARD,2,ORCHARD TURN,CITIBANK ION ORCHARD,2 ORCHARD TURN CITIBANK ION ORCHARD SINGAPORE 238801,238801,27798.7377990047,31836.3793452811,1.30419142102398,103.831510144742,103.831510144742,ION Orchard
81,ION ORCHARD,2,ORCHARD TURN,ION ORCHARD,2 ORCHARD TURN ION ORCHARD SINGAPORE 238801,238801,27856.8520553298,31812.9728713278,1.30397974144505,103.832032328465,103.832032328465,ION Orchard
82,OCBC ION ORCHARD,2,ORCHARD TURN,OCBC ION ORCHARD,2 ORCHARD TURN OCBC ION ORCHARD SINGAPORE 238801,238801,27852.0192874419,31814.4244027548,1.30399286856099,103.831988903795,103.831988903795,ION Orchard
83,CITIBANK BISHAN JUNCTION 8,9,BISHAN PLACE,CITIBANK BISHAN JUNCTION 8,9 BISHAN PLACE CITIBANK BISHAN JUNCTION 8 SINGAPORE 579837,579837,29691.2652436085,36921.7872832771,1.3501820033849,103.848515664081,103.848515664081,Junction 8
84,JUNCTION 8,9,BISHAN PLACE,JUNCTION 8,9 BISHAN PLACE JUNCTION 8 SINGAPORE 579837,579837,29718.5095465565,36954.8769997768,1.3504812534505,103.848760473211,103.848760473211,Junction 8
85,UOB JUNCTION 8 SHOPPING CENTRE,9,BISHAN PLACE,UOB JUNCTION 8 SHOPPING CENTRE,9 BISHAN PLACE UOB JUNCTION 8 SHOPPING CENTRE SINGAPORE 579837,579837,29681.7402118128,36920.7289329581,1.35017243257766,103.848430075605,103.848430075605,Junction 8
86,OCBC JUNCTION 8 SHOPPING CENTRE,9,BISHAN PLACE,OCBC JUNCTION 8 SHOPPING CENTRE,9 BISHAN PLACE OCBC JUNCTION 8 SHOPPING CENTRE SINGAPORE 579837,579837,29695.4985843468,36920.7289329581,1.35017243180201,103.848553703258,103.848553703258,Junction 8
87,DBS NTUC JUNCTION 8 SHOPPING CENTRE,9,BISHAN PLACE,DBS NTUC JUNCTION 8 SHOPPING CENTRE,9 BISHAN PLACE DBS NTUC JUNCTION 8 SHOPPING CENTRE SINGAPORE 579837,579837,29689.1485732393,36936.6039758623,1.35031600039774,103.848496645294,103.848496645294,Junction 8
88,LIAT TOWERS,541,ORCHARD ROAD,LIAT TOWERS,541 ORCHARD ROAD LIAT TOWERS SINGAPORE 238881,238881,27711.0892851558,31935.4330472704,1.30508722710852,103.830722581168,103.830722581168,Liat Towers
89,LUCKY PLAZA,304,ORCHARD ROAD,LUCKY PLAZA,304 ORCHARD ROAD LUCKY PLAZA SINGAPORE 238863,238863,28071.6446550656,31871.1689420138,1.30450604646634,103.833962339817,103.833962339817,Lucky Plaza
90,OCBC LUCKY PLAZA,304,ORCHARD ROAD,OCBC LUCKY PLAZA,304 ORCHARD ROAD OCBC LUCKY PLAZA SINGAPORE 238863,238863,28076.4099858869,31866.4964128304,1.3044637897474,103.834005158524,103.834005158524,Lucky Plaza
91,DBS LUCKY PLAZA,304,ORCHARD ROAD,DBS LUCKY PLAZA,304 ORCHARD ROAD DBS LUCKY PLAZA SINGAPORE 238863,238863,28069.3737995876,31868.929202022,1.30448579105197,103.833941935117,103.833941935117,Lucky Plaza
92,UOB LUCKY PLAZA,304,ORCHARD ROAD,UOB LUCKY PLAZA,304 ORCHARD ROAD UOB LUCKY PLAZA SINGAPORE 238863,238863,28076.4099858869,31866.4964128304,1.3044637897474,103.834005158524,103.834005158524,Lucky Plaza
93,CITIBANK MARINA BAY SANDS,1,BAYFRONT AVENUE,CITIBANK MARINA BAY SANDS,1 BAYFRONT AVENUE CITIBANK MARINA BAY SANDS SINGAPORE 018971,018971,31056.498653803,29568.0990064107,1.28367774343659,103.860782419253,103.860782419253,Marina Bay Sands
94,TOWER 1 (MARINA BAY SANDS SINGAPORE),1,BAYFRONT AVENUE,TOWER 1 (MARINA BAY SANDS SINGAPORE),1 BAYFRONT AVENUE TOWER 1 (MARINA BAY SANDS SINGAPORE) SINGAPORE 018971,018971,30993.9321586806,29447.0878193844,1.28258336683978,103.860220223356,103.860220223356,Marina Bay Sands
95,TOWER 2 (MARINA BAY SANDS SINGAPORE),1,BAYFRONT AVENUE,TOWER 2 (MARINA BAY SANDS SINGAPORE),1 BAYFRONT AVENUE TOWER 2 (MARINA BAY SANDS SINGAPORE) SINGAPORE 018971,018971,31049.6607530648,29559.8860614393,1.28360346911488,103.860720977246,103.860720977246,Marina Bay Sands
96,MARINA BAY SANDS,1,BAYFRONT AVENUE,MARINA BAY SANDS,1 BAYFRONT AVENUE MARINA BAY SANDS SINGAPORE 018971,018971,31059.4625855722,29543.3804153632,1.28345419690844,103.860809048956,103.860809048956,Marina Bay Sands
97,OCBC MARINA BAY SANDS,1,BAYFRONT AVENUE,OCBC MARINA BAY SANDS,1 BAYFRONT AVENUE OCBC MARINA BAY SANDS SINGAPORE 018971,018971,31081.3711878145,29676.9372881558,1.28466203613219,103.861005919301,103.861005919301,Marina Bay Sands
98,MARINA BAY SANDS SINGAPORE,1,BAYFRONT AVENUE,MARINA BAY SANDS SINGAPORE,1 BAYFRONT AVENUE MARINA BAY SANDS SINGAPORE SINGAPORE 018971,018971,31036.5796872023,29544.7057292983,1.28346618479588,103.860603437294,103.860603437294,Marina Bay Sands
99,MARINA BAY SANDS SKYPARK,1,BAYFRONT AVENUE,MARINA BAY SANDS SKYPARK,1 BAYFRONT AVENUE MARINA BAY SANDS SKYPARK SINGAPORE 018971,018971,31057.9147716891,29539.9285334274,1.28342297945301,103.86079514091,103.86079514091,Marina Bay Sands
100,TOWER 3 (MARINA BAY SANDS SINGAPORE),1,BAYFRONT AVENUE,TOWER 3 (MARINA BAY SANDS SINGAPORE),1 BAYFRONT AVENUE TOWER 3 (MARINA BAY SANDS SINGAPORE) SINGAPORE 018971,018971,31081.3711575465,29676.9373184238,1.28466203640592,103.861005919029,103.861005919029,Marina Bay Sands
101,MARINA BAY SANDS (CASINO),8,BAYFRONT AVENUE,MARINA BAY SANDS (CASINO),8 BAYFRONT AVENUE MARINA BAY SANDS (CASINO) SINGAPORE 018955,018955,30916.3067362988,29610.663903337,1.28406269868627,103.859522743863,103.859522743863,Marina Bay Sands
102,UOB MARINA BAY SANDS LOCATION A,10,BAYFRONT AVENUE,UOB MARINA BAY SANDS LOCATION A,10 BAYFRONT AVENUE UOB MARINA BAY SANDS LOCATION A SINGAPORE 018956,018956,30790.5494991587,29427.5887907892,1.28240704314408,103.858392749523,103.858392749523,Marina Bay Sands
103,CITIBANK MARINA BAY LINK MALL,8,MARINA BOULEVARD,CITIBANK MARINA BAY LINK MALL,8 MARINA BOULEVARD CITIBANK MARINA BAY LINK MALL SINGAPORE 018981,018981,30333.3775750389,29164.8688970599,1.28003113385646,103.854284863268,103.854284863268,Marina Bay Link Mall
104,DBS MARINA BAY LINK MALL,8,MARINA BOULEVARD,DBS MARINA BAY LINK MALL,8 MARINA BOULEVARD DBS MARINA BAY LINK MALL SINGAPORE 018981,018981,30324.7893070709,29183.0250865575,1.28019533269189,103.854207695749,103.854207695749,Marina Bay Link Mall
105,GROUND PLAZA (MARINA BAY LINK MALL),8A,MARINA BOULEVARD,GROUND PLAZA (MARINA BAY LINK MALL),8A MARINA BOULEVARD GROUND PLAZA (MARINA BAY LINK MALL) SINGAPORE 018984,018984,30387.719774697,29152.7203272395,1.27992126239604,103.854773147641,103.854773147641,Marina Bay Link Mall
106,MARINA BAY LINK MALL,8A,MARINA BOULEVARD,MARINA BAY LINK MALL,8A MARINA BOULEVARD MARINA BAY LINK MALL SINGAPORE 018984,018984,30231.5229646396,29187.7704102397,1.28023825446086,103.853369662547,103.853369662547,Marina Bay Link Mall
107,DBS MARINA SQUARE,6,RAFFLES BOULEVARD,DBS MARINA SQUARE,6 RAFFLES BOULEVARD DBS MARINA SQUARE SINGAPORE 039594,039594,30707.6105019674,30375.7275995482,1.29098168416984,103.857647591675,103.857647591675,Marina Square
108,MARINA SQUARE,6,RAFFLES BOULEVARD,MARINA SQUARE,6 RAFFLES BOULEVARD MARINA SQUARE SINGAPORE 039594,039594,30811.1659309082,30472.3321676366,1.29185533273026,103.85857808906,103.85857808906,Marina Square
109,UOB MARINA SQUARE,6,RAFFLES BOULEVARD,UOB MARINA SQUARE,6 RAFFLES BOULEVARD UOB MARINA SQUARE SINGAPORE 039594,039594,30690.0524683651,30376.2440924235,1.29098635666276,103.857489825456,103.857489825456,Marina Square
110,UOB MARINA SQUARE AUTOLOBBY,6,RAFFLES BOULEVARD,UOB MARINA SQUARE AUTOLOBBY,6 RAFFLES BOULEVARD UOB MARINA SQUARE AUTOLOBBY SINGAPORE 039594,039594,30699.5775001608,30374.6565972138,1.29097199909542,103.857575411708,103.857575411708,Marina Square
111,OCBC MARINA SQUARE,6,RAFFLES BOULEVARD,OCBC MARINA SQUARE,6 RAFFLES BOULEVARD OCBC MARINA SQUARE SINGAPORE 039594,039594,30640.960099142,30443.52270725,1.29159480494333,103.857048715656,103.857048715656,Marina Square
112,MINDCHAMPS PRESCHOOL @ MARINA SQUARE PTE. LTD.,6,RAFFLES BOULEVARD,MINDCHAMPS PRESCHOOL @ MARINA SQUARE PTE. LTD.,6 RAFFLES BOULEVARD MINDCHAMPS PRESCHOOL @ MARINA SQUARE PTE. LTD. SINGAPORE 039594,039594,30636.3550070273,30428.0933906753,1.29145526802576,103.857007335679,103.857007335679,Marina Square
113,MARINA SQUARE,7,RAFFLES BOULEVARD,MARINA SQUARE,7 RAFFLES BOULEVARD MARINA SQUARE SINGAPORE 039595,039595,30719.9276947258,30390.722510023,1.29111729179215,103.857758268089,103.857758268089,Marina Square
114,UOB MILLENIA WALK,1,TEMASEK AVENUE,UOB MILLENIA WALK,1 TEMASEK AVENUE UOB MILLENIA WALK SINGAPORE 039192,039192,31003.1203078181,30563.4407963119,1.29267926922552,103.860302888543,103.860302888543,Millenia Walk
115,DBS MILLENIA WALK,9,RAFFLES BOULEVARD,DBS MILLENIA WALK,9 RAFFLES BOULEVARD DBS MILLENIA WALK SINGAPORE 039596,039596,30896.4005125193,30595.0389065742,1.29296504146626,103.859343968909,103.859343968909,Millenia Walk
116,"ROY LICHTENSTEIN SCULPTURE PLAZA,THE (MILLENIA WALK)",9,RAFFLES BOULEVARD,"ROY LICHTENSTEIN SCULPTURE PLAZA,THE (MILLENIA WALK)","9 RAFFLES BOULEVARD ROY LICHTENSTEIN SCULPTURE PLAZA,THE (MILLENIA WALK) SINGAPORE 039596",039596,30966.3419834822,30497.1712555252,1.29207995436304,103.859972413485,103.859972413485,Millenia Walk
117,CITIBANK MILLENIA WALK,9,RAFFLES BOULEVARD,CITIBANK MILLENIA WALK,9 RAFFLES BOULEVARD CITIBANK MILLENIA WALK SINGAPORE 039596,039596,30896.4005125193,30595.0389065742,1.29296504146626,103.859343968909,103.859343968909,Millenia Walk
118,MILLENIA WALK,9,RAFFLES BOULEVARD,MILLENIA WALK,9 RAFFLES BOULEVARD MILLENIA WALK SINGAPORE 039596,039596,30938.8002067907,30555.2769762799,1.29260544462492,103.859724944443,103.859724944443,Millenia Walk
119,DBS NGEE ANN CITY LEVEL 1,391,ORCHARD ROAD,DBS NGEE ANN CITY LEVEL 1,391 ORCHARD ROAD DBS NGEE ANN CITY LEVEL 1 SINGAPORE 238872,238872,28175.9441013141,31624.2203628086,1.3022727300848,103.834899517575,103.834899517575,Ngee Ann City
120,OCBC NGEE ANN CITY,391,ORCHARD ROAD,OCBC NGEE ANN CITY,391 ORCHARD ROAD OCBC NGEE ANN CITY SINGAPORE 238872,238872,28151.0824940447,31640.9660037272,1.30242417189411,103.834676124723,103.834676124723,Ngee Ann City
121,UOB NGEE ANN CITY,391,ORCHARD ROAD,UOB NGEE ANN CITY,391 ORCHARD ROAD UOB NGEE ANN CITY SINGAPORE 238872,238872,28151.0824940447,31640.9660037272,1.30242417189411,103.834676124723,103.834676124723,Ngee Ann City
122,NGEE ANN CITY,391,ORCHARD ROAD,NGEE ANN CITY,391 ORCHARD ROAD NGEE ANN CITY SINGAPORE 238872,238872,28207.3720752392,31620.7876102384,1.30224168528687,103.835181912297,103.835181912297,Ngee Ann City
123,DBS NGEE ANN CITY,391,ORCHARD ROAD,DBS NGEE ANN CITY,391 ORCHARD ROAD DBS NGEE ANN CITY SINGAPORE 238872,238872,28151.0824940447,31640.9660037272,1.30242417189411,103.834676124723,103.834676124723,Ngee Ann City
124,DBS NGEE ANN CITY BRANCH,391,ORCHARD ROAD,DBS NGEE ANN CITY BRANCH,391 ORCHARD ROAD DBS NGEE ANN CITY BRANCH SINGAPORE 238872,238872,28151.0824940447,31640.9660037272,1.30242417189411,103.834676124723,103.834676124723,Ngee Ann City
125,DBS NGEE ANN CITY TREASURE,391,ORCHARD ROAD,DBS NGEE ANN CITY TREASURE,391 ORCHARD ROAD DBS NGEE ANN CITY TREASURE SINGAPORE 238872,238872,28151.0824940447,31640.9660037272,1.30242417189411,103.834676124723,103.834676124723,Ngee Ann City
126,NGEE ANN CITY,391A,ORCHARD ROAD,NGEE ANN CITY,391A ORCHARD ROAD NGEE ANN CITY SINGAPORE 238873,238873,28151.0824940447,31640.9660037272,1.30242417189411,103.834676124723,103.834676124723,Ngee Ann City
127,NGEE ANN CITY,391B,ORCHARD ROAD,NGEE ANN CITY,391B ORCHARD ROAD NGEE ANN CITY SINGAPORE 238874,238874,28151.0824940447,31640.9660037272,1.30242417189411,103.834676124723,103.834676124723,Ngee Ann City
128,ORCHARD CENTRAL,181,ORCHARD ROAD,ORCHARD CENTRAL,181 ORCHARD ROAD ORCHARD CENTRAL SINGAPORE 238896,238896,28680.6729301102,31465.6765127573,1.30083890839245,103.839434733899,103.839434733899,Orchard Central
129,ORCHARD GATEWAY @ EMERALD,218,ORCHARD ROAD,ORCHARD GATEWAY @ EMERALD,218 ORCHARD ROAD ORCHARD GATEWAY @ EMERALD SINGAPORE 238851,238851,28617.6990279267,31549.9632827267,1.30160116957544,103.838868886519,103.838868886519,Orchard Gateway
130,ORCHARD GATEWAY,277,ORCHARD ROAD,ORCHARD GATEWAY,277 ORCHARD ROAD ORCHARD GATEWAY SINGAPORE 238858,238858,28681.5684992122,31421.9269572161,1.30044325279546,103.839442780042,103.839442780042,Orchard Gateway
131,PALAIS RENAISSANCE,390,ORCHARD ROAD,PALAIS RENAISSANCE,390 ORCHARD ROAD PALAIS RENAISSANCE SINGAPORE 238871,238871,27584.8261186667,32108.7723720502,1.30665484543191,103.829588045188,103.829588045188,Palais Renaissance
132,DBS PEOPLE'S PARK CENTRE,101,UPPER CROSS STREET,DBS PEOPLE'S PARK CENTRE,101 UPPER CROSS STREET DBS PEOPLE'S PARK CENTRE SINGAPORE 058357,058357,29173.3453853643,29785.925305618,1.28564781446701,103.843861556498,103.843861556498,People's Park Centre
133,OCBC PEOPLE'S PARK CENTRE,101,UPPER CROSS STREET,OCBC PEOPLE'S PARK CENTRE,101 UPPER CROSS STREET OCBC PEOPLE'S PARK CENTRE SINGAPORE 058357,058357,29192.3380911266,29803.398498062,1.28580583517057,103.844032214205,103.844032214205,People's Park Centre
134,PEOPLE'S PARK CENTRE,101,UPPER CROSS STREET,PEOPLE'S PARK CENTRE,101 UPPER CROSS STREET PEOPLE'S PARK CENTRE SINGAPORE 058357,058357,29186.540773402,29799.4470430557,1.28577009981805,103.843980122838,103.843980122838,People's Park Centre
135,PEOPLE'S PARK CENTRE,101A,UPPER CROSS STREET,PEOPLE'S PARK CENTRE,101A UPPER CROSS STREET PEOPLE'S PARK CENTRE SINGAPORE 058358,058358,29186.54080367,29799.4470127877,1.28577009954433,103.84398012311,103.84398012311,People's Park Centre
136,PEOPLE'S PARK CENTRE,101B,UPPER CROSS STREET,PEOPLE'S PARK CENTRE,101B UPPER CROSS STREET PEOPLE'S PARK CENTRE SINGAPORE 058359,058359,29180.942528205,29798.0805949308,1.28575774235159,103.843929820315,103.843929820315,People's Park Centre
137,OCBC PEOPLE'S PARK COMPLEX,1,PARK ROAD,OCBC PEOPLE'S PARK COMPLEX,1 PARK ROAD OCBC PEOPLE'S PARK COMPLEX SINGAPORE 059108,059108,29031.9162337584,29608.6803818271,1.28404487854559,103.842590753293,103.842590753293,People's Park Complex
138,PEOPLE'S PARK COMPLEX,1,PARK ROAD,PEOPLE'S PARK COMPLEX,1 PARK ROAD PEOPLE'S PARK COMPLEX SINGAPORE 059108,059108,29024.0389001919,29618.5318235587,1.28413397178419,103.842519972666,103.842519972666,People's Park Complex
139,DBS PEOPLE'S PARK COMPLEX FOOD CENTRE,32,NEW MARKET ROAD,DBS PEOPLE'S PARK COMPLEX FOOD CENTRE,32 NEW MARKET ROAD DBS PEOPLE'S PARK COMPLEX FOOD CENTRE SINGAPORE 050032,050032,29032.9361134693,29698.3572138008,1.2848558843058,103.842599920236,103.842599920236,People's Park Complex
140,UOB PEOPLE'S PARK COMPLEX FOOD CENTRE,32,NEW MARKET ROAD,UOB PEOPLE'S PARK COMPLEX FOOD CENTRE,32 NEW MARKET ROAD UOB PEOPLE'S PARK COMPLEX FOOD CENTRE SINGAPORE 050032,050032,29030.58241452,29698.6584105082,1.2848586083002,103.842578771326,103.842578771326,People's Park Complex
141,OCBC PLAZA SINGAPURA,68,ORCHARD ROAD,OCBC PLAZA SINGAPURA,68 ORCHARD ROAD OCBC PLAZA SINGAPURA SINGAPORE 238839,238839,29307.5238112025,31463.6672937293,1.30082071769235,103.845067272938,103.845067272938,Plaza Singapura
142,DBS PLAZA SINGAPURA BRANCH,68,ORCHARD ROAD,DBS PLAZA SINGAPURA BRANCH,68 ORCHARD ROAD DBS PLAZA SINGAPURA BRANCH SINGAPORE 238839,238839,29307.5238112025,31463.6672937293,1.30082071769235,103.845067272938,103.845067272938,Plaza Singapura
143,PLAZA SINGAPURA,68,ORCHARD ROAD,PLAZA SINGAPURA,68 ORCHARD ROAD PLAZA SINGAPURA SINGAPORE 238839,238839,29305.3314708741,31455.5944289882,1.30074770963916,103.845047573431,103.845047573431,Plaza Singapura
144,CITIBANK PLAZA SINGAPURA,68,ORCHARD ROAD,CITIBANK PLAZA SINGAPURA,68 ORCHARD ROAD CITIBANK PLAZA SINGAPURA SINGAPORE 238839,238839,29308.1325911591,31465.1503946632,1.30083413030923,103.845072743164,103.845072743164,Plaza Singapura
145,STANDARD CHARTERED BANK PLAZA SINGAPURA,68,ORCHARD ROAD,STANDARD CHARTERED BANK PLAZA SINGAPURA,68 ORCHARD ROAD STANDARD CHARTERED BANK PLAZA SINGAPURA SINGAPORE 238839,238839,29308.1325911591,31465.1503946632,1.30083413030923,103.845072743164,103.845072743164,Plaza Singapura
146,HSBC PLAZA SINGAPURA,68,ORCHARD ROAD,HSBC PLAZA SINGAPURA,68 ORCHARD ROAD HSBC PLAZA SINGAPURA SINGAPORE 238839,238839,29308.1528404402,31465.243498981,1.30083497231103,103.845072925117,103.845072925117,Plaza Singapura
147,UOB PLAZA SINGAPURA,68,ORCHARD ROAD,UOB PLAZA SINGAPURA,68 ORCHARD ROAD UOB PLAZA SINGAPURA SINGAPORE 238839,238839,29307.5238112025,31463.6672937293,1.30082071769235,103.845067272938,103.845067272938,Plaza Singapura
148,DBS RAFFLES CITY SHOPPING CENTRE,250,NORTH BRIDGE ROAD,DBS RAFFLES CITY SHOPPING CENTRE,250 NORTH BRIDGE ROAD DBS RAFFLES CITY SHOPPING CENTRE SINGAPORE 179101,179101,30228.157588602,30718.6561972667,1.29408304748297,103.853339531257,103.853339531257,Raffles City
149,DBS RAFFLES CITY BRANCH,250,NORTH BRIDGE ROAD,DBS RAFFLES CITY BRANCH,250 NORTH BRIDGE ROAD DBS RAFFLES CITY BRANCH SINGAPORE 179101,179101,30228.157588602,30718.6561972667,1.29408304748297,103.853339531257,103.853339531257,Raffles City
150,UOB RAFFLES CITY BRANCH,250,NORTH BRIDGE ROAD,UOB RAFFLES CITY BRANCH,250 NORTH BRIDGE ROAD UOB RAFFLES CITY BRANCH SINGAPORE 179101,179101,30228.157588602,30718.6561972667,1.29408304748297,103.853339531257,103.853339531257,Raffles City
151,OCBC RAFFLES CITY SHOPPING CENTRE,250,NORTH BRIDGE ROAD,OCBC RAFFLES CITY SHOPPING CENTRE,250 NORTH BRIDGE ROAD OCBC RAFFLES CITY SHOPPING CENTRE SINGAPORE 179101,179101,30228.157588602,30718.6561972667,1.29408304748297,103.853339531257,103.853339531257,Raffles City
152,RAFFLES CITY TOWER,250,NORTH BRIDGE ROAD,RAFFLES CITY TOWER,250 NORTH BRIDGE ROAD RAFFLES CITY TOWER SINGAPORE 179101,179101,30227.5006220154,30706.8979330957,1.29397670992871,103.853333627297,103.853333627297,Raffles City
153,RAFFLES CITY SHOPPING CENTRE,252,NORTH BRIDGE ROAD,RAFFLES CITY SHOPPING CENTRE,252 NORTH BRIDGE ROAD RAFFLES CITY SHOPPING CENTRE SINGAPORE 179103,179103,30203.7152231745,30697.7055161726,1.29389357863312,103.853119904656,103.853119904656,Raffles City
154,CITIBANK RAFFLES CITY SHOPPING CENTRE,252,NORTH BRIDGE ROAD,CITIBANK RAFFLES CITY SHOPPING CENTRE,252 NORTH BRIDGE ROAD CITIBANK RAFFLES CITY SHOPPING CENTRE SINGAPORE 179103,179103,30164.587497944,30682.9658858739,1.29376028134073,103.852768324281,103.852768324281,Raffles City
155,RAFFLES CITY TOWER,252,NORTH BRIDGE ROAD,RAFFLES CITY TOWER,252 NORTH BRIDGE ROAD RAFFLES CITY TOWER SINGAPORE 179103,179103,30227.3001874276,30717.9261032306,1.29407644483073,103.853331827088,103.853331827088,Raffles City
156,RAFFLES CITY TOWER,80,BRAS BASAH ROAD,RAFFLES CITY TOWER,80 BRAS BASAH ROAD RAFFLES CITY TOWER SINGAPORE 189560,189560,30227.3001874276,30717.9261032306,1.29407644483073,103.853331827088,103.853331827088,Raffles City
157,OCBC SIM LIM SQUARE,1,ROCHOR CANAL ROAD,OCBC SIM LIM SQUARE,1 ROCHOR CANAL ROAD OCBC SIM LIM SQUARE SINGAPORE 188504,188504,30194.6659132792,31707.1881145835,1.30302298414827,103.853038663425,103.853038663425,Sim Lim Square
158,DBS SIM LIM SQUARE,1,ROCHOR CANAL ROAD,DBS SIM LIM SQUARE,1 ROCHOR CANAL ROAD DBS SIM LIM SQUARE SINGAPORE 188504,188504,30193.90990985,31694.3175928146,1.30290658774258,103.853031869482,103.853031869482,Sim Lim Square
159,SIM LIM SQUARE,1,ROCHOR CANAL ROAD,SIM LIM SQUARE,1 ROCHOR CANAL ROAD SIM LIM SQUARE SINGAPORE 188504,188504,30194.5713863662,31707.3292541914,1.3030242605718,103.853037814067,103.853037814067,Sim Lim Square
160,UOB SIM LIM SQUARE,1,ROCHOR CANAL ROAD,UOB SIM LIM SQUARE,1 ROCHOR CANAL ROAD UOB SIM LIM SQUARE SINGAPORE 188504,188504,30194.6659132792,31707.1881145835,1.30302298414827,103.853038663425,103.853038663425,Sim Lim Square
161,FURAMA CITY CENTRE SINGAPORE / SHOPPING CENTRE,60,EU TONG SEN STREET,FURAMA CITY CENTRE SINGAPORE / SHOPPING CENTRE,60 EU TONG SEN STREET FURAMA CITY CENTRE SINGAPORE / SHOPPING CENTRE SINGAPORE 059804,059804,29258.7239820426,29879.826216327,1.28649701803051,103.844628721032,103.844628721032,Singapore Shopping Centre
162,SINGAPORE SHOPPING CENTRE,190,CLEMENCEAU AVENUE,SINGAPORE SHOPPING CENTRE,190 CLEMENCEAU AVENUE SINGAPORE SHOPPING CENTRE SINGAPORE 239924,239924,29201.1359043466,31168.6460736729,1.29815265394505,103.844111318107,103.844111318107,Singapore Shopping Centre
163,THE SOUTH BEACH,38,BEACH ROAD,THE SOUTH BEACH,38 BEACH ROAD THE SOUTH BEACH SINGAPORE 189767,189767,30554.9870392634,30818.7288103923,1.29498804392056,103.856276242094,103.856276242094,The South Beach
164,ASIA SQUARE TOWER 2,12,MARINA VIEW,ASIA SQUARE TOWER 2,12 MARINA VIEW ASIA SQUARE TOWER 2 SINGAPORE 018961,018961,29946.9345132103,28965.6505975425,1.27822949964567,103.850812513482,103.850812513482,Square 2
165,SQUARE 2,10,SINARAN DRIVE,SQUARE 2,10 SINARAN DRIVE SQUARE 2 SINGAPORE 307506,307506,29206.6219763951,33662.3806673996,1.32070510956845,103.844160709661,103.844160709661,Square 2
166,OCBC SQUARE 2 - FAIRPRICE,250,THOMSON ROAD,OCBC SQUARE 2 - FAIRPRICE,250 THOMSON ROAD OCBC SQUARE 2 - FAIRPRICE SINGAPORE 307642,307642,29214.009301573,33660.0313875768,1.32068386322064,103.844227088554,103.844227088554,Square 2
167,DBS NTUC SQUARE 2,250,SINARAN DRIVE,DBS NTUC SQUARE 2,250 SINARAN DRIVE DBS NTUC SQUARE 2 SINGAPORE 307506,307506,29176.7309804149,33631.9239325356,1.32042967079118,103.843892122244,103.843892122244,Square 2
168,DBS SQUARE 2 BRANCH,250,THOMSON ROAD,DBS SQUARE 2 BRANCH,250 THOMSON ROAD DBS SQUARE 2 BRANCH SINGAPORE 307642,307642,29214.009301573,33660.0313875768,1.32068386322064,103.844227088554,103.844227088554,Square 2
169,SUNSHINE PLAZA,10,PRINSEP LINK,SUNSHINE PLAZA,10 PRINSEP LINK SUNSHINE PLAZA SINGAPORE 187948,187948,29918.3768824488,31424.5976224914,1.30046735366415,103.850556061949,103.850556061949,Sunshine Plaza[10]
170,SUNTEC CITY MALL,1,RAFFLES BOULEVARD,SUNTEC CITY MALL,1 RAFFLES BOULEVARD SUNTEC CITY MALL SINGAPORE 039593,039593,30669.7581182309,30654.3361870423,1.29350132535558,103.857307495824,103.857307495824,Suntec City
171,CITIBANK SUNTEC CITY MALL,3,TEMASEK BOULEVARD,CITIBANK SUNTEC CITY MALL,3 TEMASEK BOULEVARD CITIBANK SUNTEC CITY MALL SINGAPORE 038983,038983,30808.3234040206,30898.7299970835,1.29571152468885,103.858552585838,103.858552585838,Suntec City
172,HSBC SUNTEC CITY BRANCH,3,TEMASEK BOULEVARD,HSBC SUNTEC CITY BRANCH,3 TEMASEK BOULEVARD HSBC SUNTEC CITY BRANCH SINGAPORE 038983,038983,30713.3575445721,30811.6392313689,1.29492391490318,103.857699268838,103.857699268838,Suntec City
173,DBS SUNTEC CITY BRANCH,3,TEMASEK BOULEVARD,DBS SUNTEC CITY BRANCH,3 TEMASEK BOULEVARD DBS SUNTEC CITY BRANCH SINGAPORE 038983,038983,30714.0190210883,30803.0402788036,1.2948461489492,103.857705211747,103.857705211747,Suntec City
174,SUNTEC CITY MALL,3,TEMASEK BOULEVARD,SUNTEC CITY MALL,3 TEMASEK BOULEVARD SUNTEC CITY MALL SINGAPORE 038983,038983,30859.7197721638,30923.0979032703,1.29593189477195,103.859014406736,103.859014406736,Suntec City
175,DBS SUNTEC CITY BASEMENT,3,TEMASEK BOULEVARD,DBS SUNTEC CITY BASEMENT,3 TEMASEK BOULEVARD DBS SUNTEC CITY BASEMENT SINGAPORE 038983,038983,30715.3419438526,30807.3397550862,1.2948850317824,103.85771709915,103.85771709915,Suntec City
176,GOLDEN VILLAGE (GV SUNTEC CITY),3,TEMASEK BOULEVARD,GOLDEN VILLAGE (GV SUNTEC CITY),3 TEMASEK BOULEVARD GOLDEN VILLAGE (GV SUNTEC CITY) SINGAPORE 038983,038983,31006.546098751,30804.5639691036,1.29485990186642,103.860333693777,103.860333693777,Suntec City
177,UOB SUNTEC CITY BRANCH,3,TEMASEK BOULEVARD,UOB SUNTEC CITY BRANCH,3 TEMASEK BOULEVARD UOB SUNTEC CITY BRANCH SINGAPORE 038983,038983,31010.8091021134,30745.3250150401,1.29432416524256,103.860371993025,103.860371993025,Suntec City
178,SUNTEC CITY POST OFFICE,3,TEMASEK BOULEVARD,SUNTEC CITY POST OFFICE,3 TEMASEK BOULEVARD SUNTEC CITY POST OFFICE SINGAPORE 038983,038983,30952.7377052531,30823.6440888029,1.29503246087729,103.859850203963,103.859850203963,Suntec City
179,UOB SUNTEC CITY MALL,6,TEMASEK BOULEVARD,UOB SUNTEC CITY MALL,6 TEMASEK BOULEVARD UOB SUNTEC CITY MALL SINGAPORE 038986,038986,30938.7330118669,30780.9935032148,1.29464674534007,103.859724361759,103.859724361759,Suntec City
180,MULBERRY LEARNING CENTRE@TANJONG PAGAR PTE. LTD,1,TANJONG PAGAR PLAZA,MULBERRY LEARNING CENTRE@TANJONG PAGAR PTE. LTD,1 TANJONG PAGAR PLAZA MULBERRY LEARNING CENTRE@TANJONG PAGAR PTE. LTD SINGAPORE 082001,082001,29009.9302968178,28674.4689014871,1.2755961982077,103.842393171342,103.842393171342,Tanjong Pagar Centre
181,TANJONG PAGAR CENTRE,5,WALLICH STREET,TANJONG PAGAR CENTRE,5 WALLICH STREET TANJONG PAGAR CENTRE SINGAPORE 078883,078883,29404.2523569511,28783.6531160194,1.27658360696843,103.845936303594,103.845936303594,Tanjong Pagar Centre
182,MARKET & HAWKER CENTRE (BLK 6 TANJONG PAGAR PLAZA),6,TANJONG PAGAR PLAZA,MARKET & HAWKER CENTRE (BLK 6 TANJONG PAGAR PLAZA),6 TANJONG PAGAR PLAZA MARKET & HAWKER CENTRE (BLK 6 TANJONG PAGAR PLAZA) SINGAPORE 081006,081006,29096.0534556275,28787.0840827785,1.27661464758769,103.843167023188,103.843167023188,Tanjong Pagar Centre
183,ZHUJIAO CENTRE (TEKKA MARKET),661,BUFFALO ROAD,ZHUJIAO CENTRE (TEKKA MARKET),661 BUFFALO ROAD ZHUJIAO CENTRE (TEKKA MARKET) SINGAPORE 210661,210661,29871.4457986038,32114.9856929444,1.30671098278725,103.85013440636,103.85013440636,Tekka Centre
184,ZHUJIAO CENTRE (TEKKA MARKET),662,BUFFALO ROAD,ZHUJIAO CENTRE (TEKKA MARKET),662 BUFFALO ROAD ZHUJIAO CENTRE (TEKKA MARKET) SINGAPORE 210662,210662,29851.5949349664,32063.7060684133,1.30624722914968,103.849956033902,103.849956033902,Tekka Centre
185,ZHUJIAO CENTRE (TEKKA MARKET),663,BUFFALO ROAD,ZHUJIAO CENTRE (TEKKA MARKET),663 BUFFALO ROAD ZHUJIAO CENTRE (TEKKA MARKET) SINGAPORE 210663,210663,29951.9452568432,32001.0205293112,1.30568031708633,103.850857724971,103.850857724971,Tekka Centre
186,ZHUJIAO CENTRE (TEKKA MARKET),664,BUFFALO ROAD,ZHUJIAO CENTRE (TEKKA MARKET),664 BUFFALO ROAD ZHUJIAO CENTRE (TEKKA MARKET) SINGAPORE 210664,210664,29980.3038453432,32051.0169729404,1.30613246548155,103.851112543389,103.851112543389,Tekka Centre
187,ZHUJIAO CENTRE (TEKKA MARKET),665,BUFFALO ROAD,ZHUJIAO CENTRE (TEKKA MARKET),665 BUFFALO ROAD ZHUJIAO CENTRE (TEKKA MARKET) SINGAPORE 210665,210665,29924.3737569908,32056.0217537805,1.30617773048079,103.850609985486,103.850609985486,Tekka Centre
188,THE ADELPHI,1,COLEMAN STREET,THE ADELPHI,1 COLEMAN STREET THE ADELPHI SINGAPORE 179803,179803,29988.3056711266,30398.2072981074,1.29118503658447,103.851184338699,103.851184338699,The Adelphi
189,THE PARAGON,290,ORCHARD ROAD,THE PARAGON,290 ORCHARD ROAD THE PARAGON SINGAPORE 238859,238859,28282.5637398539,31801.0936260261,1.30387230879994,103.835857545469,103.835857545469,The Paragon
190,UOB THE PARAGON,290,ORCHARD ROAD,UOB THE PARAGON,290 ORCHARD ROAD UOB THE PARAGON SINGAPORE 238859,238859,28213.8709140234,31788.5157956611,1.30375855987932,103.835240308481,103.835240308481,The Paragon
191,DBS NTUC TIONG BAHRU PLAZA,302,TIONG BAHRU ROAD,DBS NTUC TIONG BAHRU PLAZA,302 TIONG BAHRU ROAD DBS NTUC TIONG BAHRU PLAZA SINGAPORE 168732,168732,27358.0912859552,29861.5521027669,1.28633177192832,103.827550771424,103.827550771424,Tiong Bahru Plaza
192,DBS POSB TIONG BAHRU PLAZA,302,TIONG BAHRU ROAD,DBS POSB TIONG BAHRU PLAZA,302 TIONG BAHRU ROAD DBS POSB TIONG BAHRU PLAZA SINGAPORE 168732,168732,27358.0912859552,29861.5521027669,1.28633177192832,103.827550771424,103.827550771424,Tiong Bahru Plaza
193,TIONG BAHRU PLAZA,302,TIONG BAHRU ROAD,TIONG BAHRU PLAZA,302 TIONG BAHRU ROAD TIONG BAHRU PLAZA SINGAPORE 168732,168732,27298.4929601206,29875.6088268161,1.28645889472825,103.827015256194,103.827015256194,Tiong Bahru Plaza
194,OCBC TIONG BAHRU PLAZA BRANCH,302,TIONG BAHRU ROAD,OCBC TIONG BAHRU PLAZA BRANCH,302 TIONG BAHRU ROAD OCBC TIONG BAHRU PLAZA BRANCH SINGAPORE 168732,168732,27346.9566027848,29873.5434001442,1.28644021678218,103.827450721571,103.827450721571,Tiong Bahru Plaza
195,THE POIZ RESIDENCES,12,MEYAPPA CHETTIAR ROAD,THE POIZ RESIDENCES,12 MEYAPPA CHETTIAR ROAD THE POIZ RESIDENCES SINGAPORE 358474,358474,31747.9997990886,34860.987737583,1.33154468020698,103.866996465418,103.866996465418,The Poiz[12]
196,THOMSON PLAZA,4,MARIGOLD DRIVE,THOMSON PLAZA,4 MARIGOLD DRIVE THOMSON PLAZA SINGAPORE 576385,576385,27665.1144879879,37384.0763732605,1.35436282723449,103.83030941613,103.83030941613,Thomson Plaza
197,THOMSON PLAZA,6,MARIGOLD DRIVE,THOMSON PLAZA,6 MARIGOLD DRIVE THOMSON PLAZA SINGAPORE 576396,576396,27667.1940800771,37379.9203672186,1.35432524181867,103.830328102656,103.830328102656,Thomson Plaza
198,OCBC THOMSON PLAZA,301,UPPER THOMSON ROAD,OCBC THOMSON PLAZA,301 UPPER THOMSON ROAD OCBC THOMSON PLAZA SINGAPORE 574408,574408,27738.9036553083,37436.5556995925,1.354837432321,103.830972459031,103.830972459031,Thomson Plaza
199,THOMSON PLAZA,301,UPPER THOMSON ROAD,THOMSON PLAZA,301 UPPER THOMSON ROAD THOMSON PLAZA SINGAPORE 574408,574408,27733.0413219538,37417.9340793099,1.35466902496424,103.830919782333,103.830919782333,Thomson Plaza
200,UOB THOMSON PLAZA,301,UPPER THOMSON ROAD,UOB THOMSON PLAZA,301 UPPER THOMSON ROAD UOB THOMSON PLAZA SINGAPORE 574408,574408,27742.0786759965,37432.3223588541,1.35479914752227,103.831000988686,103.831000988686,Thomson Plaza
201,THOMSON PLAZA,4A,MARIGOLD DRIVE,THOMSON PLAZA,4A MARIGOLD DRIVE THOMSON PLAZA SINGAPORE 576386,576386,27667.1941103451,37379.9203974865,1.35432524209239,103.830328102928,103.830328102928,Thomson Plaza
202,THOMSON PLAZA,4B,MARIGOLD DRIVE,THOMSON PLAZA,4B MARIGOLD DRIVE THOMSON PLAZA SINGAPORE 576387,576387,27667.1941103451,37379.9203974865,1.35432524209239,103.830328102928,103.830328102928,Thomson Plaza
203,THOMSON PLAZA,4C,MARIGOLD DRIVE,THOMSON PLAZA,4C MARIGOLD DRIVE THOMSON PLAZA SINGAPORE 576388,576388,27667.1941103451,37379.9203974865,1.35432524209239,103.830328102928,103.830328102928,Thomson Plaza
204,THOMSON PLAZA,4D,MARIGOLD DRIVE,THOMSON PLAZA,4D MARIGOLD DRIVE THOMSON PLAZA SINGAPORE 576389,576389,27667.1941103451,37379.9203974865,1.35432524209239,103.830328102928,103.830328102928,Thomson Plaza
205,THOMSON PLAZA,4E,MARIGOLD DRIVE,THOMSON PLAZA,4E MARIGOLD DRIVE THOMSON PLAZA SINGAPORE 576390,576390,27667.1941103451,37379.9203974865,1.35432524209239,103.830328102928,103.830328102928,Thomson Plaza
206,THOMSON V ONE,9,SIN MING ROAD,THOMSON V ONE,9 SIN MING ROAD THOMSON V ONE SINGAPORE 575630,575630,28249.9711144511,37254.938747162,1.35319495337208,103.835564729862,103.835564729862,Thomson V
207,THOMSON V TWO,11,SIN MING ROAD,THOMSON V TWO,11 SIN MING ROAD THOMSON V TWO SINGAPORE 575629,575629,28248.0153789511,37279.4483983163,1.35341660995058,103.835547156524,103.835547156524,Thomson V
208,THOMSON V ONE,,NIL,THOMSON V ONE,THOMSON V ONE,NIL,28249.7761281002,37256.0285459161,1.35320480912579,103.835562977793,103.835562977793,Thomson V
209,THOMSON V TWO,,NIL,THOMSON V TWO,THOMSON V TWO,NIL,28257.061904192,37280.5161619782,1.35342626634909,103.835628445378,103.835628445378,Thomson V
210,VELOCITY @ NOVENA SQUARE,238,THOMSON ROAD,VELOCITY @ NOVENA SQUARE,238 THOMSON ROAD VELOCITY @ NOVENA SQUARE SINGAPORE 307683,307683,29192.4729349948,33561.1363200881,1.31978949204523,103.844033569199,103.844033569199,Velocity@Novena Square
211,VELOCITY @ NOVENA SQUARE,238B,THOMSON ROAD,VELOCITY @ NOVENA SQUARE,238B THOMSON ROAD VELOCITY @ NOVENA SQUARE SINGAPORE 307685,307685,29210.0329662841,33506.505000649,1.31929542501907,103.844191353077,103.844191353077,Velocity@Novena Square
212,WHEELOCK PLACE,501,ORCHARD ROAD,WHEELOCK PLACE,501 ORCHARD ROAD WHEELOCK PLACE SINGAPORE 238880,238880,27702.1243623979,31889.9934485909,1.30467628730252,103.830642027577,103.830642027577,Wheelock Place
213,HSBC WISMA ATRIA,435,ORCHARD ROAD,HSBC WISMA ATRIA,435 ORCHARD ROAD HSBC WISMA ATRIA SINGAPORE 238877,238877,27987.2020352483,31780.680383252,1.30368769989282,103.833203583562,103.833203583562,Wisma Atria
214,OCBC WISMA ATRIA,435,ORCHARD ROAD,OCBC WISMA ATRIA,435 ORCHARD ROAD OCBC WISMA ATRIA SINGAPORE 238877,238877,27985.6449896293,31781.9196150415,1.30369890706785,103.833189592785,103.833189592785,Wisma Atria
215,CITIBANK WISMA ATRIA,435,ORCHARD ROAD,CITIBANK WISMA ATRIA,435 ORCHARD ROAD CITIBANK WISMA ATRIA SINGAPORE 238877,238877,27986.9111901922,31782.5402903147,1.30370452023703,103.833200970183,103.833200970183,Wisma Atria
216,DBS WISMA ATRIA,435,ORCHARD ROAD,DBS WISMA ATRIA,435 ORCHARD ROAD DBS WISMA ATRIA SINGAPORE 238877,238877,27985.6449896293,31781.9196150415,1.30369890706785,103.833189592785,103.833189592785,Wisma Atria
217,WISMA ATRIA,435,ORCHARD ROAD,WISMA ATRIA,435 ORCHARD ROAD WISMA ATRIA SINGAPORE 238877,238877,27987.4434526861,31782.5683790036,1.30370477426147,103.833205752808,103.833205752808,Wisma Atria
218,DJITSUN MALL BEDOK,445,BEDOK NORTH STREET 1,DJITSUN MALL BEDOK,445 BEDOK NORTH STREET 1 DJITSUN MALL BEDOK SINGAPORE 469661,469661,38710.0881669372,34261.3041274194,1.32611970329469,103.929554495615,103.929554495615,Bedok Mall
219,DBS BEDOK MALL 1,311,NEW UPPER CHANGI ROAD,DBS BEDOK MALL 1,311 NEW UPPER CHANGI ROAD DBS BEDOK MALL 1 SINGAPORE 467360,467360,38669.4401414199,34109.9075471684,1.32475054237912,103.92918919889,103.92918919889,Bedok Mall
220,CITIBANK BEDOK MALL,311,NEW UPPER CHANGI ROAD,CITIBANK BEDOK MALL,311 NEW UPPER CHANGI ROAD CITIBANK BEDOK MALL SINGAPORE 467360,467360,38668.6463635471,34114.6700327992,1.32479361283131,103.929182068033,103.929182068033,Bedok Mall
221,BEDOK MALL,311,NEW UPPER CHANGI ROAD,BEDOK MALL,311 NEW UPPER CHANGI ROAD BEDOK MALL SINGAPORE 467360,467360,38676.9034392368,34108.3360637221,1.32473632784728,103.929256259998,103.929256259998,Bedok Mall
222,UOB BEDOK MALL,311,NEW UPPER CHANGI ROAD,UOB BEDOK MALL,311 NEW UPPER CHANGI ROAD UOB BEDOK MALL SINGAPORE 467360,467360,38678.1713953428,34112.2887899838,1.32477207441094,103.929267654625,103.929267654625,Bedok Mall
223,OCBC BEDOK MALL - FAIRPRICE,311,NEW UPPER CHANGI ROAD,OCBC BEDOK MALL - FAIRPRICE,311 NEW UPPER CHANGI ROAD OCBC BEDOK MALL - FAIRPRICE SINGAPORE 467360,467360,38688.4901747443,34114.6700327992,1.3247936058839,103.929360375114,103.929360375114,Bedok Mall
224,FILMGARDE AT CENTURY SQUARE,2,TAMPINES CENTRAL 5,FILMGARDE AT CENTURY SQUARE,2 TAMPINES CENTRAL 5 FILMGARDE AT CENTURY SQUARE SINGAPORE 529509,529509,40287.2939877529,37153.8303939011,1.35227804040128,103.943727694121,103.943727694121,Century Square
225,CENTURY SQUARE,2,TAMPINES CENTRAL 5,CENTURY SQUARE,2 TAMPINES CENTRAL 5 CENTURY SQUARE SINGAPORE 529509,529509,40296.7094797157,37163.8108075112,1.35236829566862,103.943812302253,103.943812302253,Century Square
226,CENTURY SQUARE (TAXI STAND),,NIL,CENTURY SQUARE (TAXI STAND),CENTURY SQUARE (TAXI STAND),NIL,40249.0990915122,37152.4341318123,1.35226542880914,103.943384488656,103.943384488656,Century Square
227,CHANGI CITY POINT,5,CHANGI BUSINESS PARK CENTRAL 1,CHANGI CITY POINT,5 CHANGI BUSINESS PARK CENTRAL 1 CHANGI CITY POINT SINGAPORE 486038,486038,42423.0269516231,35136.8611284606,1.33403637902708,103.962917615531,103.962917615531,Changi City Point
228,DBS CHANGI CITY POINT,5,CHANGI BUSINESS PARK CENTRAL 1,DBS CHANGI CITY POINT,5 CHANGI BUSINESS PARK CENTRAL 1 DBS CHANGI CITY POINT SINGAPORE 486038,486038,42426.1904099416,35142.0869866535,1.33408363820793,103.962946043413,103.962946043413,Changi City Point
229,DBS NTUC CHANGI CITY POINT,5,CHANGI BUSINESS PARK CENTRAL 1,DBS NTUC CHANGI CITY POINT,5 CHANGI BUSINESS PARK CENTRAL 1 DBS NTUC CHANGI CITY POINT SINGAPORE 486038,486038,42430.1675624661,35149.4069050327,1.33414983488993,103.962981783778,103.962981783778,Changi City Point
230,OCBC CHANGI CITY POINT - FAIRPRICE,5,CHANGI BUSINESS PARK CENTRAL 1,OCBC CHANGI CITY POINT - FAIRPRICE,5 CHANGI BUSINESS PARK CENTRAL 1 OCBC CHANGI CITY POINT - FAIRPRICE SINGAPORE 486038,486038,42364.2290928857,35168.7900072485,1.3343251596936,103.962389299537,103.962389299537,Changi City Point
231,CATHAY CINEPLEX DOWNTOWN EAST,1,PASIR RIS CLOSE,CATHAY CINEPLEX DOWNTOWN EAST,1 PASIR RIS CLOSE CATHAY CINEPLEX DOWNTOWN EAST SINGAPORE 519599,519599,41608.2992147794,39771.5594476648,1.37595122154029,103.955598940037,103.955598940037,Downtown East
232,COSTA SANDS RESORT (DOWNTOWN EAST),1,PASIR RIS CLOSE,COSTA SANDS RESORT (DOWNTOWN EAST),1 PASIR RIS CLOSE COSTA SANDS RESORT (DOWNTOWN EAST) SINGAPORE 519599,519599,41591.1226485763,40122.7405808754,1.37912717878008,103.955444758145,103.955444758145,Downtown East
233,DBS DOWNTOWN EAST RESORT,1,PASIR RIS CLOSE,DBS DOWNTOWN EAST RESORT,1 PASIR RIS CLOSE DBS DOWNTOWN EAST RESORT SINGAPORE 519599,519599,41618.3681925107,39842.2333130296,1.3765903645695,103.955689449482,103.955689449482,Downtown East
234,DOWNTOWN EAST,1,PASIR RIS CLOSE,DOWNTOWN EAST,1 PASIR RIS CLOSE DOWNTOWN EAST SINGAPORE 519599,519599,41545.7286940152,39878.0294110253,1.37691412455433,103.955036748549,103.955036748549,Downtown East
235,E!HUB@DOWNTOWN EAST,1,PASIR RIS CLOSE,E!HUB@DOWNTOWN EAST,1 PASIR RIS CLOSE E!HUB@DOWNTOWN EAST SINGAPORE 519599,519599,41613.8992155194,39814.9230864141,1.37634338328669,103.955649279974,103.955649279974,Downtown East
236,OCBC DOWNTOWN EAST - MARKET SQUARE@DOWNTOWN EAST,1,PASIR RIS CLOSE,OCBC DOWNTOWN EAST - MARKET SQUARE@DOWNTOWN EAST,1 PASIR RIS CLOSE OCBC DOWNTOWN EAST - MARKET SQUARE@DOWNTOWN EAST SINGAPORE 519599,519599,41617.6330134543,39849.5854970794,1.37665685528105,103.955682846766,103.955682846766,Downtown East
237,D'RESORT @ DOWNTOWN EAST,1,PASIR RIS CLOSE,D'RESORT @ DOWNTOWN EAST,1 PASIR RIS CLOSE D'RESORT @ DOWNTOWN EAST SINGAPORE 519599,519599,41558.3870977536,40238.8784711827,1.38017750107484,103.955150659142,103.955150659142,Downtown East
238,UOB E!HUB DOWNTOWN EAST,1,PASIR RIS CLOSE,UOB E!HUB DOWNTOWN EAST,1 PASIR RIS CLOSE UOB E!HUB DOWNTOWN EAST SINGAPORE 519599,519599,41385.733191466,39903.0794062261,1.37714074066643,103.95359908673,103.95359908673,Downtown East
239,OCBC DOWNTOWN EAST - FAIRPRICE,1,PASIR RIS CLOSE,OCBC DOWNTOWN EAST - FAIRPRICE,1 PASIR RIS CLOSE OCBC DOWNTOWN EAST - FAIRPRICE SINGAPORE 519599,519599,41617.6330134543,39849.5854970794,1.37665685528105,103.955682846766,103.955682846766,Downtown East
240,DOWNTOWN EAST,,NIL,DOWNTOWN EAST,DOWNTOWN EAST,NIL,41516.4378213491,39973.3124789447,1.37777584209542,103.95477359289,103.95477359289,Downtown East
241,DJITSUN MALL BEDOK,445,BEDOK NORTH STREET 1,DJITSUN MALL BEDOK,445 BEDOK NORTH STREET 1 DJITSUN MALL BEDOK SINGAPORE 469661,469661,38710.0881669372,34261.3041274194,1.32611970329469,103.929554495615,103.929554495615,Djitsun Mall Bedok
242,EASTPOINT MALL,3,SIMEI STREET 6,EASTPOINT MALL,3 SIMEI STREET 6 EASTPOINT MALL SINGAPORE 528833,528833,41321.990633836,36095.4413322229,1.34270592355576,103.953024618234,103.953024618234,Eastpoint Mall
243,DBS EASTPOINT MALL EBC 1,3,SIMEI STREET 6,DBS EASTPOINT MALL EBC 1,3 SIMEI STREET 6 DBS EASTPOINT MALL EBC 1 SINGAPORE 528833,528833,41324.8995989468,36093.9015998915,1.34269199750599,103.953050756306,103.953050756306,Eastpoint Mall
244,UOB EASTPOINT MALL AUTO LOBBY,3,SIMEI STREET 6,UOB EASTPOINT MALL AUTO LOBBY,3 SIMEI STREET 6 UOB EASTPOINT MALL AUTO LOBBY SINGAPORE 528833,528833,41324.8995989468,36093.9015998915,1.34269199750599,103.953050756306,103.953050756306,Eastpoint Mall
245,OCBC EASTPOINT MALL - FAIRPRICE,3,SIMEI STREET 6,OCBC EASTPOINT MALL - FAIRPRICE,3 SIMEI STREET 6 OCBC EASTPOINT MALL - FAIRPRICE SINGAPORE 528833,528833,41324.8995989468,36093.9015998915,1.34269199750599,103.953050756306,103.953050756306,Eastpoint Mall
246,JEWEL CHANGI AIRPORT,78,AIRPORT BOULEVARD,JEWEL CHANGI AIRPORT,78 AIRPORT BOULEVARD JEWEL CHANGI AIRPORT SINGAPORE 819666,819666,45334.1767452694,38045.6719939336,1.3603410066102,103.98907755021,103.98907755021,Jewel Changi Airport
247,HSBC JEWEL CHANGI AIRPORT,78,AIRPORT BOULEVARD,HSBC JEWEL CHANGI AIRPORT,78 AIRPORT BOULEVARD HSBC JEWEL CHANGI AIRPORT SINGAPORE 819666,819666,45435.6318182833,38014.9261695575,1.36006289399606,103.989989170512,103.989989170512,Jewel Changi Airport
248,CITIBANK JEWEL CHANGI AIRPORT,78,AIRPORT BOULEVARD,CITIBANK JEWEL CHANGI AIRPORT,78 AIRPORT BOULEVARD CITIBANK JEWEL CHANGI AIRPORT SINGAPORE 819666,819666,45376.4284896366,38033.518157484,1.36023106736765,103.989457201894,103.989457201894,Jewel Changi Airport
249,DBS KATONG SHOPPING CENTRE,865,MOUNTBATTEN ROAD,DBS KATONG SHOPPING CENTRE,865 MOUNTBATTEN ROAD DBS KATONG SHOPPING CENTRE SINGAPORE 437844,437844,35536.7815851308,31795.4551849477,1.30382040183737,103.901040040407,103.901040040407,Katong Shopping Centre
250,KATONG SHOPPING CENTRE,865,MOUNTBATTEN ROAD,KATONG SHOPPING CENTRE,865 MOUNTBATTEN ROAD KATONG SHOPPING CENTRE SINGAPORE 437844,437844,35589.7415065095,31826.0758814793,1.3040973115095,103.901515916971,103.901515916971,Katong Shopping Centre
251,UOB KATONG SHOPPING CENTRE,865,MOUNTBATTEN ROAD,UOB KATONG SHOPPING CENTRE,865 MOUNTBATTEN ROAD UOB KATONG SHOPPING CENTRE SINGAPORE 437844,437844,35550.3232994378,31792.9930963479,1.30379813229515,103.901161718308,103.901161718308,Katong Shopping Centre
252,KALLANG WAVE MALL,1,STADIUM PLACE,KALLANG WAVE MALL,1 STADIUM PLACE KALLANG WAVE MALL SINGAPORE 397628,397628,32432.8422906362,31712.9829503335,1.30307515150401,103.873149707591,103.873149707591,Kallang Wave Mall
253,DBS KALLANG LEISURE PARK,5,STADIUM WALK,DBS KALLANG LEISURE PARK,5 STADIUM WALK DBS KALLANG LEISURE PARK SINGAPORE 397693,397693,32767.0458090985,31618.6262945924,1.30222177381282,103.876152665088,103.876152665088,Leisure Park Kallang
254,UOB KALLANG LEISURE PARK,5,STADIUM WALK,UOB KALLANG LEISURE PARK,5 STADIUM WALK UOB KALLANG LEISURE PARK SINGAPORE 397693,397693,32773.2235953799,31586.2351026218,1.30192883841134,103.876208170362,103.876208170362,Leisure Park Kallang
255,LEISURE PARK KALLANG,5,STADIUM WALK,LEISURE PARK KALLANG,5 STADIUM WALK LEISURE PARK KALLANG SINGAPORE 397693,397693,32802.8046472063,31627.3966244832,1.30230108405227,103.876473975883,103.876473975883,Leisure Park Kallang
256,FILMGARDE AT LEISURE PARK KALLANG,5,STADIUM WALK,FILMGARDE AT LEISURE PARK KALLANG,5 STADIUM WALK FILMGARDE AT LEISURE PARK KALLANG SINGAPORE 397693,397693,32821.0754312901,31638.8459736127,1.30240462507128,103.876638148971,103.876638148971,Leisure Park Kallang
257,UOB I12 KATONG AUTOLOBBY,112,EAST COAST ROAD,UOB I12 KATONG AUTOLOBBY,112 EAST COAST ROAD UOB I12 KATONG AUTOLOBBY SINGAPORE 428802,428802,35982.3737051114,31950.5665851086,1.30522306203042,103.905043928938,103.905043928938,i12 Katong
258,OCBC OUR TAMPINES HUB - FAIRPRICE,1,TAMPINES WALK,OCBC OUR TAMPINES HUB - FAIRPRICE,1 TAMPINES WALK OCBC OUR TAMPINES HUB - FAIRPRICE SINGAPORE 528523,528523,39887.9499545647,37288.4814240374,1.35349593581988,103.940139392679,103.940139392679,Our Tampines Hub
259,OUR TAMPINES HUB,1,TAMPINES WALK,OUR TAMPINES HUB,1 TAMPINES WALK OUR TAMPINES HUB SINGAPORE 528523,528523,39917.8597772308,37248.4172376581,1.35313359828812,103.940408135311,103.940408135311,Our Tampines Hub
260,OUR TAMPINES HUB HAWKER CENTRE,1,TAMPINES WALK,OUR TAMPINES HUB HAWKER CENTRE,1 TAMPINES WALK OUR TAMPINES HUB HAWKER CENTRE SINGAPORE 528523,528523,39914.8495354457,37294.1738026626,1.35354740485205,103.940381104547,103.940381104547,Our Tampines Hub
261,DBS OUR TAMPINES HUB,1,TAMPINES WALK,DBS OUR TAMPINES HUB,1 TAMPINES WALK DBS OUR TAMPINES HUB SINGAPORE 528523,528523,39938.9944271287,37143.0258133616,1.35218046898785,103.940598001519,103.940598001519,Our Tampines Hub
262,PARKWAY PARADE,80,MARINE PARADE ROAD,PARKWAY PARADE,80 MARINE PARADE ROAD PARKWAY PARADE SINGAPORE 449269,449269,36008.6027896181,31491.3156742603,1.30106975506311,103.905279491524,103.905279491524,Parkway Parade
263,DBS DBS TREASURES AT PARKWAY PARADE,80,MARINE PARADE ROAD,DBS DBS TREASURES AT PARKWAY PARADE,80 MARINE PARADE ROAD DBS DBS TREASURES AT PARKWAY PARADE SINGAPORE 449269,449269,36015.2805121858,31490.3124116715,1.30106068019409,103.905339493587,103.905339493587,Parkway Parade
264,UOB PARKWAY PARADE BRANCH,80,MARINE PARADE ROAD,UOB PARKWAY PARADE BRANCH,80 MARINE PARADE ROAD UOB PARKWAY PARADE BRANCH SINGAPORE 449269,449269,36000.3023096388,31497.8014978115,1.30112841266066,103.905204909662,103.905204909662,Parkway Parade
265,OCBC PARKWAY PARADE,80,MARINE PARADE ROAD,OCBC PARKWAY PARADE,80 MARINE PARADE ROAD OCBC PARKWAY PARADE SINGAPORE 449269,449269,36008.8613084666,31500.4761887286,1.30115259939855,103.905281816778,103.905281816778,Parkway Parade
266,CATHAY CINEPLEX PARKWAY PARADE,80,MARINE PARADE ROAD,CATHAY CINEPLEX PARKWAY PARADE,80 MARINE PARADE ROAD CATHAY CINEPLEX PARKWAY PARADE SINGAPORE 449269,449269,36015.2572663743,31474.4648520965,1.30091736056425,103.90533928065,103.90533928065,Parkway Parade
267,DBS PARKWAY PARADE BRANCH,80,MARINE PARADE ROAD,DBS PARKWAY PARADE BRANCH,80 MARINE PARADE ROAD DBS PARKWAY PARADE BRANCH SINGAPORE 449269,449269,36015.2805121858,31490.3124116715,1.30106068019409,103.905339493587,103.905339493587,Parkway Parade
268,OCBC PASIR RIS WEST PLAZA - FAIRPRICE,734,PASIR RIS STREET 72,OCBC PASIR RIS WEST PLAZA - FAIRPRICE,734 PASIR RIS STREET 72 OCBC PASIR RIS WEST PLAZA - FAIRPRICE SINGAPORE 510734,510734,39457.2919064099,40185.7606114652,1.37969802061042,103.936270775161,103.936270775161,Pasir Ris West Plaza
269,PASIR RIS WEST PLAZA,734,PASIR RIS STREET 72,PASIR RIS WEST PLAZA,734 PASIR RIS STREET 72 PASIR RIS WEST PLAZA SINGAPORE 510734,510734,39450.2573243137,40193.4477712903,1.37976754317116,103.936207567321,103.936207567321,Pasir Ris West Plaza
270,DBS NTUC PASIR RIS WEST PLAZA,735,PASIR RIS STREET 72,DBS NTUC PASIR RIS WEST PLAZA,735 PASIR RIS STREET 72 DBS NTUC PASIR RIS WEST PLAZA SINGAPORE 510735,510735,39507.4780394919,40202.4426896181,1.37984886743124,103.936721740508,103.936721740508,Pasir Ris West Plaza
271,DBS PASIR RIS WEST PLAZA,735,PASIR RIS STREET 72,DBS PASIR RIS WEST PLAZA,735 PASIR RIS STREET 72 DBS PASIR RIS WEST PLAZA SINGAPORE 510735,510735,39509.1317005148,40207.0729041602,1.37989074071591,103.936736601661,103.936736601661,Pasir Ris West Plaza
272,UOB PASIR RIS WEST PLAZA,735,PASIR RIS STREET 72,UOB PASIR RIS WEST PLAZA,735 PASIR RIS STREET 72 UOB PASIR RIS WEST PLAZA SINGAPORE 510735,510735,39496.3488953626,40211.4807095565,1.37993060828653,103.93662174059,103.93662174059,Pasir Ris West Plaza
273,OCBC PASIR RIS WEST PLAZA,735,PASIR RIS STREET 72,OCBC PASIR RIS WEST PLAZA,735 PASIR RIS STREET 72 OCBC PASIR RIS WEST PLAZA SINGAPORE 510735,510735,39457.4416118572,40142.470887132,1.37930652441288,103.936272103548,103.936272103548,Pasir Ris West Plaza
274,PASIR RIS WEST PLAZA,735,PASIR RIS STREET 72,PASIR RIS WEST PLAZA,735 PASIR RIS STREET 72 PASIR RIS WEST PLAZA SINGAPORE 510735,510735,39491.1055120081,40182.455862198,1.37966812044177,103.936574613663,103.936574613663,Pasir Ris West Plaza
275,DBS PAYA LEBAR SQUARE,60,PAYA LEBAR ROAD,DBS PAYA LEBAR SQUARE,60 PAYA LEBAR ROAD DBS PAYA LEBAR SQUARE SINGAPORE 409051,409051,34595.3031856529,33453.443499919,1.31881486980278,103.892580778242,103.892580778242,Paya Lebar Square
276,UOB PAYA LEBAR SQUARE,60,PAYA LEBAR ROAD,UOB PAYA LEBAR SQUARE,60 PAYA LEBAR ROAD UOB PAYA LEBAR SQUARE SINGAPORE 409051,409051,34595.3031856529,33453.443499919,1.31881486980278,103.892580778242,103.892580778242,Paya Lebar Square
277,OCBC PAYA LEBAR SQUARE,60,PAYA LEBAR ROAD,OCBC PAYA LEBAR SQUARE,60 PAYA LEBAR ROAD OCBC PAYA LEBAR SQUARE SINGAPORE 409051,409051,34595.3031856529,33453.443499919,1.31881486980278,103.892580778242,103.892580778242,Paya Lebar Square
278,PAYA LEBAR SQUARE,60,PAYA LEBAR ROAD,PAYA LEBAR SQUARE,60 PAYA LEBAR ROAD PAYA LEBAR SQUARE SINGAPORE 409051,409051,34595.3032159209,33453.443530187,1.31881487007651,103.892580778514,103.892580778514,Paya Lebar Square
279,SINGAPORE POST CENTRE,10,EUNOS ROAD 8,SINGAPORE POST CENTRE,10 EUNOS ROAD 8 SINGAPORE POST CENTRE SINGAPORE 408600,408600,34852.8436825443,33473.5521862414,1.31899666903663,103.894894915962,103.894894915962,Singpost Centre[17]
280,SINGPOST REGIONAL ECOMMERCE LOGISTICS HUB,37,GREENWICH DRIVE,SINGPOST REGIONAL ECOMMERCE LOGISTICS HUB,37 GREENWICH DRIVE SINGPOST REGIONAL ECOMMERCE LOGISTICS HUB SINGAPORE 533864,533864,36499.4166695997,39021.056346627,1.36916586878086,103.909691774237,103.909691774237,Singpost Centre[17]
281,SINGPOST REGIONAL ECOMMERCE LOGISTICS HUB,39,GREENWICH DRIVE,SINGPOST REGIONAL ECOMMERCE LOGISTICS HUB,39 GREENWICH DRIVE SINGPOST REGIONAL ECOMMERCE LOGISTICS HUB SINGAPORE 533863,533863,36417.4281779015,38854.2227919996,1.3676571104963,103.908955003554,103.908955003554,Singpost Centre[17]
282,DBS NTUC SINGAPORE POST CENTRE,10,EUNOS ROAD 8,DBS NTUC SINGAPORE POST CENTRE,10 EUNOS ROAD 8 DBS NTUC SINGAPORE POST CENTRE SINGAPORE 408600,408600,34833.6936740698,33471.9522811566,1.31898220434607,103.894722842965,103.894722842965,Singpost Centre[17]
283,OCBC SINGAPORE POST CENTRE - FAIRPRICE,10,EUNOS ROAD 8,OCBC SINGAPORE POST CENTRE - FAIRPRICE,10 EUNOS ROAD 8 OCBC SINGAPORE POST CENTRE - FAIRPRICE SINGAPORE 408600,408600,34818.0572336819,33456.0354381688,1.31883826160863,103.894582338015,103.894582338015,Singpost Centre[17]
284,TAMPINES CENTRAL 1,,TAMPINES CENTRAL 1,NIL,TAMPINES CENTRAL 1,NIL,40461.9461736619,37405.801118294,1.35455056402118,103.945303339931,103.945303339931,Tampines 1
285,TAMPINES NORTH DRIVE 1,,TAMPINES NORTH DRIVE 1,NIL,TAMPINES NORTH DRIVE 1,NIL,39084.9602801831,39300.6829399936,1.37169334607241,103.932924563561,103.932924563561,Tampines 1
286,TAMPINES AVENUE 1,,TAMPINES AVENUE 1,NIL,TAMPINES AVENUE 1,NIL,39203.1212994906,36496.3997857482,1.34633535808984,103.933979581362,103.933979581362,Tampines 1
287,TAMPINES INDUSTRIAL AVENUE 1,,TAMPINES INDUSTRIAL AVENUE 1,NIL,TAMPINES INDUSTRIAL AVENUE 1,NIL,38247.4713983508,37377.072720712,1.35429846155354,103.925397437954,103.925397437954,Tampines 1
288,TAMPINES PLAZA 1,3,TAMPINES CENTRAL 1,TAMPINES PLAZA 1,3 TAMPINES CENTRAL 1 TAMPINES PLAZA 1 SINGAPORE 529540,529540,40195.5757618845,37200.6616842039,1.35270160272274,103.942903567808,103.942903567808,Tampines 1
289,DBS TAMPINES 1,10,TAMPINES CENTRAL 1,DBS TAMPINES 1,10 TAMPINES CENTRAL 1 DBS TAMPINES 1 SINGAPORE 529536,529536,40444.5880122203,37379.9826889988,1.35432321225804,103.945141172369,103.945141172369,Tampines 1
290,DBS TAMPINES MRT STATION 1,20,TAMPINES CENTRAL 1,DBS TAMPINES MRT STATION 1,20 TAMPINES CENTRAL 1 DBS TAMPINES MRT STATION 1 SINGAPORE 529538,529538,40429.3741431525,37296.8548801243,1.3535714417219,103.945004431786,103.945004431786,Tampines 1
291,OCBC TAMPINES 1,10,TAMPINES CENTRAL 1,OCBC TAMPINES 1,10 TAMPINES CENTRAL 1 OCBC TAMPINES 1 SINGAPORE 529536,529536,40431.0423933426,37379.1364869773,1.35431556516976,103.945019456113,103.945019456113,Tampines 1
292,OCBC TAMPINES AVE 1 - CHEERS,21,TAMPINES AVENUE 1,OCBC TAMPINES AVE 1 - CHEERS,21 TAMPINES AVENUE 1 OCBC TAMPINES AVE 1 - CHEERS SINGAPORE 529757,529757,39230.1928893179,36381.3988953605,1.34529287146324,103.93422869419,103.93422869419,Tampines 1
293,OCBC TAMPINES CENTRAL 1,506,TAMPINES CENTRAL 1,OCBC TAMPINES CENTRAL 1,506 TAMPINES CENTRAL 1 OCBC TAMPINES CENTRAL 1 SINGAPORE 520506,520506,40530.3847005572,37554.5823120829,1.35590219010974,103.945912182468,103.945912182468,Tampines 1
294,TAMPINES MALL,4,TAMPINES CENTRAL 5,TAMPINES MALL,4 TAMPINES CENTRAL 5 TAMPINES MALL SINGAPORE 529510,529510,40395.3605872542,37181.4052837677,1.35252737278519,103.944698751072,103.944698751072,Tampines Mall
295,UOB TAMPINES MALL,4,TAMPINES CENTRAL 5,UOB TAMPINES MALL,4 TAMPINES CENTRAL 5 UOB TAMPINES MALL SINGAPORE 529510,529510,40360.7746032476,37197.4314849824,1.35267232210231,103.944387981063,103.944387981063,Tampines Mall
296,UOB TAMPINES MALL AUTOLOBBY,4,TAMPINES CENTRAL 5,UOB TAMPINES MALL AUTOLOBBY,4 TAMPINES CENTRAL 5 UOB TAMPINES MALL AUTOLOBBY SINGAPORE 529510,529510,40360.7746032476,37197.4314849824,1.35267232210231,103.944387981063,103.944387981063,Tampines Mall
297,OCBC TAMPINES MALL,4,TAMPINES CENTRAL 5,OCBC TAMPINES MALL,4 TAMPINES CENTRAL 5 OCBC TAMPINES MALL SINGAPORE 529510,529510,40405.0665307892,37188.7303174343,1.35259361362837,103.944785968039,103.944785968039,Tampines Mall
298,UOB WHITE SANDS MALL,1,PASIR RIS CENTRAL STREET 3,UOB WHITE SANDS MALL,1 PASIR RIS CENTRAL STREET 3 UOB WHITE SANDS MALL SINGAPORE 518457,518457,40953.5844148444,39384.358414989,1.37244981718271,103.949715695281,103.949715695281,White Sands
299,OCBC WHITE SANDS - FAIRPRICE,1,PASIR RIS CENTRAL STREET 3,OCBC WHITE SANDS - FAIRPRICE,1 PASIR RIS CENTRAL STREET 3 OCBC WHITE SANDS - FAIRPRICE SINGAPORE 518457,518457,40963.5703977644,39372.7899008077,1.37234519149636,103.949805421214,103.949805421214,White Sands
300,OCBC WHITE SANDS BRANCH,1,PASIR RIS CENTRAL STREET 3,OCBC WHITE SANDS BRANCH,1 PASIR RIS CENTRAL STREET 3 OCBC WHITE SANDS BRANCH SINGAPORE 518457,518457,40963.5703977644,39372.7899008077,1.37234519149636,103.949805421214,103.949805421214,White Sands
301,WHITE SANDS,1,PASIR RIS CENTRAL STREET 3,WHITE SANDS,1 PASIR RIS CENTRAL STREET 3 WHITE SANDS SINGAPORE 518457,518457,40953.5843543084,39384.358354453,1.37244981663527,103.949715694737,103.949715694737,White Sands
302,DBS NTUC WHITE SANDS,1,PASIR RIS CENTRAL STREET 3,DBS NTUC WHITE SANDS,1 PASIR RIS CENTRAL STREET 3 DBS NTUC WHITE SANDS SINGAPORE 518457,518457,40955.6118854657,39366.4230909683,1.37228761596577,103.949733905672,103.949733905672,White Sands
303,DBS WHITE SANDS BRANCH,1,PASIR RIS CENTRAL STREET 3,DBS WHITE SANDS BRANCH,1 PASIR RIS CENTRAL STREET 3 DBS WHITE SANDS BRANCH SINGAPORE 518457,518457,40955.6118854657,39366.4230909683,1.37228761596577,103.949733905672,103.949733905672,White Sands
304,WHITE SANDS PRIMARY SCHOOL,2,PASIR RIS STREET 11,WHITE SANDS PRIMARY SCHOOL,2 PASIR RIS STREET 11 WHITE SANDS PRIMARY SCHOOL SINGAPORE 519075,519075,42200.4040547684,38622.2636750303,1.36555714668553,103.960918869319,103.960918869319,White Sands
305,LEARNING LEAP PTE LTD (WHITE SANDS PRIMARY SCHOOL),2,PASIR RIS STREET 11,LEARNING LEAP PTE LTD (WHITE SANDS PRIMARY SCHOOL),2 PASIR RIS STREET 11 LEARNING LEAP PTE LTD (WHITE SANDS PRIMARY SCHOOL) SINGAPORE 519075,519075,42194.0540739279,38630.9946565423,1.36563610941695,103.960861814678,103.960861814678,White Sands
306,ADMIRALTY PLACE,679,WOODLANDS AVENUE 6,ADMIRALTY PLACE,679 WOODLANDS AVENUE 6 ADMIRALTY PLACE SINGAPORE 730679,730679,24516.4222845603,46844.9605654646,1.43992345062736,103.80201525015,103.80201525015,Admiralty Place
307,ADMIRALTY PLACE,678,WOODLANDS AVENUE 6,ADMIRALTY PLACE,678 WOODLANDS AVENUE 6 ADMIRALTY PLACE SINGAPORE 730678,730678,24436.0586690316,46851.6200061701,1.43998366608733,103.801293104268,103.801293104268,Admiralty Place
308,OCBC ADMIRALTY PLACE,678A,WOODLANDS AVENUE 6,OCBC ADMIRALTY PLACE,678A WOODLANDS AVENUE 6 OCBC ADMIRALTY PLACE SINGAPORE 731678,731678,24457.9110636283,46899.3475314714,1.44041529922191,103.801489463245,103.801489463245,Admiralty Place
309,DBS ADMIRALTY PLACE,678A,WOODLANDS AVENUE 6,DBS ADMIRALTY PLACE,678A WOODLANDS AVENUE 6 DBS ADMIRALTY PLACE SINGAPORE 731678,731678,24463.7318995763,46899.87670663,1.44042008562425,103.801541769047,103.801541769047,Admiralty Place
310,ADMIRALTY PLACE,680,WOODLANDS AVENUE 6,ADMIRALTY PLACE,680 WOODLANDS AVENUE 6 ADMIRALTY PLACE SINGAPORE 730680,730680,24528.2621512143,46812.8015894648,1.43963261801972,103.802121646793,103.802121646793,Admiralty Place
311,ADMIRALTY PLACE,677,WOODLANDS AVENUE 6,ADMIRALTY PLACE,677 WOODLANDS AVENUE 6 ADMIRALTY PLACE SINGAPORE 730677,730677,24482.0590426456,46785.5494471099,1.43938615380542,103.801706470491,103.801706470491,Admiralty Place
312,ADMIRALTY PLACE,,NIL,ADMIRALTY PLACE,ADMIRALTY PLACE,NIL,24491.4688139595,46840.2619452812,1.4398809549057,103.801791019595,103.801791019595,Admiralty Place
313,OCBC AMK HUB,53,ANG MO KIO AVENUE 3,OCBC AMK HUB,53 ANG MO KIO AVENUE 3 OCBC AMK HUB SINGAPORE 569933,569933,29685.5083033731,39030.7945861015,1.36925511350953,103.848464053097,103.848464053097,AMK Hub
314,DBS NTUC AMK HUB,53,ANG MO KIO AVENUE 3,DBS NTUC AMK HUB,53 ANG MO KIO AVENUE 3 DBS NTUC AMK HUB SINGAPORE 569933,569933,29688.7511848807,39027.4892920107,1.36922522142582,103.848493192474,103.848493192474,AMK Hub
315,AMK HUB,57,ANG MO KIO AVENUE 3,AMK HUB,57 ANG MO KIO AVENUE 3 AMK HUB SINGAPORE 567751,567751,29687.05651074,39045.6242031157,1.36938922717717,103.848477965668,103.848477965668,AMK Hub
316,AMK HUB,53,ANG MO KIO AVENUE 3,AMK HUB,53 ANG MO KIO AVENUE 3 AMK HUB SINGAPORE 569933,569933,29687.0565410079,39045.6241728477,1.36938922690344,103.84847796594,103.84847796594,AMK Hub
317,AMK HUB,55,ANG MO KIO AVENUE 3,AMK HUB,55 ANG MO KIO AVENUE 3 AMK HUB SINGAPORE 569934,569934,29687.05651074,39045.6242031157,1.36938922717717,103.848477965668,103.848477965668,AMK Hub
318,CATHAY CINEPLEX AMK HUB,53,ANG MO KIO AVENUE 3,CATHAY CINEPLEX AMK HUB,53 ANG MO KIO AVENUE 3 CATHAY CINEPLEX AMK HUB SINGAPORE 569933,569933,29685.5887556737,39023.946182372,1.36919317898919,103.848464775629,103.848464775629,AMK Hub
319,CANBERRA PLAZA,133,CANBERRA VIEW,CANBERRA PLAZA,133 CANBERRA VIEW CANBERRA PLAZA SINGAPORE 750133,750133,27669.1282042367,47239.9100809004,1.44349544527985,103.830345369213,103.830345369213,Canberra Plaza
320,OCBC CAUSEWAY POINT BRANCH,1,WOODLANDS SQUARE,OCBC CAUSEWAY POINT BRANCH,1 WOODLANDS SQUARE OCBC CAUSEWAY POINT BRANCH SINGAPORE 738099,738099,22773.0930868192,46436.441186497,1.43622867995805,103.786349823084,103.786349823084,Causeway Point
321,DBS CAUSEWAY POINT,1,WOODLANDS SQUARE,DBS CAUSEWAY POINT,1 WOODLANDS SQUARE DBS CAUSEWAY POINT SINGAPORE 738099,738099,22711.4398070332,46400.1074080393,1.43590007901468,103.785795816344,103.785795816344,Causeway Point
322,CAUSEWAY POINT,1,WOODLANDS SQUARE,CAUSEWAY POINT,1 WOODLANDS SQUARE CAUSEWAY POINT SINGAPORE 738099,738099,22732.1066652434,46418.9031902999,1.4360700650803,103.785981524253,103.785981524253,Causeway Point
323,CATHAY CINEPLEX CAUSEWAY POINT,1,WOODLANDS SQUARE,CATHAY CINEPLEX CAUSEWAY POINT,1 WOODLANDS SQUARE CATHAY CINEPLEX CAUSEWAY POINT SINGAPORE 738099,738099,22699.5234229155,46412.0238526929,1.43600784474269,103.78568873405,103.78568873405,Causeway Point
324,UOB CAUSEWAY POINT,1,WOODLANDS SQUARE,UOB CAUSEWAY POINT,1 WOODLANDS SQUARE UOB CAUSEWAY POINT SINGAPORE 738099,738099,22739.4434126206,46403.0865040682,1.43592702612215,103.786047454862,103.786047454862,Causeway Point
325,WOODLANDS CIVIC CENTRE,900,SOUTH WOODLANDS DRIVE,WOODLANDS CIVIC CENTRE,900 SOUTH WOODLANDS DRIVE WOODLANDS CIVIC CENTRE SINGAPORE 730900,730900,22837.7549436502,46302.6016107351,1.43501829566013,103.786930895956,103.786930895956,Woodlands Civic Centre
326,DBS NTUC WOODLANDS CIVIC CENTRE,900,SOUTH WOODLANDS DRIVE,DBS NTUC WOODLANDS CIVIC CENTRE,900 SOUTH WOODLANDS DRIVE DBS NTUC WOODLANDS CIVIC CENTRE SINGAPORE 730900,730900,22824.9808859453,46317.1921106782,1.43515024446739,103.786816106255,103.786816106255,Woodlands Civic Centre
327,BROADWAY PLAZA,4190,ANG MO KIO AVENUE 6,BROADWAY PLAZA,4190 ANG MO KIO AVENUE 6 BROADWAY PLAZA SINGAPORE 569841,569841,29405.6611802531,39327.374546783,1.37193729131781,103.845949444498,103.845949444498,Broadway Plaza
328,JUBILEE SQUARE,61,ANG MO KIO AVENUE 8,JUBILEE SQUARE,61 ANG MO KIO AVENUE 8 JUBILEE SQUARE SINGAPORE 569814,569814,29615.7860936848,39310.6009079777,1.37178558575829,103.847837565378,103.847837565378,Jubilee Square
329,CITIBANK BISHAN JUNCTION 8,9,BISHAN PLACE,CITIBANK BISHAN JUNCTION 8,9 BISHAN PLACE CITIBANK BISHAN JUNCTION 8 SINGAPORE 579837,579837,29691.2652436085,36921.7872832771,1.3501820033849,103.848515664081,103.848515664081,Junction 8
330,UOB JUNCTION 8 SHOPPING CENTRE,9,BISHAN PLACE,UOB JUNCTION 8 SHOPPING CENTRE,9 BISHAN PLACE UOB JUNCTION 8 SHOPPING CENTRE SINGAPORE 579837,579837,29681.7402118128,36920.7289329581,1.35017243257766,103.848430075605,103.848430075605,Junction 8
331,OCBC JUNCTION 8 SHOPPING CENTRE,9,BISHAN PLACE,OCBC JUNCTION 8 SHOPPING CENTRE,9 BISHAN PLACE OCBC JUNCTION 8 SHOPPING CENTRE SINGAPORE 579837,579837,29695.4985843468,36920.7289329581,1.35017243180201,103.848553703258,103.848553703258,Junction 8
332,DBS NTUC JUNCTION 8 SHOPPING CENTRE,9,BISHAN PLACE,DBS NTUC JUNCTION 8 SHOPPING CENTRE,9 BISHAN PLACE DBS NTUC JUNCTION 8 SHOPPING CENTRE SINGAPORE 579837,579837,29689.1485732393,36936.6039758623,1.35031600039774,103.848496645294,103.848496645294,Junction 8
333,JUNCTION 8,9,BISHAN PLACE,JUNCTION 8,9 BISHAN PLACE JUNCTION 8 SINGAPORE 579837,579837,29718.5095465565,36954.8769997768,1.3504812534505,103.848760473211,103.848760473211,Junction 8
334,DBS JUNCTION NINE,18,YISHUN AVENUE 9,DBS JUNCTION NINE,18 YISHUN AVENUE 9 DBS JUNCTION NINE SINGAPORE 768897,768897,28927.0907904897,46086.0364270695,1.43306021695327,103.841649364872,103.841649364872,Junction Nine
335,JUNCTION NINE,18,YISHUN AVENUE 9,JUNCTION NINE,18 YISHUN AVENUE 9 JUNCTION NINE SINGAPORE 768897,768897,28928.3840203611,46092.960954776,1.4331228398318,103.84166098599,103.84166098599,Junction Nine
336,MARSILING MALL HAWKER CENTRE,4,WOODLANDS STREET 12,MARSILING MALL HAWKER CENTRE,4 WOODLANDS STREET 12 MARSILING MALL HAWKER CENTRE SINGAPORE 738623,738623,22053.3037563628,46139.5079379082,1.43354318137534,103.77988189197,103.77988189197,Marsiling Mall
337,OCBC NORTHPOINT CITY - FAIRPRICE,1,NORTHPOINT DRIVE,OCBC NORTHPOINT CITY - FAIRPRICE,1 NORTHPOINT DRIVE OCBC NORTHPOINT CITY - FAIRPRICE SINGAPORE 768019,768019,28345.1412827903,45551.4483836759,1.42822560922688,103.836419992398,103.836419992398,Northpoint City
338,NORTHPOINT CITY,1,NORTHPOINT DRIVE,NORTHPOINT CITY,1 NORTHPOINT DRIVE NORTHPOINT CITY SINGAPORE 768019,768019,28318.1723276898,45515.7636718601,1.42790288991304,103.836177650973,103.836177650973,Northpoint City
339,NORTHPOINT CITY,930,YISHUN AVENUE 2,NORTHPOINT CITY,930 YISHUN AVENUE 2 NORTHPOINT CITY SINGAPORE 769098,769098,28273.5290191257,45714.3116263431,1.42969848626288,103.835776491468,103.835776491468,Northpoint City
340,NORTHPOINT CITY,920,YISHUN AVENUE 2,NORTHPOINT CITY,920 YISHUN AVENUE 2 NORTHPOINT CITY SINGAPORE 769100,769100,28318.1722974218,45515.7637021281,1.42790289018677,103.836177650701,103.836177650701,Northpoint City
341,NORTHPOINT CITY (NORTH WING),930,YISHUN AVENUE 2,NORTHPOINT CITY (NORTH WING),930 YISHUN AVENUE 2 NORTHPOINT CITY (NORTH WING) SINGAPORE 769098,769098,28275.1118530668,45688.6717384085,1.42946660837667,103.835790714459,103.835790714459,Northpoint City
342,NORTHPOINT CITY,,NIL,NORTHPOINT CITY,NORTHPOINT CITY,NIL,28305.4224541048,45539.0603638366,1.42811357691004,103.836063081819,103.836063081819,Northpoint City
343,OCBC SEMBAWANG SHOPPING CENTRE,604,SEMBAWANG ROAD,OCBC SEMBAWANG SHOPPING CENTRE,604 SEMBAWANG ROAD OCBC SEMBAWANG SHOPPING CENTRE SINGAPORE 758459,758459,27055.6218112689,47058.3262113761,1.44185325264629,103.824832415833,103.824832415833,Sembawang Shopping Centre
344,SEMBAWANG SHOPPING CENTRE,604,SEMBAWANG ROAD,SEMBAWANG SHOPPING CENTRE,604 SEMBAWANG ROAD SEMBAWANG SHOPPING CENTRE SINGAPORE 758459,758459,27057.045284275,47055.1697449628,1.44182470675733,103.824845207237,103.824845207237,Sembawang Shopping Centre
345,DBS SEMBAWANG SHOPPING CENTRE,604,SEMBAWANG ROAD,DBS SEMBAWANG SHOPPING CENTRE,604 SEMBAWANG ROAD DBS SEMBAWANG SHOPPING CENTRE SINGAPORE 758459,758459,27070.9749130616,47058.3069912065,1.44185307934021,103.824970378482,103.824970378482,Sembawang Shopping Centre
346,UOB SEMBAWANG SHOPPING CENTRE,604,SEMBAWANG ROAD,UOB SEMBAWANG SHOPPING CENTRE,604 SEMBAWANG ROAD UOB SEMBAWANG SHOPPING CENTRE SINGAPORE 758459,758459,27018.0804916006,47048.8058105819,1.44176715230315,103.82449507066,103.82449507066,Sembawang Shopping Centre
347,OCBC SUN PLAZA - FAIRPRICE,30,SEMBAWANG DRIVE,OCBC SUN PLAZA - FAIRPRICE,30 SEMBAWANG DRIVE OCBC SUN PLAZA - FAIRPRICE SINGAPORE 757713,757713,26458.2477087993,47759.4978866559,1.44819436804175,103.819464386349,103.819464386349,Sun Plaza
348,DBS NTUC SUN PLAZA,30,SEMBAWANG DRIVE,DBS NTUC SUN PLAZA,30 SEMBAWANG DRIVE DBS NTUC SUN PLAZA SINGAPORE 757713,757713,26465.5651452029,47760.16105818,1.44820036592783,103.819530140823,103.819530140823,Sun Plaza
349,OCBC SUN PLAZA BRANCH,30,SEMBAWANG DRIVE,OCBC SUN PLAZA BRANCH,30 SEMBAWANG DRIVE OCBC SUN PLAZA BRANCH SINGAPORE 757713,757713,26458.2477087993,47759.4978866559,1.44819436804175,103.819464386349,103.819464386349,Sun Plaza
350,SUN PLAZA,30,SEMBAWANG DRIVE,SUN PLAZA,30 SEMBAWANG DRIVE SUN PLAZA SINGAPORE 757713,757713,26462.4476639526,47759.6068513971,1.44819535371132,103.819502127155,103.819502127155,Sun Plaza
351,UOB SUN PLAZA,30,SEMBAWANG DRIVE,UOB SUN PLAZA,30 SEMBAWANG DRIVE UOB SUN PLAZA SINGAPORE 757713,757713,26464.8539081216,47763.5633006208,1.44823113453257,103.819523749458,103.819523749458,Sun Plaza
352,SUN PLAZA SPRING,400A,TAMPINES STREET 41,SUN PLAZA SPRING,400A TAMPINES STREET 41 SUN PLAZA SPRING SINGAPORE 521400,521400,40933.2037706887,37850.6498963386,1.3585795422464,103.949531894985,103.949531894985,Sun Plaza
353,SUN PLAZA SPRING,400B,TAMPINES STREET 41,SUN PLAZA SPRING,400B TAMPINES STREET 41 SUN PLAZA SPRING SINGAPORE 522400,522400,40880.5625711791,37851.3107674941,1.358585541762,103.949058880225,103.949058880225,Sun Plaza
354,SUN PLAZA SPRING,400C,TAMPINES STREET 41,SUN PLAZA SPRING,400C TAMPINES STREET 41 SUN PLAZA SPRING SINGAPORE 523400,523400,40833.1142982962,37806.8591460716,1.35818355846513,103.948632507904,103.948632507904,Sun Plaza
355,SUN PLAZA GREEN,401,TAMPINES STREET 41,SUN PLAZA GREEN,401 TAMPINES STREET 41 SUN PLAZA GREEN SINGAPORE 520401,520401,40419.1449872516,37684.0250091907,1.3570728680964,103.944912676662,103.944912676662,Sun Plaza
356,SUN PLAZA GREEN,402,TAMPINES STREET 41,SUN PLAZA GREEN,402 TAMPINES STREET 41 SUN PLAZA GREEN SINGAPORE 520402,520402,40484.8546611425,37710.9413585346,1.35731626202304,103.945503131291,103.945503131291,Sun Plaza
357,UOB VISTA POINT,548,WOODLANDS DRIVE 44,UOB VISTA POINT,548 WOODLANDS DRIVE 44 UOB VISTA POINT SINGAPORE 730548,730548,23559.4773086179,45840.5805134811,1.43084006826605,103.793416329134,103.793416329134,Vista Point
358,VISTA POINT,548,WOODLANDS DRIVE 44,VISTA POINT,548 WOODLANDS DRIVE 44 VISTA POINT SINGAPORE 730548,730548,23616.35523888,45846.8909037989,1.43089714603015,103.793927429476,103.793927429476,Vista Point
359,OCBC VISTA POINT,548,WOODLANDS DRIVE 44,OCBC VISTA POINT,548 WOODLANDS DRIVE 44 OCBC VISTA POINT SINGAPORE 730548,730548,23636.0932937423,45836.2745901179,1.4308011390122,103.794104795966,103.794104795966,Vista Point
360,DBS VISTA POINT,548,WOODLANDS DRIVE 44,DBS VISTA POINT,548 WOODLANDS DRIVE 44 DBS VISTA POINT SINGAPORE 730548,730548,23635.7351932265,45858.1880049687,1.43099931590445,103.794101574732,103.794101574732,Vista Point
361,OCBC VISTA POINT - CHEERS,548,WOODLANDS DRIVE 44,OCBC VISTA POINT - CHEERS,548 WOODLANDS DRIVE 44 OCBC VISTA POINT - CHEERS SINGAPORE 730548,730548,23636.0932937423,45836.2745901179,1.4308011390122,103.794104795966,103.794104795966,Vista Point
362,WISTERIA MALL,598,YISHUN RING ROAD,WISTERIA MALL,598 YISHUN RING ROAD WISTERIA MALL SINGAPORE 768698,768698,28884.7489383351,44415.5435907897,1.41795288501536,103.841268831617,103.841268831617,Wisteria Mall
363,OCBC WISTERIA MALL - FAIRPRICE,598,YISHUN RING ROAD,OCBC WISTERIA MALL - FAIRPRICE,598 YISHUN RING ROAD OCBC WISTERIA MALL - FAIRPRICE SINGAPORE 768698,768698,28890.1419363339,44419.6134541482,1.41798969122298,103.841317292608,103.841317292608,Wisteria Mall
364,OCBC WOODLANDS MART,768,WOODLANDS AVENUE 6,OCBC WOODLANDS MART,768 WOODLANDS AVENUE 6 OCBC WOODLANDS MART SINGAPORE 730768,730768,24087.6564999428,47477.9444967583,1.44564787003157,103.798162285805,103.798162285805,Woodlands Mart
365,UOB WOODLANDS MART,768,WOODLANDS AVENUE 6,UOB WOODLANDS MART,768 WOODLANDS AVENUE 6 UOB WOODLANDS MART SINGAPORE 730768,730768,24087.6564999428,47477.9444967583,1.44564787003157,103.798162285805,103.798162285805,Woodlands Mart
366,WOODLANDS MART,768,WOODLANDS AVENUE 6,WOODLANDS MART,768 WOODLANDS AVENUE 6 WOODLANDS MART SINGAPORE 730768,730768,24085.287001106,47475.1842685193,1.44562290720221,103.798140993891,103.798140993891,Woodlands Mart
367,DBS WOODLANDS MART,768,WOODLANDS AVENUE 6,DBS WOODLANDS MART,768 WOODLANDS AVENUE 6 DBS WOODLANDS MART SINGAPORE 730768,730768,24087.6564999428,47477.9444967583,1.44564787003157,103.798162285805,103.798162285805,Woodlands Mart
368,OCBC WOODLANDS NORTH PLAZA,883,WOODLANDS STREET 82,OCBC WOODLANDS NORTH PLAZA,883 WOODLANDS STREET 82 OCBC WOODLANDS NORTH PLAZA SINGAPORE 730883,730883,23286.7157086106,47169.1898147166,1.44285548185504,103.790965090129,103.790965090129,Woodlands North Plaza
369,DBS WOODLANDS NORTH PLAZA,883,WOODLANDS STREET 82,DBS WOODLANDS NORTH PLAZA,883 WOODLANDS STREET 82 DBS WOODLANDS NORTH PLAZA SINGAPORE 730883,730883,23265.0904146964,47167.0272883531,1.44283592110679,103.790770766025,103.790770766025,Woodlands North Plaza
370,UOB WOODLANDS NORTH PLAZA,883,WOODLANDS STREET 82,UOB WOODLANDS NORTH PLAZA,883 WOODLANDS STREET 82 UOB WOODLANDS NORTH PLAZA SINGAPORE 730883,730883,23280.9489010125,47168.829413835,1.44285222154947,103.790913269769,103.790913269769,Woodlands North Plaza
371,WOODLANDS NORTH PLAZA,883,WOODLANDS STREET 82,WOODLANDS NORTH PLAZA,883 WOODLANDS STREET 82 WOODLANDS NORTH PLAZA SINGAPORE 730883,730883,23240.3015716588,47157.8967089206,1.44275334327795,103.790548015512,103.790548015512,Woodlands North Plaza
372,BUANGKOK SQUARE,991,BUANGKOK LINK,BUANGKOK SQUARE,991 BUANGKOK LINK BUANGKOK SQUARE SINGAPORE 530991,530991,33375.6730938945,40698.2200346421,1.38433426615655,103.881623070164,103.881623070164,Buangkok Square
373,BUANGKOK SQUARE,992,BUANGKOK LINK,BUANGKOK SQUARE,992 BUANGKOK LINK BUANGKOK SQUARE SINGAPORE 530992,530992,33413.858940009,40578.733930245,1.38325366996252,103.881966176802,103.881966176802,Buangkok Square
374,BUANGKOK SQUARE,991A,BUANGKOK LINK,BUANGKOK SQUARE,991A BUANGKOK LINK BUANGKOK SQUARE SINGAPORE 531991,531991,33442.749427787,40695.2956933957,1.38430780704299,103.882225801104,103.882225801104,Buangkok Square
375,BUANGKOK SQUARE,992A,BUANGKOK LINK,BUANGKOK SQUARE,992A BUANGKOK LINK BUANGKOK SQUARE SINGAPORE 531992,531992,33415.6997479741,40600.5129855163,1.38345063152545,103.881982721855,103.881982721855,Buangkok Square
376,BUANGKOK SQUARE,991B,BUANGKOK LINK,BUANGKOK SQUARE,991B BUANGKOK LINK BUANGKOK SQUARE SINGAPORE 532991,532991,33471.7431293903,40659.5768998303,1.38398477376889,103.882486324738,103.882486324738,Buangkok Square
377,BUANGKOK SQUARE,992B,BUANGKOK LINK,BUANGKOK SQUARE,992B BUANGKOK LINK BUANGKOK SQUARE SINGAPORE 532992,532992,33381.1722417129,40642.0994093325,1.3838267304931,103.881672473881,103.881672473881,Buangkok Square
378,BUANGKOK SQUARE,991C,BUANGKOK LINK,BUANGKOK SQUARE,991C BUANGKOK LINK BUANGKOK SQUARE SINGAPORE 535991,535991,33478.5485525811,40635.9294624589,1.38377091361914,103.882547472184,103.882547472184,Buangkok Square
379,BUANGKOK SQUARE,991D,BUANGKOK LINK,BUANGKOK SQUARE,991D BUANGKOK LINK BUANGKOK SQUARE SINGAPORE 536991,536991,33445.3407606771,40726.2086878456,1.38458737250468,103.882249091915,103.882249091915,Buangkok Square
380,BUANGKOK SQUARE,,NIL,BUANGKOK SQUARE,BUANGKOK SQUARE,NIL,33418.3797357883,40664.4306434318,1.3840286792222,103.882006815341,103.882006815341,Buangkok Square
381,COMPASS ONE,1,SENGKANG SQUARE,COMPASS ONE,1 SENGKANG SQUARE COMPASS ONE SINGAPORE 545078,545078,34872.1834410084,41551.7693360616,1.39205314156706,103.89507054384,103.89507054384,Compass One
382,OCBC COMPASS ONE BRANCH,1,SENGKANG SQUARE,OCBC COMPASS ONE BRANCH,1 SENGKANG SQUARE OCBC COMPASS ONE BRANCH SINGAPORE 545078,545078,34871.4422991592,41551.8980052602,1.3920543053799,103.895063884132,103.895063884132,Compass One
383,GREENWICH V,1,SELETAR ROAD,GREENWICH V,1 SELETAR ROAD GREENWICH V SINGAPORE 807011,807011,31986.0138748605,41036.6794434916,1.38739539397015,103.869135978173,103.869135978173,Greenwich V
384,OCBC GREENWICH V,1,SELETAR ROAD,OCBC GREENWICH V,1 SELETAR ROAD OCBC GREENWICH V SINGAPORE 807011,807011,32009.614699536,41033.6169894356,1.38736769500018,103.869348049282,103.869348049282,Greenwich V
385,CITIBANK HEARTLAND MALL,205,HOUGANG STREET 21,CITIBANK HEARTLAND MALL,205 HOUGANG STREET 21 CITIBANK HEARTLAND MALL SINGAPORE 530205,530205,33770.1681960914,37956.7995033581,1.35954177325561,103.885167372726,103.885167372726,Heartland Mall
386,UOB HEARTLAND MALL,205,HOUGANG STREET 21,UOB HEARTLAND MALL,205 HOUGANG STREET 21 UOB HEARTLAND MALL SINGAPORE 530205,530205,33770.3570985775,37957.1020015869,1.35954450890401,103.885169070198,103.885169070198,Heartland Mall
387,OCBC HEARTLAND MALL,205,HOUGANG STREET 21,OCBC HEARTLAND MALL,205 HOUGANG STREET 21 OCBC HEARTLAND MALL SINGAPORE 530205,530205,33770.3570985775,37957.1020015869,1.35954450890401,103.885169070198,103.885169070198,Heartland Mall
388,DBS HEARTLAND MALL BRANCH,205,HOUGANG STREET 21,DBS HEARTLAND MALL BRANCH,205 HOUGANG STREET 21 DBS HEARTLAND MALL BRANCH SINGAPORE 530205,530205,33770.3570985775,37957.1020015869,1.35954450890401,103.885169070198,103.885169070198,Heartland Mall
389,HEARTLAND MALL-KOVAN,205,HOUGANG STREET 21,HEARTLAND MALL-KOVAN,205 HOUGANG STREET 21 HEARTLAND MALL-KOVAN SINGAPORE 530205,530205,33770.1681960914,37956.7995033581,1.35954177325561,103.885167372726,103.885167372726,Heartland Mall
390,HOUGANG AVENUE 1,,HOUGANG AVENUE 1,NIL,HOUGANG AVENUE 1,NIL,34288.9191260246,37636.4181857578,1.35664284566921,103.889828868222,103.889828868222,Hougang 1
391,DBS HOUGANG 1,1,HOUGANG STREET 91,DBS HOUGANG 1,1 HOUGANG STREET 91 DBS HOUGANG 1 SINGAPORE 538692,538692,33137.5887661325,39734.043159619,1.37561464129476,103.879483534695,103.879483534695,Hougang 1
392,HOUGANG 1,1,HOUGANG STREET 91,HOUGANG 1,1 HOUGANG STREET 91 HOUGANG 1 SINGAPORE 538692,538692,33136.3424516348,39745.1742408983,1.37571530699875,103.879472337592,103.879472337592,Hougang 1
393,UOB HOUGANG 1,1,HOUGANG STREET 91,UOB HOUGANG 1,1 HOUGANG STREET 91 UOB HOUGANG 1 SINGAPORE 538692,538692,33129.1220846558,39733.5139844604,1.37560985710478,103.879407455354,103.879407455354,Hougang 1
394,OCBC HOUGANG AVE 1 - 7 ELEVEN,106,HOUGANG AVENUE 1,OCBC HOUGANG AVE 1 - 7 ELEVEN,106 HOUGANG AVENUE 1 OCBC HOUGANG AVE 1 - 7 ELEVEN SINGAPORE 530106,530106,34383.7663918538,37311.2062024605,1.35370313485788,103.890680820842,103.890680820842,Hougang 1
395,DBS HOUGANG AVENUE 1,106,HOUGANG AVENUE 1,DBS HOUGANG AVENUE 1,106 HOUGANG AVENUE 1 DBS HOUGANG AVENUE 1 SINGAPORE 530106,530106,34383.7663918538,37311.2062024605,1.35370313485788,103.890680820842,103.890680820842,Hougang 1
396,UOB HOUGANG AVENUE 1,106,HOUGANG AVENUE 1,UOB HOUGANG AVENUE 1,106 HOUGANG AVENUE 1 UOB HOUGANG AVENUE 1 SINGAPORE 530106,530106,34383.7663918538,37311.2062024605,1.35370313485788,103.890680820842,103.890680820842,Hougang 1
397,DBS HOUGANG AVENUE 1,124,HOUGANG AVENUE 1,DBS HOUGANG AVENUE 1,124 HOUGANG AVENUE 1 DBS HOUGANG AVENUE 1 SINGAPORE 530124,530124,33935.9913146188,37221.2811124828,1.3528899770961,103.886657257578,103.886657257578,Hougang 1
398,UOB HOUGANG AVENUE 1,121,HOUGANG AVENUE 1,UOB HOUGANG AVENUE 1,121 HOUGANG AVENUE 1 UOB HOUGANG AVENUE 1 SINGAPORE 530121,530121,33964.8989946116,37326.0046131834,1.35383705299112,103.886917032282,103.886917032282,Hougang 1
399,DBS HOUGANG GREEN SHOPPING MALL,21,HOUGANG STREET 51,DBS HOUGANG GREEN SHOPPING MALL,21 HOUGANG STREET 51 DBS HOUGANG GREEN SHOPPING MALL SINGAPORE 538719,538719,34068.3398895012,40143.5433120634,1.37931783499145,103.88784708944,103.88784708944,Hougang Green Shopping Mall
400,OCBC HOUGANG GREEN SHOPPING MALL,21,HOUGANG STREET 51,OCBC HOUGANG GREEN SHOPPING MALL,21 HOUGANG STREET 51 OCBC HOUGANG GREEN SHOPPING MALL SINGAPORE 538719,538719,34068.3398895012,40143.5433120634,1.37931783499145,103.88784708944,103.88784708944,Hougang Green Shopping Mall
401,HOUGANG GREEN SHOPPING MALL,21,HOUGANG STREET 51,HOUGANG GREEN SHOPPING MALL,21 HOUGANG STREET 51 HOUGANG GREEN SHOPPING MALL SINGAPORE 538719,538719,34066.6627102559,40135.5216910187,1.3792452907016,103.887832017102,103.887832017102,Hougang Green Shopping Mall
402,DBS SHOP N SAVE HOUGANG GREEN SHOPPING MALL,21,HOUGANG STREET 51,DBS SHOP N SAVE HOUGANG GREEN SHOPPING MALL,21 HOUGANG STREET 51 DBS SHOP N SAVE HOUGANG GREEN SHOPPING MALL SINGAPORE 538719,538719,34068.3398895012,40143.5433120634,1.37931783499145,103.88784708944,103.88784708944,Hougang Green Shopping Mall
403,UOB HOUGANG GREEN SHOPPING MALL,21,HOUGANG STREET 51,UOB HOUGANG GREEN SHOPPING MALL,21 HOUGANG STREET 51 UOB HOUGANG GREEN SHOPPING MALL SINGAPORE 538719,538719,34068.3398895012,40143.5433120634,1.37931783499145,103.88784708944,103.88784708944,Hougang Green Shopping Mall
404,HOUGANG MALL,90,HOUGANG AVENUE 10,HOUGANG MALL,90 HOUGANG AVENUE 10 HOUGANG MALL SINGAPORE 538766,538766,34728.1240016175,39389.1175711397,1.37249493810003,103.893775562605,103.893775562605,Hougang Mall
405,DBS HOUGANG MALL,90,HOUGANG AVENUE 10,DBS HOUGANG MALL,90 HOUGANG AVENUE 10 DBS HOUGANG MALL SINGAPORE 538766,538766,34729.5238958644,39387.8072095886,1.37248308734511,103.893788141349,103.893788141349,Hougang Mall
406,UOB HOUGANG MALL,90,HOUGANG AVENUE 10,UOB HOUGANG MALL,90 HOUGANG AVENUE 10 UOB HOUGANG MALL SINGAPORE 538766,538766,34729.5238958644,39387.8072095886,1.37248308734511,103.893788141349,103.893788141349,Hougang Mall
407,DBS NTUC HOUGANG MALL,90,HOUGANG AVENUE 10,DBS NTUC HOUGANG MALL,90 HOUGANG AVENUE 10 DBS NTUC HOUGANG MALL SINGAPORE 538766,538766,34729.5238958644,39387.8072095886,1.37248308734511,103.893788141349,103.893788141349,Hougang Mall
408,OCBC HOUGANG MALL BRANCH,90,HOUGANG AVENUE 10,OCBC HOUGANG MALL BRANCH,90 HOUGANG AVENUE 10 OCBC HOUGANG MALL BRANCH SINGAPORE 538766,538766,34729.5238958644,39387.8072095886,1.37248308734511,103.893788141349,103.893788141349,Hougang Mall
409,HOUGANG GREEN SHOPPING MALL,21,HOUGANG STREET 51,HOUGANG GREEN SHOPPING MALL,21 HOUGANG STREET 51 HOUGANG GREEN SHOPPING MALL SINGAPORE 538719,538719,34066.6627102559,40135.5216910187,1.3792452907016,103.887832017102,103.887832017102,Hougang Mall
410,DBS HOUGANG GREEN SHOPPING MALL,21,HOUGANG STREET 51,DBS HOUGANG GREEN SHOPPING MALL,21 HOUGANG STREET 51 DBS HOUGANG GREEN SHOPPING MALL SINGAPORE 538719,538719,34068.3398895012,40143.5433120634,1.37931783499145,103.88784708944,103.88784708944,Hougang Mall
411,DBS SHOP N SAVE HOUGANG GREEN SHOPPING MALL,21,HOUGANG STREET 51,DBS SHOP N SAVE HOUGANG GREEN SHOPPING MALL,21 HOUGANG STREET 51 DBS SHOP N SAVE HOUGANG GREEN SHOPPING MALL SINGAPORE 538719,538719,34068.3398895012,40143.5433120634,1.37931783499145,103.88784708944,103.88784708944,Hougang Mall
412,UOB HOUGANG GREEN SHOPPING MALL,21,HOUGANG STREET 51,UOB HOUGANG GREEN SHOPPING MALL,21 HOUGANG STREET 51 UOB HOUGANG GREEN SHOPPING MALL SINGAPORE 538719,538719,34068.3398895012,40143.5433120634,1.37931783499145,103.88784708944,103.88784708944,Hougang Mall
413,OCBC HOUGANG GREEN SHOPPING MALL,21,HOUGANG STREET 51,OCBC HOUGANG GREEN SHOPPING MALL,21 HOUGANG STREET 51 OCBC HOUGANG GREEN SHOPPING MALL SINGAPORE 538719,538719,34068.3398895012,40143.5433120634,1.37931783499145,103.88784708944,103.88784708944,Hougang Mall
414,NEX,23,SERANGOON CENTRAL,NEX,23 SERANGOON CENTRAL NEX SINGAPORE 556083,556083,32337.7653476875,36986.7628374919,1.35076935257845,103.872296143862,103.872296143862,NEX
415,NEXUS @ONE-NORTH,1,FUSIONOPOLIS LINK,NEXUS @ONE-NORTH,1 FUSIONOPOLIS LINK NEXUS @ONE-NORTH SINGAPORE 138542,138542,23135.3729751017,31290.5422360059,1.29925468229405,103.78960773275,103.78960773275,NEX
416,NEXUS @ONE-NORTH,3,FUSIONOPOLIS LINK,NEXUS @ONE-NORTH,3 FUSIONOPOLIS LINK NEXUS @ONE-NORTH SINGAPORE 138543,138543,23154.3816926274,31228.6286515612,1.2986947607554,103.78977854412,103.78977854412,NEX
417,NEXUS INTERNATIONAL SCHOOL (SINGAPORE),1,ALJUNIED WALK,NEXUS INTERNATIONAL SCHOOL (SINGAPORE),1 ALJUNIED WALK NEXUS INTERNATIONAL SCHOOL (SINGAPORE) SINGAPORE 387293,387293,33053.7749939449,33673.3404318932,1.32080383232055,103.878729392176,103.878729392176,NEX
418,NORTHSHORE PLAZA I,407,NORTHSHORE DRIVE,NORTHSHORE PLAZA I,407 NORTHSHORE DRIVE NORTHSHORE PLAZA I SINGAPORE 820407,820407,35651.5384684131,44283.8929350749,1.41676127156324,103.902074379502,103.902074379502,Northshore Plaza
419,NORTHSHORE PLAZA II,418,NORTHSHORE DRIVE,NORTHSHORE PLAZA II,418 NORTHSHORE DRIVE NORTHSHORE PLAZA II SINGAPORE 820418,820418,35567.7865337161,44416.5981273428,1.41796143093751,103.901321830086,103.901321830086,Northshore Plaza
420,OASIS TERRACES,681,PUNGGOL DRIVE,OASIS TERRACES,681 PUNGGOL DRIVE OASIS TERRACES SINGAPORE 820681,820681,36891.3954429701,42737.9701953474,1.40278015725693,103.913215101343,103.913215101343,Oasis Terraces
421,OCBC OASIS TERRACES - FAIRPRICE,681,PUNGGOL DRIVE,OCBC OASIS TERRACES - FAIRPRICE,681 PUNGGOL DRIVE OCBC OASIS TERRACES - FAIRPRICE SINGAPORE 820681,820681,36918.8045550892,42742.7659757603,1.40282352005409,103.91346139614,103.91346139614,Oasis Terraces
422,UOB PUNGGOL PLAZA,168,PUNGGOL FIELD,UOB PUNGGOL PLAZA,168 PUNGGOL FIELD UOB PUNGGOL PLAZA SINGAPORE 820168,820168,36872.3316982491,41795.4434037171,1.39425629780831,103.913043510411,103.913043510411,Punggol Plaza
423,OCBC PUNGGOL PLAZA,168,PUNGGOL FIELD,OCBC PUNGGOL PLAZA,168 PUNGGOL FIELD OCBC PUNGGOL PLAZA SINGAPORE 820168,820168,36872.3316982491,41795.4434037171,1.39425629780831,103.913043510411,103.913043510411,Punggol Plaza
424,OCBC PUNGGOL PLAZA - FAIRPRICE,168,PUNGGOL FIELD,OCBC PUNGGOL PLAZA - FAIRPRICE,168 PUNGGOL FIELD OCBC PUNGGOL PLAZA - FAIRPRICE SINGAPORE 820168,820168,36872.3316982491,41795.4434037171,1.39425629780831,103.913043510411,103.913043510411,Punggol Plaza
425,PUNGGOL PLAZA,168,PUNGGOL FIELD,PUNGGOL PLAZA,168 PUNGGOL FIELD PUNGGOL PLAZA SINGAPORE 820168,820168,36872.7560856491,41793.3313643504,1.39423719717117,103.913047323223,103.913047323223,Punggol Plaza
426,DBS NTUC PUNGGOL PLAZA,168,PUNGGOL FIELD,DBS NTUC PUNGGOL PLAZA,168 PUNGGOL FIELD DBS NTUC PUNGGOL PLAZA SINGAPORE 820168,820168,36880.8484127037,41786.3959098998,1.39417447299355,103.913120037036,103.913120037036,Punggol Plaza
427,OCBC RIVERVALE MALL,11,RIVERVALE CRESCENT,OCBC RIVERVALE MALL,11 RIVERVALE CRESCENT OCBC RIVERVALE MALL SINGAPORE 545082,545082,35918.5612889761,41569.953614248,1.39221732695142,103.904473070943,103.904473070943,Rivervale Mall
428,OCBC RIVERVALE MALL - FAIRPRICE,11,RIVERVALE CRESCENT,OCBC RIVERVALE MALL - FAIRPRICE,11 RIVERVALE CRESCENT OCBC RIVERVALE MALL - FAIRPRICE SINGAPORE 545082,545082,35918.5612889761,41569.953614248,1.39221732695142,103.904473070943,103.904473070943,Rivervale Mall
429,RIVERVALE MALL,11,RIVERVALE CRESCENT,RIVERVALE MALL,11 RIVERVALE CRESCENT RIVERVALE MALL SINGAPORE 545082,545082,35918.3976602554,41567.7920261901,1.39219777838449,103.904471600025,103.904471600025,Rivervale Mall
430,DBS RIVERVALE MALL,11,RIVERVALE CRESCENT,DBS RIVERVALE MALL,11 RIVERVALE CRESCENT DBS RIVERVALE MALL SINGAPORE 545082,545082,35918.5612889761,41569.953614248,1.39221732695142,103.904473070943,103.904473070943,Rivervale Mall
431,UOB RIVERVALE MALL,11,RIVERVALE CRESCENT,UOB RIVERVALE MALL,11 RIVERVALE CRESCENT UOB RIVERVALE MALL SINGAPORE 545082,545082,35918.5612889761,41569.953614248,1.39221732695142,103.904473070943,103.904473070943,Rivervale Mall
432,UOB RIVERVALE PLAZA,118,RIVERVALE DRIVE,UOB RIVERVALE PLAZA,118 RIVERVALE DRIVE UOB RIVERVALE PLAZA SINGAPORE 540118,540118,35628.9458097387,40825.3254985828,1.38548325969894,103.901870455683,103.901870455683,Rivervale Plaza
433,RIVERVALE PLAZA,118,RIVERVALE DRIVE,RIVERVALE PLAZA,118 RIVERVALE DRIVE RIVERVALE PLAZA SINGAPORE 540118,540118,35625.6731445352,40809.1926632598,1.38533736107771,103.901841044122,103.901841044122,Rivervale Plaza
434,DBS NTUC RIVERVALE PLAZA,118,RIVERVALE DRIVE,DBS NTUC RIVERVALE PLAZA,118 RIVERVALE DRIVE DBS NTUC RIVERVALE PLAZA SINGAPORE 540118,540118,35642.0742147285,40827.6422100551,1.38550420775531,103.901988424927,103.901988424927,Rivervale Plaza
435,DBS RIVERVALE PLAZA BRANCH,118,RIVERVALE DRIVE,DBS RIVERVALE PLAZA BRANCH,118 RIVERVALE DRIVE DBS RIVERVALE PLAZA BRANCH SINGAPORE 540118,540118,35642.0742147285,40827.6422100551,1.38550420775531,103.901988424927,103.901988424927,Rivervale Plaza
436,OCBC RIVERVALE PLAZA,118,RIVERVALE DRIVE,OCBC RIVERVALE PLAZA,118 RIVERVALE DRIVE OCBC RIVERVALE PLAZA SINGAPORE 540118,540118,35635.1238986999,40821.4642118998,1.38544833801428,103.901925969477,103.901925969477,Rivervale Plaza
437,OCBC RIVERVALE PLAZA - FAIRPRICE,118,RIVERVALE DRIVE,OCBC RIVERVALE PLAZA - FAIRPRICE,118 RIVERVALE DRIVE OCBC RIVERVALE PLAZA - FAIRPRICE SINGAPORE 540118,540118,35635.1238986999,40821.4642118998,1.38544833801428,103.901925969477,103.901925969477,Rivervale Plaza
438,SENGKANG GRAND MALL,11,SENGKANG CENTRAL,SENGKANG GRAND MALL,11 SENGKANG CENTRAL SENGKANG GRAND MALL SINGAPORE 544575,544575,34610.7360133147,40548.6806070674,1.38298163230717,103.892721008018,103.892721008018,Sengkang Grand Mall
439,SENGKANG GRAND MALL,86,COMPASSVALE BOW,SENGKANG GRAND MALL,86 COMPASSVALE BOW SENGKANG GRAND MALL SINGAPORE 544573,544573,34563.4162885584,40567.5107737575,1.38315193616746,103.892295809097,103.892295809097,Sengkang Grand Mall
440,SENGKANG GRAND MALL,70,COMPASSVALE BOW,SENGKANG GRAND MALL,70 COMPASSVALE BOW SENGKANG GRAND MALL SINGAPORE 544692,544692,34610.7359830467,40548.6805767994,1.38298163203344,103.892721007746,103.892721007746,Sengkang Grand Mall
441,UOB THE SELETAR MALL,33,SENGKANG WEST AVENUE,UOB THE SELETAR MALL,33 SENGKANG WEST AVENUE UOB THE SELETAR MALL SINGAPORE 797653,797653,32768.9827481806,41490.7721148245,1.39150192642807,103.87617162828,103.87617162828,The Seletar Mall
442,THE SELETAR MALL,33,SENGKANG WEST AVENUE,THE SELETAR MALL,33 SENGKANG WEST AVENUE THE SELETAR MALL SINGAPORE 797653,797653,32763.8501456464,41487.2587586138,1.39147015374628,103.876125507257,103.876125507257,The Seletar Mall
443,UPPER SERANGOON SHOPPING CENTRE,756,UPPER SERANGOON ROAD,UPPER SERANGOON SHOPPING CENTRE,756 UPPER SERANGOON ROAD UPPER SERANGOON SHOPPING CENTRE SINGAPORE 534626,534626,33064.697135333,37286.5960918665,1.35348082277147,103.878828134896,103.878828134896,Upper Serangoon Shopping Centre
444,OCBC WATERWAY POINT - FAIRPRICE,83,PUNGGOL CENTRAL,OCBC WATERWAY POINT - FAIRPRICE,83 PUNGGOL CENTRAL OCBC WATERWAY POINT - FAIRPRICE SINGAPORE 828761,828761,35662.4638484763,43135.910429718,1.40637933605759,103.902172248289,103.902172248289,Waterway Point
445,OCBC WATERWAY POINT BRANCH,83,PUNGGOL CENTRAL,OCBC WATERWAY POINT BRANCH,83 PUNGGOL CENTRAL OCBC WATERWAY POINT BRANCH SINGAPORE 828761,828761,35664.0513436859,43136.7041773237,1.40638651399662,103.90218651347,103.90218651347,Waterway Point
446,DBS WATERWAY POINT BRANCH,83,PUNGGOL CENTRAL,DBS WATERWAY POINT BRANCH,83 PUNGGOL CENTRAL DBS WATERWAY POINT BRANCH SINGAPORE 828761,828761,35670.4204236241,43136.2158639431,1.40638209616982,103.902243744842,103.902243744842,Waterway Point
447,SHAW THEATRES WATERWAY POINT,83,PUNGGOL CENTRAL,SHAW THEATRES WATERWAY POINT,83 PUNGGOL CENTRAL SHAW THEATRES WATERWAY POINT SINGAPORE 828761,828761,35641.9781441484,43153.2458725683,1.40653611690554,103.90198817171,103.90198817171,Waterway Point
448,DBS NTUC WATERWAY POINT,83,PUNGGOL CENTRAL,DBS NTUC WATERWAY POINT,83 PUNGGOL CENTRAL DBS NTUC WATERWAY POINT SINGAPORE 828761,828761,35664.3159161313,43139.6145952977,1.4064128346795,103.902188891645,103.902188891645,Waterway Point
449,WATERWAY POINT,83,PUNGGOL CENTRAL,WATERWAY POINT,83 PUNGGOL CENTRAL WATERWAY POINT SINGAPORE 828761,828761,35655.0554567808,43147.5521318838,1.40648462132006,103.902105680785,103.902105680785,Waterway Point
450,MYVILLAGE AT SERANGOON GARDEN,1,MAJU AVENUE,MYVILLAGE AT SERANGOON GARDEN,1 MAJU AVENUE MYVILLAGE AT SERANGOON GARDEN SINGAPORE 556679,556679,31543.5162021946,38573.0096142385,1.36511490572797,103.865159501442,103.865159501442,myVillage At Serangoon Garden
451,BEAUTY WORLD CENTRE,144,UPPER BUKIT TIMAH ROAD,BEAUTY WORLD CENTRE,144 UPPER BUKIT TIMAH ROAD BEAUTY WORLD CENTRE SINGAPORE 588177,588177,21681.0911870794,36062.7591135893,1.34241264188642,103.776539385406,103.776539385406,Beauty World Centre
452,DBS BEAUTY WORLD CENTRE,144,UPPER BUKIT TIMAH ROAD,DBS BEAUTY WORLD CENTRE,144 UPPER BUKIT TIMAH ROAD DBS BEAUTY WORLD CENTRE SINGAPORE 588177,588177,21681.0911870794,36062.7591135893,1.34241264188642,103.776539385406,103.776539385406,Beauty World Centre
453,BEAUTY WORLD PLAZA,140,UPPER BUKIT TIMAH ROAD,BEAUTY WORLD PLAZA,140 UPPER BUKIT TIMAH ROAD BEAUTY WORLD PLAZA SINGAPORE 588176,588176,21649.9257879127,35995.0375873558,1.34180018619223,103.776259359854,103.776259359854,Beauty World Plaza
454,BUKIT PANJANG PLAZA,1,JELEBU ROAD,BUKIT PANJANG PLAZA,1 JELEBU ROAD BUKIT PANJANG PLAZA SINGAPORE 677743,677743,20325.461808118,40210.2194124069,1.37992045176243,103.764357180314,103.764357180314,Bukit Panjang Plaza
455,CITIBANK BUKIT PANJANG PLAZA,1,JELEBU ROAD,CITIBANK BUKIT PANJANG PLAZA,1 JELEBU ROAD CITIBANK BUKIT PANJANG PLAZA SINGAPORE 677743,677743,20336.8917857371,40207.3985271286,1.37989494369864,103.764459887796,103.764459887796,Bukit Panjang Plaza
456,DBS BUKIT PANJANG PLAZA,1,JELEBU ROAD,DBS BUKIT PANJANG PLAZA,1 JELEBU ROAD DBS BUKIT PANJANG PLAZA SINGAPORE 677743,677743,20291.4358726144,40276.7802220006,1.38052239451717,103.764051414862,103.764051414862,Bukit Panjang Plaza
457,OCBC BUKIT PANJANG PLAZA,1,JELEBU ROAD,OCBC BUKIT PANJANG PLAZA,1 JELEBU ROAD OCBC BUKIT PANJANG PLAZA SINGAPORE 677743,677743,20327.7526101982,40206.06861246,1.37988291404114,103.764377765935,103.764377765935,Bukit Panjang Plaza
458,DBS NTUC BUKIT PANJANG PLAZA,1,JELEBU ROAD,DBS NTUC BUKIT PANJANG PLAZA,1 JELEBU ROAD DBS NTUC BUKIT PANJANG PLAZA SINGAPORE 677743,677743,20289.4515036019,40281.9396117013,1.38056905363362,103.764033582493,103.764033582493,Bukit Panjang Plaza
459,OCBC BUKIT TIMAH PLAZA - FAIRPRICE,1,JALAN ANAK BUKIT,OCBC BUKIT TIMAH PLAZA - FAIRPRICE,1 JALAN ANAK BUKIT OCBC BUKIT TIMAH PLAZA - FAIRPRICE SINGAPORE 588996,588996,21908.7846068349,35644.6712985355,1.3386316527745,103.778585430975,103.778585430975,Bukit Timah Plaza
460,DBS NTUC BUKIT TIMAH PLAZA,1,JALAN ANAK BUKIT,DBS NTUC BUKIT TIMAH PLAZA,1 JALAN ANAK BUKIT DBS NTUC BUKIT TIMAH PLAZA SINGAPORE 588996,588996,21908.7846068349,35644.6712985355,1.3386316527745,103.778585430975,103.778585430975,Bukit Timah Plaza
461,BUKIT TIMAH PLAZA,1,JALAN ANAK BUKIT,BUKIT TIMAH PLAZA,1 JALAN ANAK BUKIT BUKIT TIMAH PLAZA SINGAPORE 588996,588996,21910.4149615103,35658.7866516709,1.33875930729064,103.778600077834,103.778600077834,Bukit Timah Plaza
462,UOB BUKIT TIMAH PLAZA,1,JALAN ANAK BUKIT,UOB BUKIT TIMAH PLAZA,1 JALAN ANAK BUKIT UOB BUKIT TIMAH PLAZA SINGAPORE 588996,588996,21908.7846068349,35644.6712985355,1.3386316527745,103.778585430975,103.778585430975,Bukit Timah Plaza
463,BUKIT TIMAH PLAZA,3,JALAN ANAK BUKIT,BUKIT TIMAH PLAZA,3 JALAN ANAK BUKIT BUKIT TIMAH PLAZA SINGAPORE 588998,588998,21908.7846068349,35644.6712985355,1.3386316527745,103.778585430975,103.778585430975,Bukit Timah Plaza
464,DBS FAJAR SHOPPING CENTRE,445,FAJAR ROAD,DBS FAJAR SHOPPING CENTRE,445 FAJAR ROAD DBS FAJAR SHOPPING CENTRE SINGAPORE 670445,670445,21050.0964071397,40614.2677864283,1.38357469942896,103.770868459633,103.770868459633,Fajar Shopping Centre
465,FAJAR SHOPPING CENTRE,445,FAJAR ROAD,FAJAR SHOPPING CENTRE,445 FAJAR ROAD FAJAR SHOPPING CENTRE SINGAPORE 670445,670445,21038.9723480316,40614.8899751026,1.38358032362676,103.770768501474,103.770768501474,Fajar Shopping Centre
466,OCBC FAJAR SHOPPING CENTRE,445,FAJAR ROAD,OCBC FAJAR SHOPPING CENTRE,445 FAJAR ROAD OCBC FAJAR SHOPPING CENTRE SINGAPORE 670445,670445,21058.0735342484,40617.188162569,1.383601112147,103.77094013941,103.77094013941,Fajar Shopping Centre
467,UOB FAJAR SHOPPING CENTRE,445,FAJAR ROAD,UOB FAJAR SHOPPING CENTRE,445 FAJAR ROAD UOB FAJAR SHOPPING CENTRE SINGAPORE 670445,670445,21052.1203969428,40622.3475522697,1.38364777037534,103.770886644788,103.770886644788,Fajar Shopping Centre
468,FAJAR SHOPPING CENTRE,446,FAJAR ROAD,FAJAR SHOPPING CENTRE,446 FAJAR ROAD FAJAR SHOPPING CENTRE SINGAPORE 670446,670446,21068.0308836559,40661.938983012,1.38400582466296,103.771029603101,103.771029603101,Fajar Shopping Centre
469,FAJAR SHOPPING CENTRE/MULTI STOREY CAR PARK,446A,FAJAR ROAD,FAJAR SHOPPING CENTRE/MULTI STOREY CAR PARK,446A FAJAR ROAD FAJAR SHOPPING CENTRE/MULTI STOREY CAR PARK SINGAPORE 671446,671446,21103.7618449507,40636.744942477,1.38377798738412,103.771350678551,103.771350678551,Fajar Shopping Centre
470,DBS GREENRIDGE SHOPPING CENTRE,524A,JELAPANG ROAD,DBS GREENRIDGE SHOPPING CENTRE,524A JELAPANG ROAD DBS GREENRIDGE SHOPPING CENTRE SINGAPORE 671524,671524,20527.2817921769,40804.5668073092,1.38529556526689,103.766170530147,103.766170530147,Greenridge Shopping Centre
471,UOB GREENRIDGE SHOPPING CENTRE,524A,JELAPANG ROAD,UOB GREENRIDGE SHOPPING CENTRE,524A JELAPANG ROAD UOB GREENRIDGE SHOPPING CENTRE SINGAPORE 671524,671524,20533.7299018195,40816.7440106422,1.38540569310644,103.766228468185,103.766228468185,Greenridge Shopping Centre
472,GREENRIDGE SHOPPING CENTRE,524A,JELAPANG ROAD,GREENRIDGE SHOPPING CENTRE,524A JELAPANG ROAD GREENRIDGE SHOPPING CENTRE SINGAPORE 671524,671524,20533.7299018195,40816.7439803742,1.38540569283271,103.766228468185,103.766228468185,Greenridge Shopping Centre
473,OCBC GREENRIDGE SHOPPING CENTRE,524A,JELAPANG ROAD,OCBC GREENRIDGE SHOPPING CENTRE,524A JELAPANG ROAD OCBC GREENRIDGE SHOPPING CENTRE SINGAPORE 671524,671524,20533.7299018195,40816.7440106422,1.38540569310644,103.766228468185,103.766228468185,Greenridge Shopping Centre
474,OCBC HILLION MALL - FAIRPRICE,17,PETIR ROAD,OCBC HILLION MALL - FAIRPRICE,17 PETIR ROAD OCBC HILLION MALL - FAIRPRICE SINGAPORE 678278,678278,20249.2989347102,40051.1923945323,1.37848224932124,103.763672842754,103.763672842754,Hillion Mall
475,DBS NTUC HILLION MALL,17,PETIR ROAD,DBS NTUC HILLION MALL,17 PETIR ROAD DBS NTUC HILLION MALL SINGAPORE 678278,678278,20266.728117506,40043.3855248317,1.37841165144214,103.76382945872,103.76382945872,Hillion Mall
476,HILLION MALL,17,PETIR ROAD,HILLION MALL,17 PETIR ROAD HILLION MALL SINGAPORE 678278,678278,20156.924196275,40045.5291337073,1.37843100827586,103.762842789877,103.762842789877,Hillion Mall
477,HILLV2,,NIL,HILLV2,HILLV2,NIL,20323.1921330914,38379.4478257857,1.36336361909537,103.764337259822,103.764337259822,HillV2
478,HILLV2,4,HILLVIEW RISE,HILLV2,4 HILLVIEW RISE HILLV2 SINGAPORE 667979,667979,20304.9008575827,38303.2499323208,1.36267450828024,103.76417292006,103.76417292006,HillV2
479,DBS JUNCTION 10,1,WOODLANDS ROAD,DBS JUNCTION 10,1 WOODLANDS ROAD DBS JUNCTION 10 SINGAPORE 677899,677899,19887.2264123838,40239.1122913565,1.38018163022688,103.76041930548,103.76041930548,Junction 10
480,MINDCHAMPS PRESCHOOL @JUNCTION 10 PTE LIMITED,1,WOODLANDS ROAD,MINDCHAMPS PRESCHOOL @JUNCTION 10 PTE LIMITED,1 WOODLANDS ROAD MINDCHAMPS PRESCHOOL @JUNCTION 10 PTE LIMITED SINGAPORE 677899,677899,19852.4691721257,40279.9873570204,1.38055127973087,103.760106974822,103.760106974822,Junction 10
481,JUNCTION 10,1,WOODLANDS ROAD,JUNCTION 10,1 WOODLANDS ROAD JUNCTION 10 SINGAPORE 677899,677899,19859.2468093075,40256.2722101696,1.38033681049385,103.760167883439,103.760167883439,Junction 10
482,KEAT HONG SHOPPING CENTRE,253,CHOA CHU KANG AVENUE 1,KEAT HONG SHOPPING CENTRE,253 CHOA CHU KANG AVENUE 1 KEAT HONG SHOPPING CENTRE SINGAPORE 680253,680253,18103.7591441153,39927.8427333515,1.37736607441394,103.744393648768,103.744393648768,Keat Hong Shopping Centre
483,OCBC LIMBANG SHOPPING CENTRE,533,CHOA CHU KANG STREET 51,OCBC LIMBANG SHOPPING CENTRE,533 CHOA CHU KANG STREET 51 OCBC LIMBANG SHOPPING CENTRE SINGAPORE 680533,680533,17959.8063993668,41554.165410189,1.3920738867617,103.743099573442,103.743099573442,Limbang Shopping Centre
484,DBS NTUC LIMBANG SHOPPING CENTRE,533,CHOA CHU KANG STREET 51,DBS NTUC LIMBANG SHOPPING CENTRE,533 CHOA CHU KANG STREET 51 DBS NTUC LIMBANG SHOPPING CENTRE SINGAPORE 680533,680533,17959.8063993668,41554.165410189,1.3920738867617,103.743099573442,103.743099573442,Limbang Shopping Centre
485,LIMBANG SHOPPING CENTRE,534,CHOA CHU KANG STREET 51,LIMBANG SHOPPING CENTRE,534 CHOA CHU KANG STREET 51 LIMBANG SHOPPING CENTRE SINGAPORE 680534,680534,17969.9814663809,41572.799016593,1.3922424057206,103.743190997915,103.743190997915,Limbang Shopping Centre
486,LIMBANG SHOPPING CENTRE,533A,CHOA CHU KANG STREET 51,LIMBANG SHOPPING CENTRE,533A CHOA CHU KANG STREET 51 LIMBANG SHOPPING CENTRE SINGAPORE 681533,681533,17991.8168503707,41507.1441277526,1.39164865474084,103.743387228295,103.743387228295,Limbang Shopping Centre
487,LIMBANG SHOPPING CENTRE,532,CHOA CHU KANG STREET 51,LIMBANG SHOPPING CENTRE,532 CHOA CHU KANG STREET 51 LIMBANG SHOPPING CENTRE SINGAPORE 680532,680532,18016.7291867808,41570.3563600387,1.39222033136152,103.743611063324,103.743611063324,Limbang Shopping Centre
488,LIMBANG SHOPPING CENTRE,533,CHOA CHU KANG STREET 51,LIMBANG SHOPPING CENTRE,533 CHOA CHU KANG STREET 51 LIMBANG SHOPPING CENTRE SINGAPORE 680533,680533,17960.1078382162,41553.4949440826,1.39206782341869,103.743102282335,103.743102282335,Limbang Shopping Centre
489,OCBC LIMBANG SHOPPING CENTRE - FAIRPRICE,533,CHOA CHU KANG STREET 51,OCBC LIMBANG SHOPPING CENTRE - FAIRPRICE,533 CHOA CHU KANG STREET 51 OCBC LIMBANG SHOPPING CENTRE - FAIRPRICE SINGAPORE 680533,680533,17965.9579735734,41552.5779149793,1.39205953217042,103.743154850655,103.743154850655,Limbang Shopping Centre
490,DBS LIMBANG SHOPPING CENTRE,533,CHOA CHU KANG STREET 51,DBS LIMBANG SHOPPING CENTRE,533 CHOA CHU KANG STREET 51 DBS LIMBANG SHOPPING CENTRE SINGAPORE 680533,680533,17959.8063993668,41554.165410189,1.3920738867617,103.743099573442,103.743099573442,Limbang Shopping Centre
491,SHAW THEATRES LOT ONE,21,CHOA CHU KANG AVENUE 4,SHAW THEATRES LOT ONE,21 CHOA CHU KANG AVENUE 4 SHAW THEATRES LOT ONE SINGAPORE 689812,689812,18197.8532250971,40779.6927296296,1.38506992325619,103.745238868238,103.745238868238,Lot One
492,"LOT ONE, SHOPPERS' MALL",21,CHOA CHU KANG AVENUE 4,"LOT ONE, SHOPPERS' MALL","21 CHOA CHU KANG AVENUE 4 LOT ONE, SHOPPERS' MALL SINGAPORE 689812",689812,18172.5792770851,40769.1529334113,1.38497459672379,103.745011766388,103.745011766388,Lot One
493,THE RAIL MALL,380,UPPER BUKIT TIMAH ROAD,THE RAIL MALL,380 UPPER BUKIT TIMAH ROAD THE RAIL MALL SINGAPORE 678040,678040,20746.1224623229,37756.5542111527,1.35773050150178,103.768137724847,103.768137724847,Rail Mall
494,THE RAIL MALL,382,UPPER BUKIT TIMAH ROAD,THE RAIL MALL,382 UPPER BUKIT TIMAH ROAD THE RAIL MALL SINGAPORE 678041,678041,20742.5854970859,37761.2089427598,1.35777259634625,103.768105941777,103.768105941777,Rail Mall
495,THE RAIL MALL,384,UPPER BUKIT TIMAH ROAD,THE RAIL MALL,384 UPPER BUKIT TIMAH ROAD THE RAIL MALL SINGAPORE 678042,678042,20739.7690309333,37765.4593546428,1.3578110348449,103.768080632959,103.768080632959,Rail Mall
496,THE RAIL MALL,386,UPPER BUKIT TIMAH ROAD,THE RAIL MALL,386 UPPER BUKIT TIMAH ROAD THE RAIL MALL SINGAPORE 678043,678043,20736.2947204215,37770.1093341764,1.35785308672775,103.768049412881,103.768049412881,Rail Mall
497,THE RAIL MALL,388,UPPER BUKIT TIMAH ROAD,THE RAIL MALL,388 UPPER BUKIT TIMAH ROAD THE RAIL MALL SINGAPORE 678044,678044,20733.2959199352,37774.3563257754,1.35789149424937,103.768022465669,103.768022465669,Rail Mall
498,THE RAIL MALL,390,UPPER BUKIT TIMAH ROAD,THE RAIL MALL,390 UPPER BUKIT TIMAH ROAD THE RAIL MALL SINGAPORE 678045,678045,20729.8811162803,37779.0305802338,1.35793376567949,103.767991780291,103.767991780291,Rail Mall
499,THE RAIL MALL,392,UPPER BUKIT TIMAH ROAD,THE RAIL MALL,392 UPPER BUKIT TIMAH ROAD THE RAIL MALL SINGAPORE 678046,678046,20727.004901127,37783.0116978642,1.35796976876243,103.767965934651,103.767965934651,Rail Mall
500,THE RAIL MALL,394,UPPER BUKIT TIMAH ROAD,THE RAIL MALL,394 UPPER BUKIT TIMAH ROAD THE RAIL MALL SINGAPORE 678047,678047,20723.5974525921,37787.5313131921,1.35801064169323,103.7679353154,103.7679353154,Rail Mall
501,THE RAIL MALL,396,UPPER BUKIT TIMAH ROAD,THE RAIL MALL,396 UPPER BUKIT TIMAH ROAD THE RAIL MALL SINGAPORE 678048,678048,20720.8248750158,37791.7596597131,1.35804888064938,103.767910400949,103.767910400949,Rail Mall
502,THE RAIL MALL,398,UPPER BUKIT TIMAH ROAD,THE RAIL MALL,398 UPPER BUKIT TIMAH ROAD THE RAIL MALL SINGAPORE 678049,678049,20717.3627625024,37796.4555557799,1.35809134778511,103.767879290462,103.767879290462,Rail Mall
503,OCBC SUNSHINE PLACE,475,CHOA CHU KANG AVENUE 3,OCBC SUNSHINE PLACE,475 CHOA CHU KANG AVENUE 3 OCBC SUNSHINE PLACE SINGAPORE 680475,680475,17505.2381877424,39986.6035138089,1.37789727709418,103.739015486021,103.739015486021,Sunshine Place
504,DBS SUNSHINE PLACE,475,CHOA CHU KANG AVENUE 3,DBS SUNSHINE PLACE,475 CHOA CHU KANG AVENUE 3 DBS SUNSHINE PLACE SINGAPORE 680475,680475,17505.2381877424,39986.6035138089,1.37789727709418,103.739015486021,103.739015486021,Sunshine Place
505,SUNSHINE PLACE,475,CHOA CHU KANG AVENUE 3,SUNSHINE PLACE,475 CHOA CHU KANG AVENUE 3 SUNSHINE PLACE SINGAPORE 680475,680475,17505.2381877424,39986.603392737,1.37789727599928,103.739015486021,103.739015486021,Sunshine Place
506,UOB SUNSHINE PLACE,475,CHOA CHU KANG AVENUE 3,UOB SUNSHINE PLACE,475 CHOA CHU KANG AVENUE 3 UOB SUNSHINE PLACE SINGAPORE 680475,680475,17505.2381877424,39986.6035138089,1.37789727709418,103.739015486021,103.739015486021,Sunshine Place
507,TECK WHYE SHOPPING CENTRE,137,TECK WHYE LANE,TECK WHYE SHOPPING CENTRE,137 TECK WHYE LANE TECK WHYE SHOPPING CENTRE SINGAPORE 680137,680137,19004.1078333827,40224.3126699142,1.38004752975397,103.752483841199,103.752483841199,Teck Whye Shopping Centre
508,DBS WEST MALL,1,BUKIT BATOK CENTRAL LINK,DBS WEST MALL,1 BUKIT BATOK CENTRAL LINK DBS WEST MALL SINGAPORE 658713,658713,18630.0725866556,36943.3309141714,1.35037541626109,103.74912389291,103.74912389291,West Mall
509,CATHAY CINEPLEX WEST MALL,1,BUKIT BATOK CENTRAL LINK,CATHAY CINEPLEX WEST MALL,1 BUKIT BATOK CENTRAL LINK CATHAY CINEPLEX WEST MALL SINGAPORE 658713,658713,18640.083813074,36912.5610872842,1.35009714832628,103.74921385957,103.74921385957,West Mall
510,UOB WEST MALL,1,BUKIT BATOK CENTRAL LINK,UOB WEST MALL,1 BUKIT BATOK CENTRAL LINK UOB WEST MALL SINGAPORE 658713,658713,18623.428189138,36934.6420959607,1.35029683568301,103.749064191572,103.749064191572,West Mall
511,WEST MALL,1,BUKIT BATOK CENTRAL LINK,WEST MALL,1 BUKIT BATOK CENTRAL LINK WEST MALL SINGAPORE 658713,658713,18643.5269172937,36903.9429145474,1.35001920979845,103.749244800677,103.749244800677,West Mall
512,DBS NTUC YEW TEE POINT,21,CHOA CHU KANG NORTH 6,DBS NTUC YEW TEE POINT,21 CHOA CHU KANG NORTH 6 DBS NTUC YEW TEE POINT SINGAPORE 689578,689578,18349.1561864754,42108.1802022327,1.39708432396576,103.746598000147,103.746598000147,Yew Tee Point
513,UOB YEW TEE POINT,21,CHOA CHU KANG NORTH 6,UOB YEW TEE POINT,21 CHOA CHU KANG NORTH 6 UOB YEW TEE POINT SINGAPORE 689578,689578,18356.2918939041,42105.204496216,1.39705741516141,103.746662121143,103.746662121143,Yew Tee Point
514,YEW TEE SQUARE,623,CHOA CHU KANG STREET 62,YEW TEE SQUARE,623 CHOA CHU KANG STREET 62 YEW TEE SQUARE SINGAPORE 680623,680623,18432.2773969276,42244.9608574342,1.39832134529461,103.747344865384,103.747344865384,Yew Tee Square
515,YEW TEE SQUARE,624,CHOA CHU KANG STREET 62,YEW TEE SQUARE,624 CHOA CHU KANG STREET 62 YEW TEE SQUARE SINGAPORE 680624,680624,18403.3321240991,42214.6661470886,1.39804736153015,103.747084778932,103.747084778932,Yew Tee Square
516,UOB YEW TEE SQUARE,624,CHOA CHU KANG STREET 62,UOB YEW TEE SQUARE,624 CHOA CHU KANG STREET 62 UOB YEW TEE SQUARE SINGAPORE 680624,680624,18403.3320938312,42214.6660865527,1.39804736098268,103.74708477866,103.74708477866,Yew Tee Square
517,YEW TEE SQUARE,622,CHOA CHU KANG STREET 62,YEW TEE SQUARE,622 CHOA CHU KANG STREET 62 YEW TEE SQUARE SINGAPORE 680622,680622,18414.8746986175,42250.2780946698,1.39836942665376,103.747188486453,103.747188486453,Yew Tee Square
518,VIVOCITY,1,HARBOURFRONT WALK,VIVOCITY,1 HARBOURFRONT WALK VIVOCITY SINGAPORE 098585,098585,26774.2363178767,27424.6391711198,1.26429316783973,103.82230469365,103.82230469365,VivoCity
519,VIVOCITY STATION (S1),83,TELOK BLANGAH ROAD,VIVOCITY STATION (S1),83 TELOK BLANGAH ROAD VIVOCITY STATION (S1) SINGAPORE 098886,098886,26698.5451407274,27508.4192550424,1.2650508426276,103.821624580393,103.821624580393,VivoCity
520,HARBOURFRONT CENTRE CHECKPOINT,1,MARITIME SQUARE,HARBOURFRONT CENTRE CHECKPOINT,1 MARITIME SQUARE HARBOURFRONT CENTRE CHECKPOINT SINGAPORE 099253,099253,26543.0234277779,27333.8990551457,1.26347253624101,103.820227174699,103.820227174699,HarbourFront Centre
521,UOB HARBOURFRONT CENTRE AUTOLOBBY,1,MARITIME SQUARE,UOB HARBOURFRONT CENTRE AUTOLOBBY,1 MARITIME SQUARE UOB HARBOURFRONT CENTRE AUTOLOBBY SINGAPORE 099253,099253,26376.6834834293,27178.080988368,1.26206336410344,103.818732564507,103.818732564507,HarbourFront Centre
522,HARBOURFRONT CENTRE,1,MARITIME SQUARE,HARBOURFRONT CENTRE,1 MARITIME SQUARE HARBOURFRONT CENTRE SINGAPORE 099253,099253,26544.8211341351,27388.8962539714,1.26396991176004,103.820243325181,103.820243325181,HarbourFront Centre
523,HARBOURFRONT CENTRE POST OFFICE,1,MARITIME SQUARE,HARBOURFRONT CENTRE POST OFFICE,1 MARITIME SQUARE HARBOURFRONT CENTRE POST OFFICE SINGAPORE 099253,099253,26530.2247016672,27384.6603707224,1.26393160324447,103.820112171695,103.820112171695,HarbourFront Centre
524,ALEXANDRA RETAIL CENTRE (ARC),460,ALEXANDRA ROAD,ALEXANDRA RETAIL CENTRE (ARC),460 ALEXANDRA ROAD ALEXANDRA RETAIL CENTRE (ARC) SINGAPORE 119963,119963,24447.647553565,28514.458416285,1.27414893629254,103.801399416665,103.801399416665,Alexandra Retail Centre
525,DBS NTUC ALEXANDRA RETAIL CENTRE,460,ALEXANDRA ROAD,DBS NTUC ALEXANDRA RETAIL CENTRE,460 ALEXANDRA ROAD DBS NTUC ALEXANDRA RETAIL CENTRE SINGAPORE 119963,119963,24444.9339985568,28480.5896624215,1.27384263888449,103.801375038176,103.801375038176,Alexandra Retail Centre
526,UOB ALEXANDRA RETAIL CENTRE,460,ALEXANDRA ROAD,UOB ALEXANDRA RETAIL CENTRE,460 ALEXANDRA ROAD UOB ALEXANDRA RETAIL CENTRE SINGAPORE 119963,119963,24434.2335096132,28456.1735998727,1.27362182739596,103.801278893189,103.801278893189,Alexandra Retail Centre
527,321 CLEMENTI,321,CLEMENTI AVENUE 3,321 CLEMENTI,321 CLEMENTI AVENUE 3 321 CLEMENTI SINGAPORE 129905,129905,20395.3064215332,32700.1500842664,1.31200212030821,103.764986676365,103.764986676365,321 Clementi
528,OCBC THE CLEMENTI MALL - CLEMENTI BRANCH,441B,CLEMENTI AVENUE 3,OCBC THE CLEMENTI MALL - CLEMENTI BRANCH,441B CLEMENTI AVENUE 3 OCBC THE CLEMENTI MALL - CLEMENTI BRANCH SINGAPORE 122441,122441,20332.589403728,33020.1640930343,1.31489619639366,103.764423054189,103.764423054189,The Clementi Mall
529,OCBC THE CLEMENTI MALL - FAIRPRICE,3155,COMMONWEALTH AVENUE WEST,OCBC THE CLEMENTI MALL - FAIRPRICE,3155 COMMONWEALTH AVENUE WEST OCBC THE CLEMENTI MALL - FAIRPRICE SINGAPORE 129588,129588,20364.7236810531,33049.5442865212,1.3151619083025,103.764711789372,103.764711789372,The Clementi Mall
530,THE CLEMENTI MALL,3155,COMMONWEALTH AVENUE WEST,THE CLEMENTI MALL,3155 COMMONWEALTH AVENUE WEST THE CLEMENTI MALL SINGAPORE 129588,129588,20332.589403728,33020.1640930343,1.31489619639366,103.764423054189,103.764423054189,The Clementi Mall
531,IMM BUILDING,2,JURONG EAST STREET 21,IMM BUILDING,2 JURONG EAST STREET 21 IMM BUILDING SINGAPORE 609601,609601,18381.9356864095,35229.409786731,1.33487526118006,103.746894773008,103.746894773008,IMM
532,IMM BUILDING (TAXI STAND),,NIL,IMM BUILDING (TAXI STAND),IMM BUILDING (TAXI STAND),NIL,18318.692671583,35197.0701108668,1.33458277278836,103.746326509084,103.746326509084,IMM
533,IMMANUEL CONGREGATION (SINGAPORE),30,DOVER AVENUE,IMMANUEL CONGREGATION (SINGAPORE),30 DOVER AVENUE IMMANUEL CONGREGATION (SINGAPORE) SINGAPORE 139790,139790,22334.664914296,32107.0744895041,1.30663897387578,103.782412866712,103.782412866712,IMM
534,IMMIGRATION AND CHECKPOINTS AUTHORITY,10,KALLANG ROAD,IMMIGRATION AND CHECKPOINTS AUTHORITY,10 KALLANG ROAD IMMIGRATION AND CHECKPOINTS AUTHORITY SINGAPORE 208718,208718,31255.5318948682,32095.9032123405,1.30653829289832,103.862571072852,103.862571072852,IMM
535,IMMUNOS,8A,BIOMEDICAL GROVE,IMMUNOS,8A BIOMEDICAL GROVE IMMUNOS SINGAPORE 138648,138648,23593.4960403414,31605.2958810795,1.30210127109321,103.793724128024,103.793724128024,IMM
536,JEM,50,JURONG GATEWAY ROAD,JEM,50 JURONG GATEWAY ROAD JEM SINGAPORE 608549,608549,17979.5026238747,35054.5037911125,1.33329334473462,103.743278742341,103.743278742341,Jem
537,JEM,52,JURONG GATEWAY ROAD,JEM,52 JURONG GATEWAY ROAD JEM SINGAPORE 608550,608550,18004.5380601753,35028.6999717783,1.33305999269581,103.743503708169,103.743503708169,Jem
538,WESTGATE,3,GATEWAY DRIVE,WESTGATE,3 GATEWAY DRIVE WESTGATE SINGAPORE 608532,608532,17922.4971140614,35150.0792780221,1.33415767556867,103.742766484424,103.742766484424,Westgate
539,WESTGATE TOWER,1,GATEWAY DRIVE,WESTGATE TOWER,1 GATEWAY DRIVE WESTGATE TOWER SINGAPORE 608531,608531,17942.3048155531,35198.9064694401,1.33459925741287,103.74294445162,103.74294445162,Westgate
540,JURONG POINT POST OFFICE,1,JURONG WEST CENTRAL 2,JURONG POINT POST OFFICE,1 JURONG WEST CENTRAL 2 JURONG POINT POST OFFICE SINGAPORE 648886,648886,13882.0894070212,35777.4933857564,1.33983015787723,103.706460883294,103.706460883294,Jurong Point
541,GOLDEN VILLAGE (GV JURONG POINT),1,JURONG WEST CENTRAL 2,GOLDEN VILLAGE (GV JURONG POINT),1 JURONG WEST CENTRAL 2 GOLDEN VILLAGE (GV JURONG POINT) SINGAPORE 648886,648886,13907.0305282837,35735.67771223,1.3394520043632,103.706685012926,103.706685012926,Jurong Point
542,DBS JURONG POINT BRANCH,1,JURONG WEST CENTRAL 2,DBS JURONG POINT BRANCH,1 JURONG WEST CENTRAL 2 DBS JURONG POINT BRANCH SINGAPORE 648886,648886,13907.0304980157,35735.67771223,1.33945200436319,103.706685012654,103.706685012654,Jurong Point
543,UOB JURONG POINT BRANCH,1,JURONG WEST CENTRAL 2,UOB JURONG POINT BRANCH,1 JURONG WEST CENTRAL 2 UOB JURONG POINT BRANCH SINGAPORE 648886,648886,13907.0304980157,35735.67771223,1.33945200436319,103.706685012654,103.706685012654,Jurong Point
544,UOB JURONG POINT SHOPPING CENTRE,1,JURONG WEST CENTRAL 2,UOB JURONG POINT SHOPPING CENTRE,1 JURONG WEST CENTRAL 2 UOB JURONG POINT SHOPPING CENTRE SINGAPORE 648886,648886,13907.0304980157,35735.67771223,1.33945200436319,103.706685012654,103.706685012654,Jurong Point
545,NEW HORIZON CENTRE (JURONG POINT),1,JURONG WEST CENTRAL 2,NEW HORIZON CENTRE (JURONG POINT),1 JURONG WEST CENTRAL 2 NEW HORIZON CENTRE (JURONG POINT) SINGAPORE 648886,648886,13918.6664492646,35767.396894427,1.33973886612177,103.706789553588,103.706789553588,Jurong Point
546,OCBC JURONG POINT SHOPPING CENTRE,1,JURONG WEST CENTRAL 2,OCBC JURONG POINT SHOPPING CENTRE,1 JURONG WEST CENTRAL 2 OCBC JURONG POINT SHOPPING CENTRE SINGAPORE 648886,648886,13907.0304980157,35735.67771223,1.33945200436319,103.706685012654,103.706685012654,Jurong Point
547,OCBC JURONG POINT SHOPPING CENTRE - FAIRPRICE,1,JURONG WEST CENTRAL 2,OCBC JURONG POINT SHOPPING CENTRE - FAIRPRICE,1 JURONG WEST CENTRAL 2 OCBC JURONG POINT SHOPPING CENTRE - FAIRPRICE SINGAPORE 648886,648886,13907.0304980157,35735.67771223,1.33945200436319,103.706685012654,103.706685012654,Jurong Point
548,OCBC JURONG POINT SHOPPING CENTRE - JURONG POINT BRANCH,1,JURONG WEST CENTRAL 2,OCBC JURONG POINT SHOPPING CENTRE - JURONG POINT BRANCH,1 JURONG WEST CENTRAL 2 OCBC JURONG POINT SHOPPING CENTRE - JURONG POINT BRANCH SINGAPORE 648886,648886,13907.0304980157,35735.67771223,1.33945200436319,103.706685012654,103.706685012654,Jurong Point
549,JURONG POINT,1,JURONG WEST CENTRAL 2,JURONG POINT,1 JURONG WEST CENTRAL 2 JURONG POINT SINGAPORE 648886,648886,13907.0305282837,35735.7564695235,1.33945271661445,103.70668501289,103.70668501289,Jurong Point
550,DBS PIONEER MALL,638,JURONG WEST STREET 61,DBS PIONEER MALL,638 JURONG WEST STREET 61 DBS PIONEER MALL SINGAPORE 640638,640638,12856.4183104672,35981.3563073762,1.34167331883255,103.697244542805,103.697244542805,Pioneer Mall
551,UOB PIONEER MALL,638,JURONG WEST STREET 61,UOB PIONEER MALL,638 JURONG WEST STREET 61 UOB PIONEER MALL SINGAPORE 640638,640638,12854.101508189,35987.5343963355,1.34172918995172,103.697223721918,103.697223721918,Pioneer Mall
552,OCBC PIONEER MALL,638,JURONG WEST STREET 61,OCBC PIONEER MALL,638 JURONG WEST STREET 61 OCBC PIONEER MALL SINGAPORE 640638,640638,12861.0519150216,35989.0789110083,1.34174316145003,103.697286174545,103.697286174545,Pioneer Mall
553,PIONEER MALL,638,JURONG WEST STREET 61,PIONEER MALL,638 JURONG WEST STREET 61 PIONEER MALL SINGAPORE 640638,640638,12848.6614737436,35983.4657739643,1.34169239214292,103.697174842118,103.697174842118,Pioneer Mall
554,OCBC THE STAR VISTA,1,VISTA EXCHANGE GREEN,OCBC THE STAR VISTA,1 VISTA EXCHANGE GREEN OCBC THE STAR VISTA SINGAPORE 138617,138617,23007.9595041601,32126.5265119188,1.30681500712523,103.788462732266,103.788462732266,The Star Vista
555,DBS THE STAR VISTA,1,VISTA EXCHANGE GREEN,DBS THE STAR VISTA,1 VISTA EXCHANGE GREEN DBS THE STAR VISTA SINGAPORE 138617,138617,23007.9595041601,32126.5265119188,1.30681500712523,103.788462732266,103.788462732266,The Star Vista
556,THE STAR VISTA,1,VISTA EXCHANGE GREEN,THE STAR VISTA,1 VISTA EXCHANGE GREEN THE STAR VISTA SINGAPORE 138617,138617,23003.2346113659,32143.7136113811,1.30697044038323,103.788420274115,103.788420274115,The Star Vista
557,ALEXANDRA CENTRAL,321,ALEXANDRA ROAD,ALEXANDRA CENTRAL,321 ALEXANDRA ROAD ALEXANDRA CENTRAL SINGAPORE 159971,159971,24879.9167967616,29966.773572335,1.28728320930592,103.805283367958,103.805283367958,Alexandra Central
558,ALEXANDRA CENTRAL,323,ALEXANDRA ROAD,ALEXANDRA CENTRAL,323 ALEXANDRA ROAD ALEXANDRA CENTRAL SINGAPORE 159972,159972,24894.5278183976,29985.8934036288,1.28745612377699,103.805414652014,103.805414652014,Alexandra Central
559,ANCHORPOINT SHOPPING CENTRE,368,ALEXANDRA ROAD,ANCHORPOINT SHOPPING CENTRE,368 ALEXANDRA ROAD ANCHORPOINT SHOPPING CENTRE SINGAPORE 159952,159952,24916.023050786,30149.3953310214,1.28893477974497,103.805607779399,103.805607779399,Anchorpoint
560,ANCHORPOINT SHOPPING CENTRE,370,ALEXANDRA ROAD,ANCHORPOINT SHOPPING CENTRE,370 ALEXANDRA ROAD ANCHORPOINT SHOPPING CENTRE SINGAPORE 159953,159953,24849.4909352409,30114.0022209603,1.28861469030586,103.805009964592,103.805009964592,Anchorpoint
561,BOON LAY SHOPPING CENTRE,221,BOON LAY PLACE,BOON LAY SHOPPING CENTRE,221 BOON LAY PLACE BOON LAY SHOPPING CENTRE SINGAPORE 640221,640221,14546.4666856667,36496.7915879078,1.34633552457315,103.712430373455,103.712430373455,Boon Lay Shopping Centre
562,OCBC BOON LAY SHOPPING CENTRE,221,BOON LAY PLACE,OCBC BOON LAY SHOPPING CENTRE,221 BOON LAY PLACE OCBC BOON LAY SHOPPING CENTRE SINGAPORE 640221,640221,14551.1907006893,36501.019692285,1.34637376407877,103.712472819666,103.712472819666,Boon Lay Shopping Centre
563,OCBC BOON LAY SHOPPING CENTRE FAIRPRICE,221,BOON LAY PLACE,OCBC BOON LAY SHOPPING CENTRE FAIRPRICE,221 BOON LAY PLACE OCBC BOON LAY SHOPPING CENTRE FAIRPRICE SINGAPORE 640221,640221,14551.1907006893,36501.019692285,1.34637376407877,103.712472819666,103.712472819666,Boon Lay Shopping Centre
564,GRANTRAL MALL @ CLEMENTI,3151,COMMONWEALTH AVENUE WEST,GRANTRAL MALL @ CLEMENTI,3151 COMMONWEALTH AVENUE WEST GRANTRAL MALL @ CLEMENTI SINGAPORE 129581,129581,20413.2100247061,32950.9688186739,1.31427043922294,103.765147487482,103.765147487482,Grantral Mall
565,GRANTRAL MALL @ MACPHERSON,601,MACPHERSON ROAD,GRANTRAL MALL @ MACPHERSON,601 MACPHERSON ROAD GRANTRAL MALL @ MACPHERSON SINGAPORE 368242,368242,34033.2568143988,35101.7975156717,1.33372210930312,103.887530827719,103.887530827719,Grantral Mall
566,OCBC OUR TAMPINES HUB - FAIRPRICE,1,TAMPINES WALK,OCBC OUR TAMPINES HUB - FAIRPRICE,1 TAMPINES WALK OCBC OUR TAMPINES HUB - FAIRPRICE SINGAPORE 528523,528523,39887.9499545647,37288.4814240374,1.35349593581988,103.940139392679,103.940139392679,Fairprice Hub
567,FAIRPRICE HUB,1,JOO KOON CIRCLE,FAIRPRICE HUB,1 JOO KOON CIRCLE FAIRPRICE HUB SINGAPORE 629117,629117,10760.1903017079,34206.1238678284,1.32561767765205,103.678409741897,103.678409741897,Fairprice Hub
568,FAIRPRICE HUB,5,JOO KOON CIRCLE,FAIRPRICE HUB,5 JOO KOON CIRCLE FAIRPRICE HUB SINGAPORE 629118,629118,10760.1903017079,34206.1238980964,1.32561767792578,103.678409741897,103.678409741897,Fairprice Hub
569,FAIRPRICE HUB,55,BENOI ROAD,FAIRPRICE HUB,55 BENOI ROAD FAIRPRICE HUB SINGAPORE 629907,629907,10760.1903017079,34206.1238980964,1.32561767792578,103.678409741897,103.678409741897,Fairprice Hub
570,DBS GEK POH SHOPPING CENTRE,762,JURONG WEST STREET 75,DBS GEK POH SHOPPING CENTRE,762 JURONG WEST STREET 75 DBS GEK POH SHOPPING CENTRE SINGAPORE 640762,640762,12911.5597059671,36762.9350024723,1.3487416466288,103.697739629738,103.697739629738,Gek Poh Shopping Centre
571,GEK POH SHOPPING CENTRE,762,JURONG WEST STREET 75,GEK POH SHOPPING CENTRE,762 JURONG WEST STREET 75 GEK POH SHOPPING CENTRE SINGAPORE 640762,640762,12910.7207379946,36763.1478772014,1.34874357136408,103.697732091001,103.697732091001,Gek Poh Shopping Centre
572,UOB GEK POH SHOPPING CENTRE,762,JURONG WEST STREET 75,UOB GEK POH SHOPPING CENTRE,762 JURONG WEST STREET 75 UOB GEK POH SHOPPING CENTRE SINGAPORE 640762,640762,12911.5597059671,36762.9350024723,1.3487416466288,103.697739629738,103.697739629738,Gek Poh Shopping Centre
573,GEK POH SHOPPING CENTRE,763,JURONG WEST STREET 75,GEK POH SHOPPING CENTRE,763 JURONG WEST STREET 75 GEK POH SHOPPING CENTRE SINGAPORE 640763,640763,12973.7793905325,36763.178417597,1.34874387926183,103.698298710842,103.698298710842,Gek Poh Shopping Centre
574,ROCHESTER MALL,35,ROCHESTER DRIVE,ROCHESTER MALL,35 ROCHESTER DRIVE ROCHESTER MALL SINGAPORE 138639,138639,23006.1702728383,31970.9088191949,1.30540765569962,103.788446680148,103.788446680148,Rochester Mall
575,OCBC TAMAN JURONG SHOPPING CENTRE - FAIRPRICE,399,YUNG SHENG ROAD,OCBC TAMAN JURONG SHOPPING CENTRE - FAIRPRICE,399 YUNG SHENG ROAD OCBC TAMAN JURONG SHOPPING CENTRE - FAIRPRICE SINGAPORE 610399,610399,15440.244104865,35226.1689937133,1.33484487471259,103.720462024278,103.720462024278,Taman Jurong Shopping Centre
576,TAMAN JURONG SHOPPING CENTRE,399,YUNG SHENG ROAD,TAMAN JURONG SHOPPING CENTRE,399 YUNG SHENG ROAD TAMAN JURONG SHOPPING CENTRE SINGAPORE 610399,610399,15440.244104865,35226.1689331774,1.33484487416514,103.720462024278,103.720462024278,Taman Jurong Shopping Centre
577,UOB TAMAN JURONG SHOPPING CENTRE,399,YUNG SHENG ROAD,UOB TAMAN JURONG SHOPPING CENTRE,399 YUNG SHENG ROAD UOB TAMAN JURONG SHOPPING CENTRE SINGAPORE 610399,610399,15440.244104865,35226.1689937133,1.33484487471259,103.720462024278,103.720462024278,Taman Jurong Shopping Centre
578,OCBC TAMAN JURONG SHOPPING CENTRE,399,YUNG SHENG ROAD,OCBC TAMAN JURONG SHOPPING CENTRE,399 YUNG SHENG ROAD OCBC TAMAN JURONG SHOPPING CENTRE SINGAPORE 610399,610399,15440.244104865,35226.1689937133,1.33484487471259,103.720462024278,103.720462024278,Taman Jurong Shopping Centre
579,DBS NTUC TAMAN JURONG SHOPPING CENTRE,399,YUNG SHENG ROAD,DBS NTUC TAMAN JURONG SHOPPING CENTRE,399 YUNG SHENG ROAD DBS NTUC TAMAN JURONG SHOPPING CENTRE SINGAPORE 610399,610399,15440.244104865,35226.1689937133,1.33484487471259,103.720462024278,103.720462024278,Taman Jurong Shopping Centre
580,DBS TAMAN JURONG SHOPPING CENTRE,399,YUNG SHENG ROAD,DBS TAMAN JURONG SHOPPING CENTRE,399 YUNG SHENG ROAD DBS TAMAN JURONG SHOPPING CENTRE SINGAPORE 610399,610399,15440.1095031416,35217.2511679381,1.33476422515942,103.720460818484,103.720460818484,Taman Jurong Shopping Centre
581,DBS WEST COAST PLAZA,154,WEST COAST ROAD,DBS WEST COAST PLAZA,154 WEST COAST ROAD DBS WEST COAST PLAZA SINGAPORE 127371,127371,20519.60171506,31769.559714159,1.30358622534992,103.76610375397,103.76610375397,West Coast Plaza
582,UOB WEST COAST PLAZA,154,WEST COAST ROAD,UOB WEST COAST PLAZA,154 WEST COAST ROAD UOB WEST COAST PLAZA SINGAPORE 127371,127371,20428.4278891478,31769.1702862792,1.30358268135917,103.765284515616,103.765284515616,West Coast Plaza
583,OCBC WEST COAST PLAZA,154,WEST COAST ROAD,OCBC WEST COAST PLAZA,154 WEST COAST ROAD OCBC WEST COAST PLAZA SINGAPORE 127371,127371,20537.7046026373,31795.2002982572,1.30381811396596,103.766266410545,103.766266410545,West Coast Plaza
584,MINDCHAMPS PRESCHOOL @ WEST COAST PLAZA PTE. LIMITED,154,WEST COAST ROAD,MINDCHAMPS PRESCHOOL @ WEST COAST PLAZA PTE. LIMITED,154 WEST COAST ROAD MINDCHAMPS PRESCHOOL @ WEST COAST PLAZA PTE. LIMITED SINGAPORE 127371,127371,20492.2946968498,31773.8009851091,1.30362457527941,103.765858386923,103.765858386923,West Coast Plaza
585,WEST COAST PLAZA,154,WEST COAST ROAD,WEST COAST PLAZA,154 WEST COAST ROAD WEST COAST PLAZA SINGAPORE 127371,127371,20522.6670748433,31781.8626809642,1.30369748971099,103.766131294678,103.766131294678,West Coast Plaza
586,OCBC QUEENSWAY SHOPPING CENTRE,1,QUEENSWAY,OCBC QUEENSWAY SHOPPING CENTRE,1 QUEENSWAY OCBC QUEENSWAY SHOPPING CENTRE SINGAPORE 149053,149053,24669.3282080879,30003.7871999741,1.28761792586115,103.803391140455,103.803391140455,Queensway Shopping Centre
587,QUEENSWAY SHOPPING CENTRE,1,QUEENSWAY,QUEENSWAY SHOPPING CENTRE,1 QUEENSWAY QUEENSWAY SHOPPING CENTRE SINGAPORE 149053,149053,24669.3282080879,30003.7871697061,1.2876179255874,103.803391140455,103.803391140455,Queensway Shopping Centre
588,DBS QUEENSWAY SHOPPING CENTRE,1,QUEENSWAY,DBS QUEENSWAY SHOPPING CENTRE,1 QUEENSWAY DBS QUEENSWAY SHOPPING CENTRE SINGAPORE 149053,149053,24669.3282080879,30003.7871999741,1.28761792586115,103.803391140455,103.803391140455,Queensway Shopping Centre
589,QUEENSWAY SHOPPING CENTRE/QUEENSWAY TOWER,1,QUEENSWAY,QUEENSWAY SHOPPING CENTRE/QUEENSWAY TOWER,1 QUEENSWAY QUEENSWAY SHOPPING CENTRE/QUEENSWAY TOWER SINGAPORE 149053,149053,24670.0123250559,30001.2731109783,1.28759518939869,103.803397287789,103.803397287789,Queensway Shopping Centre
590,THE RAIL MALL,380,UPPER BUKIT TIMAH ROAD,THE RAIL MALL,380 UPPER BUKIT TIMAH ROAD THE RAIL MALL SINGAPORE 678040,678040,20746.1224623229,37756.5542111527,1.35773050150178,103.768137724847,103.768137724847,The Rail Mall
591,THE RAIL MALL,382,UPPER BUKIT TIMAH ROAD,THE RAIL MALL,382 UPPER BUKIT TIMAH ROAD THE RAIL MALL SINGAPORE 678041,678041,20742.5854970859,37761.2089427598,1.35777259634625,103.768105941777,103.768105941777,The Rail Mall
592,THE RAIL MALL,384,UPPER BUKIT TIMAH ROAD,THE RAIL MALL,384 UPPER BUKIT TIMAH ROAD THE RAIL MALL SINGAPORE 678042,678042,20739.7690309333,37765.4593546428,1.3578110348449,103.768080632959,103.768080632959,The Rail Mall
593,THE RAIL MALL,386,UPPER BUKIT TIMAH ROAD,THE RAIL MALL,386 UPPER BUKIT TIMAH ROAD THE RAIL MALL SINGAPORE 678043,678043,20736.2947204215,37770.1093341764,1.35785308672775,103.768049412881,103.768049412881,The Rail Mall
594,THE RAIL MALL,388,UPPER BUKIT TIMAH ROAD,THE RAIL MALL,388 UPPER BUKIT TIMAH ROAD THE RAIL MALL SINGAPORE 678044,678044,20733.2959199352,37774.3563257754,1.35789149424937,103.768022465669,103.768022465669,The Rail Mall
595,THE RAIL MALL,390,UPPER BUKIT TIMAH ROAD,THE RAIL MALL,390 UPPER BUKIT TIMAH ROAD THE RAIL MALL SINGAPORE 678045,678045,20729.8811162803,37779.0305802338,1.35793376567949,103.767991780291,103.767991780291,The Rail Mall
596,THE RAIL MALL,392,UPPER BUKIT TIMAH ROAD,THE RAIL MALL,392 UPPER BUKIT TIMAH ROAD THE RAIL MALL SINGAPORE 678046,678046,20727.004901127,37783.0116978642,1.35796976876243,103.767965934651,103.767965934651,The Rail Mall
597,THE RAIL MALL,394,UPPER BUKIT TIMAH ROAD,THE RAIL MALL,394 UPPER BUKIT TIMAH ROAD THE RAIL MALL SINGAPORE 678047,678047,20723.5974525921,37787.5313131921,1.35801064169323,103.7679353154,103.7679353154,The Rail Mall
598,THE RAIL MALL,396,UPPER BUKIT TIMAH ROAD,THE RAIL MALL,396 UPPER BUKIT TIMAH ROAD THE RAIL MALL SINGAPORE 678048,678048,20720.8248750158,37791.7596597131,1.35804888064938,103.767910400949,103.767910400949,The Rail Mall
599,THE RAIL MALL,398,UPPER BUKIT TIMAH ROAD,THE RAIL MALL,398 UPPER BUKIT TIMAH ROAD THE RAIL MALL SINGAPORE 678049,678049,20717.3627625024,37796.4555557799,1.35809134778511,103.767879290462,103.767879290462,The Rail Mall
