,SEARCHVAL,BLK_NO,ROAD_NAME,BUILDING,ADDRESS,POSTAL,X,Y,LATITUDE,LONGITUDE,LONGTITUDE,address
0,ADMIRALTY INDUSTRIAL PARK,19,WOODLANDS INDUSTRIAL PARK E1,ADMIRALTY INDUSTRIAL PARK,19 WOODLANDS INDUSTRIAL PARK E1 ADMIRALTY INDUSTRIAL PARK SINGAPORE 757719,757719,23833.2189254025,48400.4449309818,1.45399059016631,103.795875774662,103.795875774662,Admiralty Park
1,MARSILING ADMIRALTY PARK,201,MARSILING DRIVE,MARSILING ADMIRALTY PARK,201 MARSILING DRIVE MARSILING ADMIRALTY PARK SINGAPORE 730201,730201,21558.6278935345,47152.0607692488,1.44270022874362,103.775436532502,103.775436532502,Admiralty Park
2,MARSILING ADMIRALTY PARK,202,MARSILING DRIVE,MARSILING ADMIRALTY PARK,202 MARSILING DRIVE MARSILING ADMIRALTY PARK SINGAPORE 730202,730202,21528.386999662,47201.9289674293,1.44315121142693,103.775164777049,103.775164777049,Admiralty Park
3,MARSILING ADMIRALTY PARK,203,MARSILING DRIVE,MARSILING ADMIRALTY PARK,203 MARSILING DRIVE MARSILING ADMIRALTY PARK SINGAPORE 730203,730203,21445.1278882762,47271.7312056664,1.44378245782924,103.774416596146,103.774416596146,Admiralty Park
4,MARSILING ADMIRALTY PARK,204,MARSILING DRIVE,MARSILING ADMIRALTY PARK,204 MARSILING DRIVE MARSILING ADMIRALTY PARK SINGAPORE 730204,730204,21401.7937002759,47319.6576824244,1.44421587707158,103.77402718469,103.77402718469,Admiralty Park
5,MARSILING ADMIRALTY PARK,205,MARSILING DRIVE,MARSILING ADMIRALTY PARK,205 MARSILING DRIVE MARSILING ADMIRALTY PARK SINGAPORE 730205,730205,21341.361915241,47400.408788681,1.4449461460443,103.773484126567,103.773484126567,Admiralty Park
6,MARSILING ADMIRALTY PARK,206,MARSILING DRIVE,MARSILING ADMIRALTY PARK,206 MARSILING DRIVE MARSILING ADMIRALTY PARK SINGAPORE 730206,730206,21328.6428847313,47451.4007765614,1.44540729578602,103.77336982144,103.77336982144,Admiralty Park
7,ADMIRALTY INDUSTRIAL PARK,21,WOODLANDS INDUSTRIAL PARK E1,ADMIRALTY INDUSTRIAL PARK,21 WOODLANDS INDUSTRIAL PARK E1 ADMIRALTY INDUSTRIAL PARK SINGAPORE 757720,757720,23879.3503896538,48428.3658141699,1.45424310330805,103.79629030903,103.79629030903,Admiralty Park
8,ADMIRALTY INDUSTRIAL PARK,23,WOODLANDS INDUSTRIAL PARK E1,ADMIRALTY INDUSTRIAL PARK,23 WOODLANDS INDUSTRIAL PARK E1 ADMIRALTY INDUSTRIAL PARK SINGAPORE 757741,757741,23950.5990742976,48466.3829768095,1.45458692710995,103.796930546048,103.796930546048,Admiralty Park
9,ADMIRALTY INDUSTRIAL PARK,25,WOODLANDS INDUSTRIAL PARK E1,ADMIRALTY INDUSTRIAL PARK,25 WOODLANDS INDUSTRIAL PARK E1 ADMIRALTY INDUSTRIAL PARK SINGAPORE 757743,757743,23989.3193924678,48489.5791185442,1.45479671015688,103.797278484555,103.797278484555,Admiralty Park
10,ANG MO KIO TOWN GARDEN EAST,,NIL,ANG MO KIO TOWN GARDEN EAST,ANG MO KIO TOWN GARDEN EAST,NIL,29909.5281282132,39189.7002596296,1.37069218596975,103.850477038504,103.850477038504,Ang Mo Kio Town Garden East
11,ANG MO KIO TOWN GARDEN WEST,,NIL,ANG MO KIO TOWN GARDEN WEST,ANG MO KIO TOWN GARDEN WEST,NIL,29071.7194798496,39573.9878475331,1.37416758787361,103.842948749695,103.842948749695,Ang Mo Kio Town Garden West
12,BEDOK TOWN PARK,,NIL,BEDOK TOWN PARK,BEDOK TOWN PARK,NIL,37908.1250441866,35176.7942847386,1.33439933330273,103.922348727352,103.922348727352,Bedok Town Park
13,BISHAN - ANG MO KIO PARK (POND GARDENS),,NIL,BISHAN - ANG MO KIO PARK (POND GARDENS),BISHAN - ANG MO KIO PARK (POND GARDENS),NIL,28331.5993566066,38579.1553769931,1.36517069591469,103.83629822663,103.83629822663,Bishan-Ang Mo Kio Park
14,BISHAN - ANG MO KIO PARK (RIVER PLAINS),,NIL,BISHAN - ANG MO KIO PARK (RIVER PLAINS),BISHAN - ANG MO KIO PARK (RIVER PLAINS),NIL,29601.0924101854,38130.6701825932,1.36111471450206,103.847705468769,103.847705468769,Bishan-Ang Mo Kio Park
15,SHELL BUKIT BATOK NATURE PARK,28,BUKIT BATOK EAST AVENUE 6,SHELL BUKIT BATOK NATURE PARK,28 BUKIT BATOK EAST AVENUE 6 SHELL BUKIT BATOK NATURE PARK SINGAPORE 659760,659760,20384.4935475662,36639.3392928522,1.34762672421062,103.764888536147,103.764888536147,Bukit Batok Nature Park
16,BUKIT BATOK NATURE PARK,,NIL,BUKIT BATOK NATURE PARK,BUKIT BATOK NATURE PARK,NIL,20307.5543609113,36917.2587388922,1.35014010737608,103.764197119297,103.764197119297,Bukit Batok Nature Park
17,BUKIT BATOK TOWN PARK,,NIL,BUKIT BATOK TOWN PARK,BUKIT BATOK TOWN PARK,NIL,19364.938369533,37739.7907423899,1.35757852997096,103.755726890477,103.755726890477,Bukit Batok Town Park
18,BUKIT TIMAH NATURE RESERVE,,NIL,BUKIT TIMAH NATURE RESERVE,BUKIT TIMAH NATURE RESERVE,NIL,21851.8463827493,37391.6343190614,1.35443054655389,103.778073451976,103.778073451976,Bukit Timah Nature Reserve
19,CENTRAL CATCHMENT NATURE RESERVE,,NIL,CENTRAL CATCHMENT NATURE RESERVE,CENTRAL CATCHMENT NATURE RESERVE,NIL,24481.8368453775,40555.0545904189,1.38303981189267,103.801705234973,103.801705234973,Central Catchment Nature Reserve
20,CHANGI BEACH PARK,,NIL,CHANGI BEACH PARK,CHANGI BEACH PARK,NIL,46770.0926169362,40521.3374488857,1.38272907017716,104.001981729276,104.001981729276,Changi Beach Park
21,PULAU UBIN AND CHEK JAWA,,NIL,PULAU UBIN AND CHEK JAWA,PULAU UBIN AND CHEK JAWA,NIL,43869.3005273184,43814.0729286,1.41250901343404,103.97591782415,103.97591782415,Chek Jawa
22,CHEK JAWA (EASTERN TIP),,PULAU UBIN,CHEK JAWA (EASTERN TIP),PULAU UBIN CHEK JAWA (EASTERN TIP),NIL,45646.7644134285,43347.417560894,1.4082877253455,103.99188953363,103.99188953363,Chek Jawa
23,CHEK JAWA WETLAND,,NIL,CHEK JAWA WETLAND,CHEK JAWA WETLAND,NIL,45605.3952229312,43356.8863547761,1.40837338279458,103.991517803538,103.991517803538,Chek Jawa
24,TANJONG CHEK JAWA,,NIL,TANJONG CHEK JAWA,TANJONG CHEK JAWA,NIL,45741.1781848548,43292.9239002448,1.40779484799291,103.99273788475,103.99273788475,Chek Jawa
25,UOB CHINESE GARDEN MRT STATION,151,BOON LAY WAY,UOB CHINESE GARDEN MRT STATION,151 BOON LAY WAY UOB CHINESE GARDEN MRT STATION SINGAPORE 609959,609959,16809.6501079546,36044.3730992917,1.34224494823931,103.732766601621,103.732766601621,Chinese Garden
26,CHINESE GARDEN MRT STATION (EW25),151,BOON LAY WAY,CHINESE GARDEN MRT STATION (EW25),151 BOON LAY WAY CHINESE GARDEN MRT STATION (EW25) SINGAPORE 609959,609959,16790.7466322081,36056.3018932827,1.34235282081401,103.732596738363,103.732596738363,Chinese Garden
27,DBS CHINESE GARDEN MRT STATION,151,BOON LAY WAY,DBS CHINESE GARDEN MRT STATION,151 BOON LAY WAY DBS CHINESE GARDEN MRT STATION SINGAPORE 609959,609959,16809.6501079546,36044.3730992917,1.34224494823931,103.732766601621,103.732766601621,Chinese Garden
28,OCBC CHINESE GARDEN MRT STATION,151,BOON LAY WAY,OCBC CHINESE GARDEN MRT STATION,151 BOON LAY WAY OCBC CHINESE GARDEN MRT STATION SINGAPORE 609959,609959,16809.6501079546,36044.3730992917,1.34224494823931,103.732766601621,103.732766601621,Chinese Garden
29,CHINESE GARDEN MRT STATION EXIT A,,NIL,CHINESE GARDEN MRT STATION EXIT A,CHINESE GARDEN MRT STATION EXIT A,NIL,16749.3360653771,36066.0366216693,1.34244084264959,103.732224636444,103.732224636444,Chinese Garden
30,CHINESE GARDEN MRT STATION EXIT B,,NIL,CHINESE GARDEN MRT STATION EXIT B,CHINESE GARDEN MRT STATION EXIT B,NIL,16770.4981380692,36043.1947364174,1.34223427697715,103.732414798591,103.732414798591,Chinese Garden
31,GARDENS BY THE BAY (CHINESE GARDEN),,NIL,GARDENS BY THE BAY (CHINESE GARDEN),GARDENS BY THE BAY (CHINESE GARDEN),NIL,31361.2234564917,29501.2383924369,1.28307304852982,103.863520483863,103.863520483863,Chinese Garden
32,CHINESE GARDEN MRT STATION EXIT C,,NIL,CHINESE GARDEN MRT STATION EXIT C,CHINESE GARDEN MRT STATION EXIT C,NIL,16798.7646513628,36028.5093766134,1.34210147853728,103.73266879526,103.73266879526,Chinese Garden
33,JLG: CHINESE & JAPANESE GARDEN,,NIL,JLG: CHINESE & JAPANESE GARDEN,JLG: CHINESE & JAPANESE GARDEN,NIL,16397.156330849,35675.032749787,1.33890461457493,103.729060244019,103.729060244019,Chinese Garden
34,CHOA CHU KANG NORTH PARK CONNECTOR,,NIL,CHOA CHU KANG NORTH PARK CONNECTOR,CHOA CHU KANG NORTH PARK CONNECTOR,NIL,18593.6556923138,41571.5855125897,1.39223164013969,103.748795195997,103.748795195997,Choa Chu Kang Park
35,CHOA CHU KANG PARK,,NIL,CHOA CHU KANG PARK,CHOA CHU KANG PARK,NIL,18437.0168486219,41001.0691606477,1.3870720495009,103.747387860656,103.747387860656,Choa Chu Kang Park
36,CHOA CHU KANG PARK CONNECTOR,,NIL,CHOA CHU KANG PARK CONNECTOR,CHOA CHU KANG PARK CONNECTOR,NIL,18027.3322128169,39395.9738142751,1.37255602209737,103.743707077091,103.743707077091,Choa Chu Kang Park
37,CLEMENTI WOODS PARK,,NIL,CLEMENTI WOODS PARK,CLEMENTI WOODS PARK,NIL,20681.2177351909,31354.0335996393,1.29982839456282,103.767556045102,103.767556045102,Clementi Woods Park
38,CONEY ISLAND PARK,,NIL,CONEY ISLAND PARK,CONEY ISLAND PARK,NIL,37937.6983171413,43407.0729418788,1.40883093233134,103.922617218378,103.922617218378,Coney Island Park
39,DAIRY FARM NATURE PARK,,NIL,DAIRY FARM NATURE PARK,DAIRY FARM NATURE PARK,NIL,21408.1850574492,38304.7118153982,1.36268799490851,103.774086668962,103.774086668962,Dairy Farm Nature Park
40,DHOBY GHAUT GREEN,,NIL,DHOBY GHAUT GREEN,DHOBY GHAUT GREEN,NIL,29467.4340185747,31172.0940510388,1.29818382483564,103.846504124905,103.846504124905,Dhoby Ghaut Green
41,EAST COAST PARK SERVICE ROAD,,EAST COAST PARK SERVICE ROAD,NIL,EAST COAST PARK SERVICE ROAD,NIL,38678.7532973299,32165.2906883974,1.30716413576698,103.929272210552,103.929272210552,East Coast Park
42,EAST COAST PARKWAY,,EAST COAST PARKWAY,NIL,EAST COAST PARKWAY,NIL,38018.8253418518,31951.3504465802,1.30523695553939,103.923368728406,103.923368728406,East Coast Park
43,EAST COAST PARK,1,THIRD STREET,EAST COAST PARK,1 THIRD STREET EAST COAST PARK SINGAPORE 455485,455485,38110.9004674191,33022.2175335847,1.31491406100062,103.924170068973,103.924170068973,East Coast Park
44,EAST COAST PARK,1,SECOND STREET,EAST COAST PARK,1 SECOND STREET EAST COAST PARK SINGAPORE 456323,456323,37984.583393652,32957.032313047,1.31432459090656,103.923035026887,103.923035026887,East Coast Park
45,EAST COAST PARK,1,FOURTH STREET,EAST COAST PARK,1 FOURTH STREET EAST COAST PARK SINGAPORE 458255,458255,38120.0816549202,32938.9515816346,1.31416103105833,103.924252539221,103.924252539221,East Coast Park
46,EAST COAST PARK,2,FOURTH STREET,EAST COAST PARK,2 FOURTH STREET EAST COAST PARK SINGAPORE 458256,458256,38127.3762995321,32900.8050536308,1.31381604536031,103.924318072689,103.924318072689,East Coast Park
47,EAST COAST PARK,3,SECOND STREET,EAST COAST PARK,3 SECOND STREET EAST COAST PARK SINGAPORE 456324,456324,37990.3297400922,32959.1081519071,1.31434336217052,103.923086661296,103.923086661296,East Coast Park
48,EAST COAST PARK,3,FOURTH STREET,EAST COAST PARK,3 FOURTH STREET EAST COAST PARK SINGAPORE 458257,458257,38126.8778161081,32940.2416636366,1.31417269585219,103.924313606475,103.924313606475,East Coast Park
49,EAST COAST PARK,3,THIRD STREET,EAST COAST PARK,3 THIRD STREET EAST COAST PARK SINGAPORE 455486,455486,38111.6226615105,33014.307056576,1.31484252129223,103.924176555656,103.924176555656,East Coast Park
50,EAST COAST PARK,4,FOURTH STREET,EAST COAST PARK,4 FOURTH STREET EAST COAST PARK SINGAPORE 458258,458258,38134.3204106241,32901.5965916738,1.31382320145455,103.924380469174,103.924380469174,East Coast Park
51,ESPLANADE PARK MEMORIALS (LIM BO SENG MEMORIAL),,CONNAUGHT DRIVE,ESPLANADE PARK MEMORIALS (LIM BO SENG MEMORIAL),CONNAUGHT DRIVE ESPLANADE PARK MEMORIALS (LIM BO SENG MEMORIAL),NIL,30184.9817324243,30096.3634929135,1.28845525428668,103.852951534534,103.852951534534,Esplanade Park
52,ESPLANADE PARK MEMORIALS (CENOTAPH),,CONNAUGHT DRIVE,ESPLANADE PARK MEMORIALS (CENOTAPH),CONNAUGHT DRIVE ESPLANADE PARK MEMORIALS (CENOTAPH),NIL,30275.9324227618,30292.9492950831,1.29023310066021,103.853768777857,103.853768777857,Esplanade Park
53,ESPLANADE PARK MEMORIAL (TAN KIM SENG FOUNTAIN),,CONNAUGHT DRIVE,ESPLANADE PARK MEMORIAL (TAN KIM SENG FOUNTAIN),CONNAUGHT DRIVE ESPLANADE PARK MEMORIAL (TAN KIM SENG FOUNTAIN),NIL,30322.7306906944,30387.2073074654,1.2910855335203,103.854189286667,103.854189286667,Esplanade Park
54,ESPLANADE PARK,,NIL,ESPLANADE PARK,ESPLANADE PARK,NIL,30264.1231570384,30210.5409561824,1.28948782949149,103.853662660788,103.853662660788,Esplanade Park
55,THE LEGENDS FORT CANNING PARK,11,CANNING WALK,THE LEGENDS FORT CANNING PARK,11 CANNING WALK THE LEGENDS FORT CANNING PARK SINGAPORE 178881,178881,29371.42297538,30967.4748838451,1.29633332548442,103.845641414159,103.845641414159,Fort Canning Park
56,THE FOOTHILLS FORT CANNING PARK,,NIL,THE FOOTHILLS FORT CANNING PARK,THE FOOTHILLS FORT CANNING PARK,NIL,29385.5689899819,30500.3949168641,1.29210921794382,103.845768501708,103.845768501708,Fort Canning Park
57,FORT CANNING PARK,,NIL,FORT CANNING PARK,FORT CANNING PARK,NIL,29598.505345081,30545.4076159019,1.292516286813,103.847681827019,103.847681827019,Fort Canning Park
58,FORT CANNING PARK,,COX TERRACE,FORT CANNING PARK,COX TERRACE FORT CANNING PARK,NIL,29453.8221733496,30811.3785332255,1.29492164128841,103.846381799736,103.846381799736,Fort Canning Park
59,GARDENS BY THE BAY (SUN PAVILION),18,MARINA GARDENS DRIVE,GARDENS BY THE BAY (SUN PAVILION),18 MARINA GARDENS DRIVE GARDENS BY THE BAY (SUN PAVILION) SINGAPORE 018953,018953,31708.7539984528,29494.1621918641,1.28300901486791,103.866643180247,103.866643180247,Gardens by the Bay
60,DBS GARDENS BY THE BAY,18,MARINA GARDENS DRIVE,DBS GARDENS BY THE BAY,18 MARINA GARDENS DRIVE DBS GARDENS BY THE BAY SINGAPORE 018953,018953,31516.5079895202,29606.1152004749,1.28402150049556,103.864915787491,103.864915787491,Gardens by the Bay
61,OCBC GARDENS BY THE BAY - THE CANOPY,18,MARINA GARDENS DRIVE,OCBC GARDENS BY THE BAY - THE CANOPY,18 MARINA GARDENS DRIVE OCBC GARDENS BY THE BAY - THE CANOPY SINGAPORE 018953,018953,31516.5079895202,29606.1152004749,1.28402150049556,103.864915787491,103.864915787491,Gardens by the Bay
62,GARDENS BY THE BAY,18,MARINA GARDENS DRIVE,GARDENS BY THE BAY,18 MARINA GARDENS DRIVE GARDENS BY THE BAY SINGAPORE 018953,018953,31487.6617535334,29668.8205348384,1.28458858866312,103.864656599639,103.864656599639,Gardens by the Bay
63,GARDENS BY THE BAY (CLOUD FOREST),18,MARINA GARDENS DRIVE,GARDENS BY THE BAY (CLOUD FOREST),18 MARINA GARDENS DRIVE GARDENS BY THE BAY (CLOUD FOREST) SINGAPORE 018953,018953,31636.4701790344,29589.6979066432,1.28387301464472,103.865993692974,103.865993692974,Gardens by the Bay
64,GARDENS BY THE BAY (FLOWER DOME),18,MARINA GARDENS DRIVE,GARDENS BY THE BAY (FLOWER DOME),18 MARINA GARDENS DRIVE GARDENS BY THE BAY (FLOWER DOME) SINGAPORE 018953,018953,31496.4290263578,29672.345120471,1.28462046280109,103.864735377434,103.864735377434,Gardens by the Bay
65,GARDENS BY THE BAY (GB HEADQUARTERS),18,MARINA GARDENS DRIVE,GARDENS BY THE BAY (GB HEADQUARTERS),18 MARINA GARDENS DRIVE GARDENS BY THE BAY (GB HEADQUARTERS) SINGAPORE 018953,018953,31507.1942585185,29220.4013851788,1.28053324159214,103.864832057323,103.864832057323,Gardens by the Bay
66,GARDENS BY THE BAY (VISITOR CENTRE),18,MARINA GARDENS DRIVE,GARDENS BY THE BAY (VISITOR CENTRE),18 MARINA GARDENS DRIVE GARDENS BY THE BAY (VISITOR CENTRE) SINGAPORE 018953,018953,31595.2834439427,29386.3278991375,1.28203381265422,103.865623590955,103.865623590955,Gardens by the Bay
67,GARDENS BY THE BAY MRT STATION (TE22),11,MARINA MALL,GARDENS BY THE BAY MRT STATION (TE22),11 MARINA MALL GARDENS BY THE BAY MRT STATION (TE22) SINGAPORE 019396,019396,31799.0721787345,28994.1708776113,1.27848725876303,103.867454664421,103.867454664421,Gardens by the Bay
68,GARDENS BY THE BAY MRT STATION EXIT 1,,NIL,GARDENS BY THE BAY MRT STATION EXIT 1,GARDENS BY THE BAY MRT STATION EXIT 1,NIL,31947.1848038249,29222.8009703923,1.28055489064088,103.868785539995,103.868785539995,Gardens by the Bay
69,HINDHEDE NATURE PARK,,NIL,HINDHEDE NATURE PARK,HINDHEDE NATURE PARK,NIL,21619.2464320287,36917.5648390129,1.35014318415394,103.775983492665,103.775983492665,Hindhede Nature Park
70,HONG LIM PARK,,NIL,HONG LIM PARK,HONG LIM PARK,NIL,29475.6199947707,29895.5559426416,1.28663926271907,103.846577619728,103.846577619728,Hong Lim Park
71,ISTANA PARK,,NIL,ISTANA PARK,ISTANA PARK,NIL,29175.0195075432,31292.7933567595,1.29927539926482,103.843876655353,103.843876655353,Istana Park
72,THE JAPANESE CEMETERY PARK,43,CHUAN HOE AVENUE,THE JAPANESE CEMETERY PARK,43 CHUAN HOE AVENUE THE JAPANESE CEMETERY PARK SINGAPORE 544880,544880,32857.8526054416,38597.0250194874,1.36533190594059,103.876969717095,103.876969717095,Japanese Cemetery Park
73,THE JAPANESE CEMETERY PARK,,NIL,THE JAPANESE CEMETERY PARK,THE JAPANESE CEMETERY PARK,NIL,32833.3435293781,38607.9196472783,1.36543043705086,103.876749488043,103.876749488043,Japanese Cemetery Park
74,JLG: CHINESE & JAPANESE GARDEN,,NIL,JLG: CHINESE & JAPANESE GARDEN,JLG: CHINESE & JAPANESE GARDEN,NIL,16397.156330849,35675.032749787,1.33890461457493,103.729060244019,103.729060244019,Japanese Garden
75,JAPANESE GARDEN,,NIL,JAPANESE GARDEN,JAPANESE GARDEN,NIL,16649.2323670322,35315.7708821595,1.33565567874413,103.731325426296,103.731325426296,Japanese Garden
76,JURONG CENTRAL PARK,,NIL,JURONG CENTRAL PARK,JURONG CENTRAL PARK,NIL,14044.6886523347,35587.3663475588,1.33811079624888,103.707922017766,103.707922017766,Jurong Central Park
77,KALLANG RIVERSIDE PARK,,NIL,KALLANG RIVERSIDE PARK,KALLANG RIVERSIDE PARK,NIL,31895.9655033862,32172.3956738245,1.30722998960615,103.868325680607,103.868325680607,Kallang Riverside Park
78,KENT RIDGE PARK,,NIL,KENT RIDGE PARK,KENT RIDGE PARK,NIL,23108.1290353695,29717.4291611463,1.28502800039386,103.789363178448,103.789363178448,Kent Ridge Park
79,KETAM MOUNTAIN BIKE PARK,,NIL,KETAM MOUNTAIN BIKE PARK,KETAM MOUNTAIN BIKE PARK,NIL,40606.790444267,43848.7003494762,1.41282379462251,103.946601437734,103.946601437734,Ketam Mountain Bike Park
80,KRANJI MARSHES,,NIL,KRANJI MARSHES,KRANJI MARSHES,NIL,16419.3152493164,44543.8092568126,1.41911053100165,103.729255870894,103.729255870894,Kranji Marshes
81,KRANJI RESERVOIR PARK A,,NIL,KRANJI RESERVOIR PARK A,KRANJI RESERVOIR PARK A,NIL,17910.5379007468,46671.4915121067,1.43835306314103,103.742655060396,103.742655060396,Kranji Reservoir Park
82,KRANJI RESERVOIR PARK B,,NIL,KRANJI RESERVOIR PARK B,KRANJI RESERVOIR PARK B,NIL,17357.1344009032,46799.2807297986,1.43950853660872,103.737682154246,103.737682154246,Kranji Reservoir Park
83,LABRADOR NATURE RESERVE,,NIL,LABRADOR NATURE RESERVE,LABRADOR NATURE RESERVE,NIL,24574.5381148206,27681.0824233331,1.26661219044711,103.80253966305,103.80253966305,Labrador Nature Reserve
84,LABRADOR NATURE RESERVE,,LABRADOR VILLA ROAD,LABRADOR NATURE RESERVE,LABRADOR VILLA ROAD LABRADOR NATURE RESERVE,NIL,24549.5195680549,27613.9195230082,1.26600479004724,103.802314870313,103.802314870313,Labrador Nature Reserve
85,LABRADOR PARK MRT STATION,701,TELOK BLANGAH ROAD,LABRADOR PARK MRT STATION,701 TELOK BLANGAH ROAD LABRADOR PARK MRT STATION SINGAPORE 109029,109029,24672.1010278082,28317.5716898218,1.27236838626952,103.803416232089,103.803416232089,Labrador Park
86,LABRADOR PARK MRT STATION (CC27),701,TELOK BLANGAH ROAD,LABRADOR PARK MRT STATION (CC27),701 TELOK BLANGAH ROAD LABRADOR PARK MRT STATION (CC27) SINGAPORE 109029,109029,24584.7750495933,28304.9440988898,1.27225417749656,103.802631578766,103.802631578766,Labrador Park
87,UOB LABRADOR PARK MRT CIRCLE LINE STATION,701,TELOK BLANGAH ROAD,UOB LABRADOR PARK MRT CIRCLE LINE STATION,701 TELOK BLANGAH ROAD UOB LABRADOR PARK MRT CIRCLE LINE STATION SINGAPORE 109029,109029,24597.3428915245,28301.944390364,1.2722270505362,103.802744505566,103.802744505566,Labrador Park
88,LABRADOR PARK MRT STATION EXIT A,,NIL,LABRADOR PARK MRT STATION EXIT A,LABRADOR PARK MRT STATION EXIT A,NIL,24554.6213880507,28289.2643450163,1.27211237205243,103.8023606392,103.8023606392,Labrador Park
89,LABRADOR NATURE PARK,,NIL,LABRADOR NATURE PARK,LABRADOR NATURE PARK,NIL,24729.2494933093,27373.6450644806,1.26383185104025,103.80392982751,103.80392982751,Labrador Park
90,LOWER SELETAR RESERVOIR PARK,,NIL,LOWER SELETAR RESERVOIR PARK,LOWER SELETAR RESERVOIR PARK,NIL,27763.6409822367,43497.4193016533,1.40964971263737,103.831194690909,103.831194690909,Lower Seletar Reservoir Park
91,MACRITCHIE RESERVOIR PARK,,NIL,MACRITCHIE RESERVOIR PARK,MACRITCHIE RESERVOIR PARK,NIL,28030.2531873323,35964.3150995951,1.34152301286138,103.833590421997,103.833590421997,MacRitchie Reservoir Park
92,MARSILING ADMIRALTY PARK,201,MARSILING DRIVE,MARSILING ADMIRALTY PARK,201 MARSILING DRIVE MARSILING ADMIRALTY PARK SINGAPORE 730201,730201,21558.6278935345,47152.0607692488,1.44270022874362,103.775436532502,103.775436532502,Marsiling Park
93,MARSILING ADMIRALTY PARK,202,MARSILING DRIVE,MARSILING ADMIRALTY PARK,202 MARSILING DRIVE MARSILING ADMIRALTY PARK SINGAPORE 730202,730202,21528.386999662,47201.9289674293,1.44315121142693,103.775164777049,103.775164777049,Marsiling Park
94,MARSILING ADMIRALTY PARK,203,MARSILING DRIVE,MARSILING ADMIRALTY PARK,203 MARSILING DRIVE MARSILING ADMIRALTY PARK SINGAPORE 730203,730203,21445.1278882762,47271.7312056664,1.44378245782924,103.774416596146,103.774416596146,Marsiling Park
95,MARSILING ADMIRALTY PARK,204,MARSILING DRIVE,MARSILING ADMIRALTY PARK,204 MARSILING DRIVE MARSILING ADMIRALTY PARK SINGAPORE 730204,730204,21401.7937002759,47319.6576824244,1.44421587707158,103.77402718469,103.77402718469,Marsiling Park
96,MARSILING ADMIRALTY PARK,205,MARSILING DRIVE,MARSILING ADMIRALTY PARK,205 MARSILING DRIVE MARSILING ADMIRALTY PARK SINGAPORE 730205,730205,21341.361915241,47400.408788681,1.4449461460443,103.773484126567,103.773484126567,Marsiling Park
97,MARSILING ADMIRALTY PARK,206,MARSILING DRIVE,MARSILING ADMIRALTY PARK,206 MARSILING DRIVE MARSILING ADMIRALTY PARK SINGAPORE 730206,730206,21328.6428847313,47451.4007765614,1.44540729578602,103.77336982144,103.77336982144,Marsiling Park
98,MARSILING ADMIRALTY PARK,,NIL,MARSILING ADMIRALTY PARK,MARSILING ADMIRALTY PARK,NIL,21424.8685279302,47306.4140472207,1.44409611193974,103.774234537803,103.774234537803,Marsiling Park
99,MARSILING PARK CONNECTOR,,NIL,MARSILING PARK CONNECTOR,MARSILING PARK CONNECTOR,NIL,21099.8131745989,47157.6838341914,1.44275097234924,103.771313632454,103.771313632454,Marsiling Park
100,MARSILING PARK,,NIL,MARSILING PARK,MARSILING PARK,NIL,20929.845915081,46596.0159640741,1.43767141252746,103.76978645125,103.76978645125,Marsiling Park
101,MOUNT FABER GRACE PARK,,NIL,MOUNT FABER GRACE PARK,MOUNT FABER GRACE PARK,NIL,26600.0094752787,28374.319800701,1.27288173993558,103.82073916724,103.82073916724,Mount Faber Park
102,MOUNT FABER PARK,,NIL,MOUNT FABER PARK,MOUNT FABER PARK,NIL,26343.5242413711,28621.3867277242,1.27511611428167,103.818434543524,103.818434543524,Mount Faber Park
103,SINGAPORE BOTANIC GARDENS (NATIONAL ORCHID GARDEN),,NIL,SINGAPORE BOTANIC GARDENS (NATIONAL ORCHID GARDEN),SINGAPORE BOTANIC GARDENS (NATIONAL ORCHID GARDEN),NIL,25832.4352616929,32796.1740518902,1.3128713901498,103.81384193554,103.81384193554,National Orchid Garden
104,ONE-NORTH PARK,,NIL,ONE-NORTH PARK,ONE-NORTH PARK,NIL,23265.0719814943,31710.5966830328,1.30305352580179,103.790773072366,103.790773072366,One-north Park
105,PASIR RIS COAST INDUSTRIAL PARK 1,,PASIR RIS COAST INDUSTRIAL PARK 1,NIL,PASIR RIS COAST INDUSTRIAL PARK 1,NIL,38749.5072669135,41319.8617200674,1.38995467837492,103.929911230699,103.929911230699,Pasir Ris Park
106,PASIR RIS COAST INDUSTRIAL PARK 2,,PASIR RIS COAST INDUSTRIAL PARK 2,NIL,PASIR RIS COAST INDUSTRIAL PARK 2,NIL,38712.982732917,41440.1179751115,1.39104216010989,103.929583000605,103.929583000605,Pasir Ris Park
107,PASIR RIS COAST INDUSTRIAL PARK 3,,PASIR RIS COAST INDUSTRIAL PARK 3,NIL,PASIR RIS COAST INDUSTRIAL PARK 3,NIL,38865.1013474921,41590.1283453107,1.392398826248,103.930950032723,103.930950032723,Pasir Ris Park
108,PASIR RIS COAST INDUSTRIAL PARK 6,,PASIR RIS COAST INDUSTRIAL PARK 6,NIL,PASIR RIS COAST INDUSTRIAL PARK 6,NIL,38654.3599920137,41867.3158537949,1.39490478510572,103.929055556664,103.929055556664,Pasir Ris Park
109,PASIR RIS BEACH PARK,1,PASIR RIS HEIGHTS,PASIR RIS BEACH PARK,1 PASIR RIS HEIGHTS PASIR RIS BEACH PARK SINGAPORE 519208,519208,40284.8193682078,40265.2215751819,1.3804163003519,103.943706742355,103.943706742355,Pasir Ris Park
110,PASIR RIS BEACH PARK,1,PASIR RIS TERRACE,PASIR RIS BEACH PARK,1 PASIR RIS TERRACE PASIR RIS BEACH PARK SINGAPORE 518645,518645,40357.4346825844,40268.4088846724,1.38044509461748,103.944359245034,103.944359245034,Pasir Ris Park
111,PASIR RIS BEACH PARK,1,PASIR RIS LANE,PASIR RIS BEACH PARK,1 PASIR RIS LANE PASIR RIS BEACH PARK SINGAPORE 519169,519169,40619.2867932208,40330.9218962677,1.38101032708252,103.94671220313,103.94671220313,Pasir Ris Park
112,PASIR RIS BEACH PARK,1,PASIR RIS WAY,PASIR RIS BEACH PARK,1 PASIR RIS WAY PASIR RIS BEACH PARK SINGAPORE 518517,518517,40503.0625180872,40284.97110161,1.38059481524565,103.945667823911,103.945667823911,Pasir Ris Park
113,PASIR RIS BEACH PARK,1,PASIR RIS AVENUE,PASIR RIS BEACH PARK,1 PASIR RIS AVENUE PASIR RIS BEACH PARK SINGAPORE 519668,519668,40431.3152894843,40271.3531725202,1.3804716903677,103.945023117184,103.945023117184,Pasir Ris Park
114,PASIR RIS BEACH PARK,1,PASIR RIS VIEW,PASIR RIS BEACH PARK,1 PASIR RIS VIEW PASIR RIS BEACH PARK SINGAPORE 518584,518584,40371.3396126963,40157.0272750575,1.37943779523769,103.944484144173,103.944484144173,Pasir Ris Park
115,PASIR RIS TOWN PARK,,NIL,PASIR RIS TOWN PARK,PASIR RIS TOWN PARK,NIL,41257.7913020644,39281.4141571764,1.37151869270261,103.952449159325,103.952449159325,Pasir Ris Town Park
116,PEARL'S HILL CITY PARK,,NIL,PEARL'S HILL CITY PARK,PEARL'S HILL CITY PARK,NIL,28593.5399708273,29661.137551995,1.28451929408639,103.838651770829,103.838651770829,Pearl's Hill City Park
117,OUTWARD BOUND SINGAPORE (PULAU UBIN CAMP 1),2001,PULAU UBIN,OUTWARD BOUND SINGAPORE (PULAU UBIN CAMP 1),2001 PULAU UBIN OUTWARD BOUND SINGAPORE (PULAU UBIN CAMP 1) SINGAPORE 508416,508416,38670.8863154138,44611.7414179444,1.41972524091887,103.929205974869,103.929205974869,Pulau Ubin
118,OUTWARD BOUND SINGAPORE (PULAU UBIN CAMP 2),2003,PULAU UBIN,OUTWARD BOUND SINGAPORE (PULAU UBIN CAMP 2),2003 PULAU UBIN OUTWARD BOUND SINGAPORE (PULAU UBIN CAMP 2) SINGAPORE 508417,508417,39732.076255233,44297.2133298852,1.41688034957813,103.938741570472,103.938741570472,Pulau Ubin
119,PULAU UBIN ENVIRONMENTAL HUB,34,PULAU UBIN,PULAU UBIN ENVIRONMENTAL HUB,34 PULAU UBIN PULAU UBIN ENVIRONMENTAL HUB SINGAPORE 508287,508287,43246.3648704551,42735.3597633597,1.40275388681383,103.97031965585,103.97031965585,Pulau Ubin
120,PULAU UBIN AND CHEK JAWA,,NIL,PULAU UBIN AND CHEK JAWA,PULAU UBIN AND CHEK JAWA,NIL,43869.3005273184,43814.0729286,1.41250901343404,103.97591782415,103.97591782415,Pulau Ubin
121,POLICE COAST GUARD PULAU UBIN BASE,,PULAU UBIN,POLICE COAST GUARD PULAU UBIN BASE,PULAU UBIN POLICE COAST GUARD PULAU UBIN BASE,NIL,43373.464492674,42704.4717399962,1.40247447990036,103.971461731469,103.971461731469,Pulau Ubin
122,PULAU UBIN BEACH,,NIL,PULAU UBIN BEACH,PULAU UBIN BEACH,NIL,45640.4154011644,44197.5516046397,1.41597600555268,103.991833003372,103.991833003372,Pulau Ubin
123,SUNGEI PULAU UBIN,,NIL,SUNGEI PULAU UBIN,SUNGEI PULAU UBIN,NIL,43635.797501036,43071.1708749738,1.40579062373726,103.973819201379,103.973819201379,Pulau Ubin
124,PULAU UBIN,,NIL,PULAU UBIN,PULAU UBIN,NIL,43869.3005273184,43814.0729286,1.41250901343404,103.97591782415,103.97591782415,Pulau Ubin
125,PUNGGOL PARK COMMUNITY CENTRE,458,HOUGANG AVENUE 10,PUNGGOL PARK COMMUNITY CENTRE,458 HOUGANG AVENUE 10 PUNGGOL PARK COMMUNITY CENTRE SINGAPORE 530458,530458,35003.8041011514,39968.4836761616,1.37773445054619,103.896252880765,103.896252880765,Punggol Park
126,KNOWLEDGE PARK EDUCARE PTE LTD (PUNGGOL COVE PRIMARY SCHOOL),52,SUMANG WALK,KNOWLEDGE PARK EDUCARE PTE LTD (PUNGGOL COVE PRIMARY SCHOOL),52 SUMANG WALK KNOWLEDGE PARK EDUCARE PTE LTD (PUNGGOL COVE PRIMARY SCHOOL) SINGAPORE 828674,828674,35298.7904222226,43711.4672181848,1.41158455562454,103.89890448429,103.89890448429,Punggol Park
127,BLISS (PUNGGOL PARK),,HOUGANG AVENUE 8,BLISS (PUNGGOL PARK),HOUGANG AVENUE 8 BLISS (PUNGGOL PARK),NIL,35147.3731992058,39717.9191928171,1.37546840177012,103.897542892954,103.897542892954,Punggol Park
128,PUNGGOL PARK CONNECTOR,,NIL,PUNGGOL PARK CONNECTOR,PUNGGOL PARK CONNECTOR,NIL,33336.9627641588,41162.5719482508,1.38853370406513,103.88127531311,103.88127531311,Punggol Park
129,PUNGGOL WATERWAY PARK,,NIL,PUNGGOL WATERWAY PARK,PUNGGOL WATERWAY PARK,NIL,35956.5321113337,43646.5514432378,1.41099730594977,103.904814837855,103.904814837855,Punggol Park
130,PUNGGOL PARK,,NIL,PUNGGOL PARK,PUNGGOL PARK,NIL,35264.4200976007,39905.4826235976,1.37716462854545,103.89859468959,103.89859468959,Punggol Park
131,PUNGGOL SOUTH PARK,,NIL,PUNGGOL SOUTH PARK,PUNGGOL SOUTH PARK,NIL,33501.7311039893,39043.5441570058,1.369369951453,103.882755488345,103.882755488345,Punggol Park
132,PUNGGOL WATERWAY PARK,,NIL,PUNGGOL WATERWAY PARK,PUNGGOL WATERWAY PARK,NIL,35956.5321113337,43646.5514432378,1.41099730594977,103.904814837855,103.904814837855,Punggol Waterway Park
133,RAFFLES PLACE PARK,,NIL,RAFFLES PLACE PARK,RAFFLES PLACE PARK,NIL,30038.9372883933,29644.6548187826,1.28437016962651,103.851639236357,103.851639236357,Raffles Place Park
134,SEMBAWANG PARK,2,JALAN MATA AYER,SEMBAWANG PARK,2 JALAN MATA AYER SEMBAWANG PARK SINGAPORE 759087,759087,27119.0621430809,45289.9514072929,1.42586071345718,103.825402544355,103.825402544355,Sembawang Park
135,SEMBAWANG PARK,4,JALAN MATA AYER,SEMBAWANG PARK,4 JALAN MATA AYER SEMBAWANG PARK SINGAPORE 759147,759147,27112.9638405256,45290.6202389281,1.42586676193807,103.825347745496,103.825347745496,Sembawang Park
136,SEMBAWANG PARK,5,JALAN LENGKOK SEMBAWANG,SEMBAWANG PARK,5 JALAN LENGKOK SEMBAWANG SEMBAWANG PARK SINGAPORE 759197,759197,27209.2993565062,45515.6461715475,1.42790181795873,103.826213402148,103.826213402148,Sembawang Park
137,SEMBAWANG PARK,6,JALAN MATA AYER,SEMBAWANG PARK,6 JALAN MATA AYER SEMBAWANG PARK SINGAPORE 759090,759090,27106.5719687967,45292.3834700529,1.42588270776165,103.825290308615,103.825290308615,Sembawang Park
138,SEMBAWANG PARK,7,JALAN LENGKOK SEMBAWANG,SEMBAWANG PARK,7 JALAN LENGKOK SEMBAWANG SEMBAWANG PARK SINGAPORE 759198,759198,27207.8254267713,45504.2437983304,1.42779869897812,103.826200157844,103.826200157844,Sembawang Park
139,SEMBAWANG PARK,8,JALAN MATA AYER,SEMBAWANG PARK,8 JALAN MATA AYER SEMBAWANG PARK SINGAPORE 759091,759091,27101.2134762993,45293.9276215099,1.42589667233936,103.825242157599,103.825242157599,Sembawang Park
140,SEMBAWANG PARK,9,JALAN LENGKOK SEMBAWANG,SEMBAWANG PARK,9 JALAN LENGKOK SEMBAWANG SEMBAWANG PARK SINGAPORE 759199,759199,27174.5749872783,45515.4707988501,1.42790023095774,103.825901371594,103.825901371594,Sembawang Park
141,SEMBAWANG PARK,10,JALAN MATA AYER,SEMBAWANG PARK,10 JALAN MATA AYER SEMBAWANG PARK SINGAPORE 759092,759092,27094.8451833287,45295.677413648,1.42591249662371,103.825184932594,103.825184932594,Sembawang Park
142,SEMBAWANG PARK,10,JALAN LENGKOK SEMBAWANG,SEMBAWANG PARK,10 JALAN LENGKOK SEMBAWANG SEMBAWANG PARK SINGAPORE 759200,759200,27182.9766228581,45553.2944280021,1.42824229442299,103.825976866969,103.825976866969,Sembawang Park
143,SEMBAWANG PARK,10A,JALAN LENGKOK SEMBAWANG,SEMBAWANG PARK,10A JALAN LENGKOK SEMBAWANG SEMBAWANG PARK SINGAPORE 759250,759250,27176.8923041113,45554.8650639467,1.42825649850959,103.825922193687,103.825922193687,Sembawang Park
144,SKOOL4KIDZ CAMPUS @ SENGKANG RIVERSIDE PARK,3,ANCHORVALE CRESCENT,SKOOL4KIDZ CAMPUS @ SENGKANG RIVERSIDE PARK,3 ANCHORVALE CRESCENT SKOOL4KIDZ CAMPUS @ SENGKANG RIVERSIDE PARK SINGAPORE 544618,544618,34004.9620610755,42250.993206054,1.39837686069905,103.887278025209,103.887278025209,Sengkang Riverside Park
145,SENGKANG RIVERSIDE PARK,,NIL,SENGKANG RIVERSIDE PARK,SENGKANG RIVERSIDE PARK,NIL,33666.51176289,42375.5294327307,1.39950318947743,103.884236800325,103.884236800325,Sengkang Riverside Park
146,SENGKANG SCULPTURE PARK,,NIL,SENGKANG SCULPTURE PARK,SENGKANG SCULPTURE PARK,NIL,35060.0652607093,41864.632442873,1.39488251637671,103.896758884535,103.896758884535,Sengkang Sculpture Park
147,SINGAPORE BOTANIC GARDENS (COOL HOUSE),1,CLUNY ROAD,SINGAPORE BOTANIC GARDENS (COOL HOUSE),1 CLUNY ROAD SINGAPORE BOTANIC GARDENS (COOL HOUSE) SINGAPORE 259569,259569,25913.4923167275,32887.7923631426,1.3136999593839,103.814570267153,103.814570267153,Singapore Botanic Gardens
148,SINGAPORE BOTANIC GARDENS (EJH CORNER HOUSE),1,CLUNY ROAD,SINGAPORE BOTANIC GARDENS (EJH CORNER HOUSE),1 CLUNY ROAD SINGAPORE BOTANIC GARDENS (EJH CORNER HOUSE) SINGAPORE 259569,259569,26002.3859343547,33034.7660645433,1.31502914349758,103.81536901111,103.81536901111,Singapore Botanic Gardens
149,SINGAPORE BOTANIC GARDENS (HOLTTUM HALL),1,CLUNY ROAD,SINGAPORE BOTANIC GARDENS (HOLTTUM HALL),1 CLUNY ROAD SINGAPORE BOTANIC GARDENS (HOLTTUM HALL) SINGAPORE 259569,259569,26251.5821837634,32337.2866292559,1.30872140102123,103.817608204182,103.817608204182,Singapore Botanic Gardens
150,SINGAPORE BOTANIC GARDENS (PALM VALLEY),1,CLUNY ROAD,SINGAPORE BOTANIC GARDENS (PALM VALLEY),1 CLUNY ROAD SINGAPORE BOTANIC GARDENS (PALM VALLEY) SINGAPORE 259569,259569,25989.5954411356,32781.4922031723,1.31273862337468,103.815254098559,103.815254098559,Singapore Botanic Gardens
151,SINGAPORE BOTANIC GARDENS (RIDLEY HALL),1,CLUNY ROAD,SINGAPORE BOTANIC GARDENS (RIDLEY HALL),1 CLUNY ROAD SINGAPORE BOTANIC GARDENS (RIDLEY HALL) SINGAPORE 259569,259569,26288.353516194,32339.0789479129,1.30873761218125,103.817938612182,103.817938612182,Singapore Botanic Gardens
152,SINGAPORE BOTANIC GARDENS (TAMAN SERASI FOOD GARDEN),1,CLUNY ROAD,SINGAPORE BOTANIC GARDENS (TAMAN SERASI FOOD GARDEN),1 CLUNY ROAD SINGAPORE BOTANIC GARDENS (TAMAN SERASI FOOD GARDEN) SINGAPORE 259569,259569,25995.6525186971,32620.0905711707,1.31127896443187,103.815308534846,103.815308534846,Singapore Botanic Gardens
153,SINGAPORE BOTANIC GARDENS (VISITOR CENTRE),1,CLUNY ROAD,SINGAPORE BOTANIC GARDENS (VISITOR CENTRE),1 CLUNY ROAD SINGAPORE BOTANIC GARDENS (VISITOR CENTRE) SINGAPORE 259569,259569,26098.2485433575,33038.3750978485,1.31506178840771,103.816230384663,103.816230384663,Singapore Botanic Gardens
154,SINGAPORE BOTANIC GARDENS,1,CLUNY ROAD,SINGAPORE BOTANIC GARDENS,1 CLUNY ROAD SINGAPORE BOTANIC GARDENS SINGAPORE 259569,259569,25758.773129099,32863.4073555451,1.31347941910133,103.813180039922,103.813180039922,Singapore Botanic Gardens
155,SINGAPORE BOTANIC GARDENS (BOTANY CENTRE),1,CLUNY ROAD,SINGAPORE BOTANIC GARDENS (BOTANY CENTRE),1 CLUNY ROAD SINGAPORE BOTANIC GARDENS (BOTANY CENTRE) SINGAPORE 259569,259569,26289.2868597405,32309.1459399704,1.3084669086732,103.817947000372,103.817947000372,Singapore Botanic Gardens
156,SINGAPORE BOTANIC GARDENS (BURKILL HALL),1,CLUNY ROAD,SINGAPORE BOTANIC GARDENS (BURKILL HALL),1 CLUNY ROAD SINGAPORE BOTANIC GARDENS (BURKILL HALL) SINGAPORE 259569,259569,25813.4381670719,32736.4566215388,1.31233132546999,103.813671241453,103.813671241453,Singapore Botanic Gardens
157,SISTERS' ISLAND MARINE PARK,,NIL,SISTERS' ISLAND MARINE PARK,SISTERS' ISLAND MARINE PARK,NIL,28034.3717216086,21917.8069782257,1.21449131588834,103.833627415047,103.833627415047,Sisters' Island Marine Park
158,SUN PLAZA PARK,,NIL,SUN PLAZA PARK,SUN PLAZA PARK,NIL,40286.0316614918,37884.4498208072,1.35888549053265,103.94371665055,103.94371665055,Sun Plaza Park
159,SUNGEI BULOH WETLAND RESERVE,301,NEO TIEW CRESCENT,SUNGEI BULOH WETLAND RESERVE,301 NEO TIEW CRESCENT SUNGEI BULOH WETLAND RESERVE SINGAPORE 718925,718925,16740.7879932914,47445.3510541208,1.44535111253736,103.732143434175,103.732143434175,Sungei Buloh Wetland Reserve
160,SUNGEI BULOH WETLAND RESERVE (RESEARCH AND EDUCATION CENTRE),301,NEO TIEW CRESCENT,SUNGEI BULOH WETLAND RESERVE (RESEARCH AND EDUCATION CENTRE),301 NEO TIEW CRESCENT SUNGEI BULOH WETLAND RESERVE (RESEARCH AND EDUCATION CENTRE) SINGAPORE 718925,718925,16383.4125474822,47530.0172029976,1.44611665491165,103.72893203125,103.72893203125,Sungei Buloh Wetland Reserve
161,SUNGEI BULOH WETLAND RESERVE (VISITOR CENTRE),60,KRANJI WAY,SUNGEI BULOH WETLAND RESERVE (VISITOR CENTRE),60 KRANJI WAY SUNGEI BULOH WETLAND RESERVE (VISITOR CENTRE) SINGAPORE 739453,739453,17094.5211412804,46873.9766048398,1.44018395719345,103.735322293969,103.735322293969,Sungei Buloh Wetland Reserve
162,SUNGEI BULOH WETLAND RESERVE WEST,,NIL,SUNGEI BULOH WETLAND RESERVE WEST,SUNGEI BULOH WETLAND RESERVE WEST,NIL,14237.5129008284,47551.1406234745,1.44630671217209,103.709649014412,103.709649014412,Sungei Buloh Wetland Reserve
163,SUNGEI BULOH WETLAND RESERVE,,NIL,SUNGEI BULOH WETLAND RESERVE,SUNGEI BULOH WETLAND RESERVE,NIL,15843.8640053095,47476.7118331213,1.44563435178736,103.724083681889,103.724083681889,Sungei Buloh Wetland Reserve
164,TAMPINES ECO GREEN PARK,,NIL,TAMPINES ECO GREEN PARK,TAMPINES ECO GREEN PARK,NIL,40783.0930954572,38425.4159639981,1.36377757605703,103.948183299896,103.948183299896,Tampines Eco Green
165,TANJONG PAGAR PARK,,NIL,TANJONG PAGAR PARK,TANJONG PAGAR PARK,NIL,29447.0654513435,28781.153374048,1.27656099825193,103.846320994884,103.846320994884,Tanjong Pagar Park
166,TELOK BLANGAH HILL PARK,,NIL,TELOK BLANGAH HILL PARK,TELOK BLANGAH HILL PARK,NIL,25465.4915008703,29033.754166266,1.27884536251889,103.810545068207,103.810545068207,Telok Blangah Hill Park
167,THE SOUTHERN RIDGES,,TELOK BLANGAH GREEN,THE SOUTHERN RIDGES,TELOK BLANGAH GREEN THE SOUTHERN RIDGES,NIL,25532.5115363132,28965.6906420849,1.27822982521405,103.81114727366,103.81114727366,The Southern Ridges
168,THE SOUTHERN RIDGES,,MOUNT FABER ROAD,THE SOUTHERN RIDGES,MOUNT FABER ROAD THE SOUTHERN RIDGES,NIL,26323.13887541,28354.3334575687,1.27270097701664,103.81825138766,103.81825138766,The Southern Ridges
169,THE SOUTHERN RIDGES,,PEPYS ROAD,THE SOUTHERN RIDGES,PEPYS ROAD THE SOUTHERN RIDGES,NIL,23457.6389823938,29475.3700114936,1.28283895538065,103.79250369812,103.79250369812,The Southern Ridges
170,TIONG BAHRU PARK,,NIL,TIONG BAHRU PARK,TIONG BAHRU PARK,NIL,27040.3094804501,29977.9052287061,1.28738402062473,103.824695370614,103.824695370614,Tiong Bahru Park
171,TOA PAYOH TOWN PARK,,NIL,TOA PAYOH TOWN PARK,TOA PAYOH TOWN PARK,NIL,29624.3706992259,34751.1908082571,1.33055190359647,103.847914458306,103.847914458306,Toa Payoh Town Park
172,UPPER PEIRCE RESERVOIR PARK,,NIL,UPPER PEIRCE RESERVOIR PARK,UPPER PEIRCE RESERVOIR PARK,NIL,25702.1257500686,39357.469942458,1.37220940699436,103.812670541882,103.812670541882,Upper Peirce Reservoir Park
173,H.S. OF UPPER SELETAR RESERVOIR (HISTORIC SITE),,NIL,H.S. OF UPPER SELETAR RESERVOIR (HISTORIC SITE),H.S. OF UPPER SELETAR RESERVOIR (HISTORIC SITE),NIL,25026.5873643039,42538.6287959386,1.40097860385046,103.806600025953,103.806600025953,Upper Seletar Reservoir
174,UPPER SELETAR RESERVOIR PARK,,NIL,UPPER SELETAR RESERVOIR PARK,UPPER SELETAR RESERVOIR PARK,NIL,25110.744920251,42487.5303858276,1.40051649680635,103.807356255693,103.807356255693,Upper Seletar Reservoir
175,UPPER SELETAR RESERVOIR,,NIL,UPPER SELETAR RESERVOIR,UPPER SELETAR RESERVOIR,NIL,24372.9774063099,42615.0946215969,1.40167005833452,103.800726795114,103.800726795114,Upper Seletar Reservoir
176,WAR MEMORIAL PARK,,NIL,WAR MEMORIAL PARK,WAR MEMORIAL PARK,NIL,30393.3129651407,30580.8413455952,1.29283668627998,103.854823512628,103.854823512628,War Memorial Park
177,WATERBOAT HOUSE GARDEN,,NIL,WATERBOAT HOUSE GARDEN,WATERBOAT HOUSE GARDEN,NIL,30242.2493629772,29971.7427277565,1.28732822387192,103.853466098771,103.853466098771,Waterboat House Garden
178,WEST COAST PARK (ROAD),,WEST COAST PARK (ROAD),NIL,WEST COAST PARK (ROAD),NIL,19295.70045065,33306.0103650196,1.31748051028135,103.755106332065,103.755106332065,West Coast Park
179,WEST COAST PARK OFFICE,81,WEST COAST HIGHWAY,WEST COAST PARK OFFICE,81 WEST COAST HIGHWAY WEST COAST PARK OFFICE SINGAPORE 126759,126759,20187.0408098055,31175.5136673022,1.29821380402112,103.763115690996,103.763115690996,West Coast Park
180,WEST COAST PARK CONNECTOR,,NIL,WEST COAST PARK CONNECTOR,WEST COAST PARK CONNECTOR,NIL,19427.6741232201,32579.660172455,1.31091219882988,103.756292063726,103.756292063726,West Coast Park
181,WEST COAST PARK,,NIL,WEST COAST PARK,WEST COAST PARK,NIL,20143.564180674,31009.806808101,1.29671519967862,103.762725076032,103.762725076032,West Coast Park
182,WOODLANDS WATERFRONT PARK,,NIL,WOODLANDS WATERFRONT PARK,WOODLANDS WATERFRONT PARK,NIL,22246.506838941,48379.8111859448,1.45380370281178,103.781617546,103.781617546,Woodlands Waterfront Park
183,YISHUN NEIGHBOURHOOD PARK,,NIL,YISHUN NEIGHBOURHOOD PARK,YISHUN NEIGHBOURHOOD PARK,NIL,28205.7514063194,46603.7013380863,1.43774180535158,103.835167452882,103.835167452882,Yishun Neighbourhood Park
184,YISHUN INDUSTRIAL PARK A,,YISHUN INDUSTRIAL PARK A,NIL,YISHUN INDUSTRIAL PARK A,NIL,28253.6005620172,47012.3067811252,1.44144025471558,103.835602638346,103.835602638346,Yishun Park
185,YISHUN INDUSTRIAL PARK A,1016,YISHUN INDUSTRIAL PARK A,YISHUN INDUSTRIAL PARK A,1016 YISHUN INDUSTRIAL PARK A YISHUN INDUSTRIAL PARK A SINGAPORE 768758,768758,28018.7464803746,46999.3147212099,1.441319590098,103.833487033799,103.833487033799,Yishun Park
186,YISHUN INDUSTRIAL PARK A,1017,YISHUN INDUSTRIAL PARK A,YISHUN INDUSTRIAL PARK A,1017 YISHUN INDUSTRIAL PARK A YISHUN INDUSTRIAL PARK A SINGAPORE 768759,768759,28038.033784423,46967.8694945332,1.44103521085388,103.833660349027,103.833660349027,Yishun Park
187,YISHUN INDUSTRIAL PARK A,1018,YISHUN INDUSTRIAL PARK A,YISHUN INDUSTRIAL PARK A,1018 YISHUN INDUSTRIAL PARK A YISHUN INDUSTRIAL PARK A SINGAPORE 768760,768760,28049.3791327598,46949.258256169,1.44086689754657,103.83376229802,103.83376229802,Yishun Park
188,YISHUN INDUSTRIAL PARK A,1019,YISHUN INDUSTRIAL PARK A,YISHUN INDUSTRIAL PARK A,1019 YISHUN INDUSTRIAL PARK A YISHUN INDUSTRIAL PARK A SINGAPORE 768761,768761,28068.766896246,46917.7971690707,1.44058237484414,103.833936515906,103.833936515906,Yishun Park
189,YISHUN INDUSTRIAL PARK A,1023,YISHUN INDUSTRIAL PARK A,YISHUN INDUSTRIAL PARK A,1023 YISHUN INDUSTRIAL PARK A YISHUN INDUSTRIAL PARK A SINGAPORE 768762,768762,28067.7965652244,47194.3988984395,1.44308386055612,103.833927797185,103.833927797185,Yishun Park
190,YISHUN INDUSTRIAL PARK A,1024,YISHUN INDUSTRIAL PARK A,YISHUN INDUSTRIAL PARK A,1024 YISHUN INDUSTRIAL PARK A YISHUN INDUSTRIAL PARK A SINGAPORE 768763,768763,28192.2603000803,47270.7463157456,1.44377431832425,103.835046226808,103.835046226808,Yishun Park
191,YISHUN PARK HAWKER CENTRE,51,YISHUN AVENUE 11,YISHUN PARK HAWKER CENTRE,51 YISHUN AVENUE 11 YISHUN PARK HAWKER CENTRE SINGAPORE 768867,768867,29271.873695693,45193.4376128893,1.42498786287366,103.844747525064,103.844747525064,Yishun Park
192,RAINBOW CENTRE - YISHUN PARK SCHOOL,15,YISHUN STREET 61,RAINBOW CENTRE - YISHUN PARK SCHOOL,15 YISHUN STREET 61 RAINBOW CENTRE - YISHUN PARK SCHOOL SINGAPORE 768548,768548,28459.2889926322,44660.678936163,1.4201698106083,103.837445700968,103.837445700968,Yishun Park
193,OOSH YISHUN PARK,615,YISHUN RING ROAD,OOSH YISHUN PARK,615 YISHUN RING ROAD OOSH YISHUN PARK SINGAPORE 760615,760615,28255.4643902797,44591.1528327409,1.41954104417627,103.835614153962,103.835614153962,Yishun Park
194,YISHUN POND PARK,,NIL,YISHUN POND PARK,YISHUN POND PARK,NIL,28750.425589391,45507.4539298788,1.42782773147436,103.840061845933,103.840061845933,Yishun Pond Park
195,YOUTH OLYMPIC PARK,,NIL,YOUTH OLYMPIC PARK,YOUTH OLYMPIC PARK,NIL,31017.4889434399,30151.4486202318,1.28895335576015,103.860431957375,103.860431957375,Youth Olympic Park
196,ZHENGHUA NATURE PARK,,NIL,ZHENGHUA NATURE PARK,ZHENGHUA NATURE PARK,NIL,21873.921216758,38894.796358278,1.36802460641509,103.778271500186,103.778271500186,Zhenghua Park
